city,location/lat,location/lng,phone,address,reviewsCount,totalScore,state,title,categories,combined_opening_hours
Bangli Regency,-8.2081822,115.3275212,Unknown,"Q8RH+P2C, Jalan Raya, Sukawana, Kintamani, Bangli Regency, Bali 80652, Indonesia",956,4.7,Bali,Pura Puncak Penulisan,Hindu temple Tourist attraction,"Monday Open 24 hours, Tuesday Open 24 hours, Wednesday Open 24 hours, Thursday Open 24 hours, Friday Open 24 hours, Saturday Open 24 hours, Sunday Open 24 hours,"
Gianyar Regency,-8.5228143,115.2637566,+62 361 976659,"Jl. Raya Pengosekan Ubud, Ubud, Kecamatan Ubud, Kabupaten Gianyar, Bali 80571, Indonesia",1111,4.5,Bali,Agung Rai Museum of Art,Art museum Museum Tourist attraction,"Monday 9 AM to 6 PM, Tuesday 9 AM to 6 PM, Wednesday 9 AM to 6 PM, Thursday 9 AM to 6 PM, Friday 9 AM to 6 PM, Saturday 9 AM to 6 PM, Sunday 9 AM to 6 PM,"
Badung Regency,-8.7232678,115.1698051,+62 811-3882-683,"75G9+MWV, Jl. Pantai Kuta, Kuta, Kec. Kuta, Kabupaten Badung, Bali 80361, Indonesia",272,4.4,Bali,Bali Sea Turtle Society,Non-profit organization Conservation department Tourist attraction,      
Tabanan Regency,-8.3020948,115.1587735,+62 821-4520-0103,"Br. Batusesa, Candikuning, Baturiti, Tabanan Regency, Bali 82191, Indonesia",4124,4.6,Bali,The Blooms Garden,Tourist attraction Hotel Restaurant Villa,      
Karangasem Regency,-8.4830133,115.6173424,+62 878-6009-5999,"Subagan, Karangasem, Karangasem Regency, Bali 80813, Indonesia",867,3.8,Bali,Bali Chocolate Factory,Tourist attraction Event ticket seller,"Monday 7 AM to 8 PM, Tuesday 7 AM to 8 PM, Wednesday 7 AM to 8 PM, Thursday 7:30 AM to 5 PM, Friday 7:30 AM to 8 PM, Saturday 7:30 AM to 9:30 PM, Sunday 6 AM to 8 PM,"
Gianyar Regency,-8.4949388,115.2475037,Unknown,"G64X+22C, Jl. Penestanan, Sayan, Kecamatan Ubud, Kabupaten Gianyar, Bali 80571, Indonesia",112,4.8,Bali,Rice Fields Walk,Tourist attraction Hiking area,      
Denpasar City,-8.6452883,115.228047,+62 821-4443-2798,"Gg. Merak No.18, Tonja, Kec. Denpasar Utara, Kota Denpasar, Bali 80236, Indonesia",0,4.7,Bali,Bali Vacation,Travel agency,"Monday Open 24 hours, Tuesday Open 24 hours, Wednesday Open 24 hours, Thursday Open 24 hours, Friday Open 24 hours, Saturday Open 24 hours, Sunday Open 24 hours,"
Badung Regency,-8.8063766,115.1167871,+62 812-3931-9113,"Jl. Pantai Bingin, Pecatu, Kec. Kuta Sel., Kabupaten Badung, Bali 80361, Indonesia",4,4.0,Bali,The Jepun Villas by Bukit Vista,Hotel,      
Kuta Utara,-8.6596957,115.1633228,+62 812-3789-9938,"Dalung Permai Blok ZZ V No. 44, Kerobokan Kelod, Kec. Kuta Utara, Kuta Utara, Bali 80361, Indonesia",1,5.0,Bali,Geria Bali Vacation,Travel agency,      
Denpasar City,-8.6400906,115.1827441,+62 361 8444529,"No., Jl. Tunjung Sari No.69, Padangsambian Kaja, Kec. Denpasar Bar., Kota Denpasar, Bali 80117, Indonesia",2,4.5,Bali,Bali Holiday Villas,Vacation home rental agency Real estate rental agency,"Monday 9 AM to 5 PM, Tuesday 9 AM to 5 PM, Wednesday 9 AM to 5 PM, Thursday 9 AM to 5 PM, Friday 9 AM to 5 PM, Saturday 9 AM to 5 PM, Sunday Closed,"
Badung Regency,-8.8065662,115.2137139,+62 361 2092888,"Kawasan Pariwisata Itdc Lot SW 4-5, Nusa Dua, Bali 80363, Indonesia",189,4.6,Bali,Marriott’s Bali Nusa Dua Terrace,Hotel Meeting planning service Wedding venue,      
Badung Regency,-8.8435204,115.1632322,+62 361 4467260,"Jl. Melasti No.104, Ungasan, Kec. Kuta Sel., Kabupaten Badung, Bali 80361, Indonesia",37,4.0,Bali,Surya Melasti Exclusive Beach Villa by Sajiwa,Hotel Villa,      
Badung Regency,-8.6389491,115.1591979,Unknown,"Jl. Aseman Bagus Gang Lili No.33, Tibubeneng, Kec. Kuta Utara, Kabupaten Badung, Bali 80361, Indonesia",48,4.5,Bali,Villa Maya Aseman Bagus,Vacation home rental agency,"Monday 9 AM to 5 PM, Tuesday 9 AM to 5 PM, Wednesday 9 AM to 5 PM, Thursday 9 AM to 5 PM, Friday 9 AM to 5 PM, Saturday Closed, Sunday Closed,"
Badung Regency,-8.641528,115.158047,Unknown,"Po Box 3647 Renon, Jl. Aseman Bagus n3. Br Aseman Kangin TIBUBENENG, Tibubeneng, Kuta Utara, Badung Regency, Bali 40115, Indonesia",1,5.0,Bali,Villa Kedis,Vacation home rental agency,      
Badung Regency,-8.6454498,115.1619268,+62 821-4681-5216,"Jl. Raya Canggu, Kerobokan, Kec. Kuta Utara, Kabupaten Badung, Bali 80361, Indonesia",0,4.7,Bali,Bali Villa,Vacation home rental agency,"Monday Open 24 hours, Tuesday Open 24 hours, Wednesday Open 24 hours, Thursday Open 24 hours, Friday Open 24 hours, Saturday Open 24 hours, Sunday Open 24 hours,"
Badung Regency,-8.693451,115.1631697,+62 812-3683-2838,"Villa Tresna, Jl. Abimanyu Gg. Melon, Seminyak, Kuta, Badung Regency, Bali 80361, Indonesia",25,4.7,Bali,Villa Tresna Seminyak,Villa Holiday apartment rental Hotel Serviced accommodation Holiday apartment Vacation home rental agency,      
Badung Regency,-8.6321346,115.1735788,+62 819-3607-8874,"959F+4CW, Dalung, Kuta Utara, Badung Regency, Bali 80361, Indonesia",0,4.7,Bali,Tuana home stay,Vacation home rental agency,      
Badung Regency,-8.8063019,115.1502451,+62 881-4686-088,"Blong Bidadari I, Jimbaran, Kec. Kuta Sel., Kabupaten Badung, Bali 80361, Indonesia",13,5.0,Bali,roarfrombali,Tour agency,"Monday 6 AM to 10 PM, Tuesday 6 AM to 10 PM, Wednesday 6 AM to 10 PM, Thursday 6 AM to 10 PM, Friday 6 AM to 10 PM, Saturday 6 AM to 10 PM, Sunday Closed,"
Badung Regency,-8.8372114,115.1298984,Unknown,"Jl. Pura Beji, Pecatu, Kec. Kuta Sel., Kabupaten Badung, Bali 80361, Indonesia",45,4.9,Bali,Villa Anasera by Bukit Vista,Hotel Villa,      
Badung Regency,-8.6388829,115.1576165,+62 361 7420590,"Jl. Raya Padonan No.32B, Tibubeneng, Kec. Kuta Utara, Kabupaten Badung, Bali 80361, Indonesia",2,5.0,Bali,Bali Villas,Vacation home rental agency,      
Badung Regency,-8.625344,115.179559,+62 813-3981-4771,"jalan kunyit tawahsari || No.9, Dalung, Kec. Kuta Utara, Kabupaten Badung, Bali 80361, Indonesia",8,4.9,Bali,Reizentours Tour Package Vacation Holliday,Travel agency,"Monday Open 24 hours, Tuesday Open 24 hours, Wednesday Open 24 hours, Thursday Open 24 hours, Friday Open 24 hours, Saturday Open 24 hours, Sunday Open 24 hours,"
Bali,-8.8088467,115.2248344,+62 361 8480555,"Jl. Pantai Mengiat, Benoa, Kec. Kuta Sel., Bali, 80363, Indonesia",5987,4.7,Bali,Novotel Bali Nusa Dua - Hotel & Residences,Hotel,      
Badung Regency,-8.6364561,115.1728935,+62 821-4630-8851,"No.200 Br batuculung, Jl. Wy Gebyag, Kerobokan Kaja, Kuta Utara, Badung Regency, Bali 80361, Indonesia",6,4.5,Bali,made cenik stay,Vacation home rental agency,"Monday Open 24 hours, Tuesday Open 24 hours, Wednesday Open 24 hours, Thursday Open 24 hours, Friday Open 24 hours, Saturday Open 24 hours, Sunday Open 24 hours,"
Badung Regency,-8.681926,115.1704204,+62 855-7467-8171,"Jalan Bidadari ll, Kerobokan, Jl. Raya Taman Jl. Mertanadi, Seminyak, Kabupaten Badung, Bali 80361, Indonesia",25,5.0,Bali,Villa Anaya Manis,Villa Vacation home rental agency,"Monday Open 24 hours, Tuesday Open 24 hours, Wednesday Open 24 hours, Thursday Open 24 hours, Friday Open 24 hours, Saturday Open 24 hours, Sunday Open 24 hours,"
Badung Regency,-8.6518237,115.1761391,+62 813-5336-8737,"pondok Wali Bali, Gg. Ratna No.17, Kerobokan Kaja, Kec. Kuta Utara, Kabupaten Badung, Bali 80361, Indonesia",0,4.7,Bali,Bali vacation tour and travel,Travel agency,      
Badung Regency,-8.8219318,115.1859285,Unknown,"Jl. Gubug Sari Gg. Nuri No.1, Kutuh, Kec. Kuta Sel., Kabupaten Badung, Bali 80361, Indonesia",150,4.6,Bali,el homestay bali,Homestay Hotel Lodge,      
Badung Regency,-8.8200695,115.0901193,+62 857-9270-0538,"Pantai Suluban St, Pecatu, South Kuta, Badung Regency, Bali 80361, Indonesia",20,4.3,Bali,Bhujangga's Village RedPartner,Hotel,      
Badung Regency,-8.8128275,115.2264772,+62 361 8478111,"Kawasan Nusa Dua, Bali 80363, Indonesia",2477,4.8,Bali,The St. Regis Bali Resort,Hotel Meeting planning service Wedding venue,      
Badung Regency,-8.6766476,115.167163,Unknown,"Jl. Mertanadi No.88, Kerobokan Kelod, Kec. Kuta Utara, Kabupaten Badung, Bali 80361, Indonesia",15,3.9,Bali,Villa Kayana,Hotel,      
Badung Regency,-8.8092824,115.1154033,Unknown,"Bingin, Jln. Bingin Sari Jl. Buana Sari No.Br, Pecatu, Kec. Kuta Sel., Kabupaten Badung, Bali 80363, Indonesia",24,4.8,Bali,Bingin Breeze,Villa Hotel,      
Badung Regency,-8.6942847,115.1658112,+62 812-3683-2838,"Villa Cemara, Jl. Raya Seminyak Gg. Keraton, Seminyak, Kuta, Badung Regency, Bali 80361, Indonesia",11,4.5,Bali,Villa Cemara Seminyak,Villa Holiday apartment rental Hotel Lodging Serviced accommodation Holiday apartment Vacation home rental agency,      
Badung Regency,-8.8258177,115.1320147,+62 361 8471117,"Uluwatu, Jl. Nabor No.29, Pecatu, Kec. Kuta Sel., Kabupaten Badung, Bali 80361, Indonesia",341,4.5,Bali,S Resorts Hidden Valley,Resort hotel,      
Badung Regency,-8.814393,115.092173,+62 858-2939-6301,"Pecatu, South Kuta, Badung Regency, Bali 80361, Indonesia",412,4.6,Bali,Uluwatu Cottages,Resort hotel,      
Badung Regency,-8.8076239,115.1169873,+62 881-0376-25039,"Jl. Pantai Bingin No.9, Pecatu, Kec. Kuta Sel., Kabupaten Badung, Bali 80361, Indonesia",1,3.0,Bali,Villa Marsun,Hotel,      
Badung Regency,-8.6814133,115.1620151,+62 361 8475976,"Jl. Beraban, Kerobokan Kelod, Kec. Kuta Utara, Kabupaten Badung, Bali 80361, Indonesia",22,4.6,Bali,Villa Banyu,Villa Vacation home rental agency,"Monday 9 AM to 5:30 PM, Tuesday 9 AM to 5:30 PM, Wednesday 9 AM to 5:30 PM, Thursday 9 AM to 5:30 PM, Friday 9 AM to 5:30 PM, Saturday 9 AM to 4 PM, Sunday 10 AM to 4 PM,"
Badung Regency,-8.8056854,115.1172432,Unknown,"Jl. Pantai Bingin, Pecatu, Kec. Kuta Sel., Kabupaten Badung, Bali 80361, Indonesia",22,5.0,Bali,Lyvin Bingin Villas,Villa Hotel,      
Badung Regency,-8.8316569,115.1730076,Unknown,"Jl. Teba Kauh, Kutuh, Kec. Kuta Sel., Kabupaten Badung, Bali 80361, Indonesia",178,4.9,Bali,FPB Hospitality Management,Resort hotel,      
Badung Regency,-8.6858821,115.1604224,+62 812-3683-2838,"8576+H5R Villa Krisna, Gg. Bugis, Seminyak, Kec. Kuta, Kabupaten Badung, Bali 80361, Indonesia",17,4.9,Bali,Villa Krisna Seminyak,Villa Holiday apartment rental Hotel Lodging Serviced accommodation Holiday apartment Vacation home rental agency,      
Badung Regency,-8.6936013,115.1640454,+62 812-3683-2838,"Villa Kebun, Jl. Abimanyu Gg. Melon, Seminyak, Kuta, Badung Regency, Bali 80361, Indonesia",14,4.9,Bali,Villa Kebun Seminyak,Villa Holiday apartment rental Hotel Lodging Serviced accommodation Holiday apartment Vacation home rental agency,      
Badung Regency,-8.694636,115.1654096,+62 361 8476760,"8548+45V, Villa Mimpi, Jl. Raya Seminyak Gg. Keraton, Seminyak, Kuta, Badung Regency, Bali 80361, Indonesia",4,4.5,Bali,Villa Mimpi,Villa Holiday apartment rental Hotel Lodging Serviced accommodation Holiday apartment Vacation home rental agency,      
Denpasar City,-8.697328,115.212786,+62 812-3950-536,"8637+347, Jl. Pulau Moyo Gg. Rembulan, Pedungan, Denpasar Selatan, Kota Denpasar, Bali 80222, Indonesia",7,4.4,Bali,BOAT caspla bali seaview,Cruise agency Event ticket seller Ferry service Travel agency Vacation home rental agency,"Monday 8 AM to 5 PM, Tuesday 8 AM to 5 PM, Wednesday 8 AM to 5 PM, Thursday 8 AM to 5 PM, Friday 8 AM to 5 PM, Saturday 8 AM to 5 PM, Sunday 8 AM to 5 PM,"
Badung Regency,-8.8075436,115.1175967,Unknown,"54R9+X2Q, Jl. Bangbang Metuug, Pecatu, Kec. Kuta Sel., Kabupaten Badung, Bali 80361, Indonesia",4,4.3,Bali,VILLA SHIVA,Hotel Villa,      
Badung Regency,-8.693372,115.1639383,+62 812-3683-2838,"Villa Ginger, Jl. Abimanyu Gg. Melon, Seminyak, Kuta, Badung Regency, Bali 80361, Indonesia",13,4.9,Bali,Villa Ginger Seminyak,Villa Holiday apartment rental Hotel Serviced accommodation Holiday apartment Vacation home rental agency,      
Badung Regency,-8.809598,115.11286,+62 812-3753-8235,"JL. PANTAI BINGIN GG. MENTEG Nº 4, Pecatu, Bali 80361, Indonesia",20,4.7,Bali,Shoreline Villas Bingin,Villa Group accommodation Hotel Homestay,      
Badung Regency,-8.6886639,115.1616954,+62 812-3974-654,"Jl. Lb. Sari, Seminyak, Kec. Kuta, Kabupaten Badung, Bali, Indonesia",138,4.4,Bali,Hedonia Luxury Villas,Hotel,      
Badung Regency,-8.6888974,115.1647384,+61 434 440 750,"Villa Indah, Jl. Drupadi Gg. Damai, Seminyak, Kuta, Badung Regency, Bali 80361, Indonesia",11,5.0,Bali,Villa Indah,Villa Holiday apartment rental Hotel Serviced accommodation Holiday apartment Vacation home rental agency,      
Badung Regency,-8.6889509,115.164083,+62 812-3683-2838,"Villa Santai, Jl. Drupadi gang Damai, Seminyak, Kuta, Badung Regency, Bali 80361, Indonesia",19,4.7,Bali,Villa Santai Seminyak,Villa Holiday apartment rental Hotel Serviced accommodation Holiday apartment Vacation home rental agency,      
Badung Regency,-8.8075993,115.2067011,+62 21 29707601,"Belvilla 93322 6 Bedrooms Luxury Villa With Pool Near Pandawa Beach, 80363, Unnamed Road, Benoa, Kec. Kuta Sel., Kabupaten Badung, Bali 80361, Indonesia",18,5.0,Bali,Elegant 6 Bedrooms Luxury Villa Near Pandawa Beach,Hotel,      
Badung Regency,-8.6943191,115.1656577,+62 812-3683-2838,"Villa Olive, Jl. Raya Seminyak Gg. Keraton, Seminyak, Kuta, Badung Regency, Bali 80361, Indonesia",11,4.7,Bali,Villa Olive Seminyak,Villa Holiday apartment rental Hotel Serviced accommodation Holiday apartment Vacation home rental agency,      
Badung Regency,-8.8425675,115.1727331,+62 813-3858-4440,"Next to Vivo Villas, Ungasan, Kuta Selatan Kuta Selatan Kutuh Lima, Jl. karang pandawa, Kutuh, South Kuta, Badung Regency, Bali, Indonesia",300,4.7,Bali,Salty Breeze Bali,Hotel,      
Badung Regency,-8.81609,115.151314,+62 813-8183-1755,"Uluwatu St, Ungasan, South Kuta, Badung Regency, Bali 80361, Indonesia",184,4.1,Bali,Avery Le Nixsun Villas by Waringin Hospitality,Hotel Villa,      
Badung Regency,-8.6944319,115.1654626,+62 812-3683-2838,"Villa Mahkota, Jl. Raya Seminyak Gg. Keraton, Seminyak, Kuta, Badung Regency, Bali 80361, Indonesia",23,4.7,Bali,Villa Mahkota,Villa Holiday apartment rental Hotel Lodging Serviced accommodation Holiday apartment Vacation home rental agency,      
Badung Regency,-8.8256848,115.2186745,+62 361 773377,"Jl. Raya Nusa Dua Selatan, Benoa, Kec. Kuta Sel., Kabupaten Badung, Bali 80361, Indonesia",8392,4.6,Bali,Hilton Bali Resort,Resort hotel Banquet hall Conference center Event venue Spa and health club Wedding planner Wedding venue,      
Badung Regency,-8.6893961,115.1632694,+62 812-3683-2838,"Villa Cinta, Jl. Drupadi Gg. Kubu Carik, Seminyak, Kuta, Badung Regency, Bali 80361, Indonesia",11,4.9,Bali,Villa Cinta Seminyak,Villa Holiday apartment rental Hotel Lodging Serviced accommodation Holiday apartment Vacation home rental agency,      
Badung Regency,-8.8097809,115.1937471,+62 21 29706666,"Jl. Dharmawangsa Kampial, Nusa Dua No.138, Benoa, Kec. Kuta Sel., Kabupaten Badung, Bali 80361, Indonesia",33,4.2,Bali,Bellevue Heritage,Hotel,      
Badung Regency,-8.8172578,115.0894165,+62 813-3999-4306,"Pantai Suluban St, Pecatu, South Kuta, Badung Regency, Bali 80361, Indonesia",12,4.8,Bali,Bahari Villas,Hotel,      
Badung Regency,-8.6947166,115.1649178,+62 812-3683-2838,"Villa Jaclan, Seminyak Gg. Keraton, Seminyak, Kuta, Badung Regency, Bali 80361, Indonesia",14,4.9,Bali,Villa Jaclan Seminyak,Villa Holiday apartment rental Hotel Serviced accommodation Holiday apartment Vacation home rental agency,      
Badung Regency,-8.7288689,115.1759534,+62 813-8955-2026,"Gg. Sadasari II No.11, Kuta, Kec. Kuta, Kabupaten Badung, Bali 80361, Indonesia",9,4.9,Bali,Villaok Kuta,Hotel Vacation home rental agency Villa,      
Denpasar City,-8.6863095,115.1890802,+62 361 9347071,"ONE derland, Jl. Gunung Soputan I, Pemecutan Klod, Kec. Denpasar Bar., Kota Denpasar, Bali 80119, Indonesia",18,4.7,Bali,Liburan Bali - Travel Agent di Bali,Travel agency Airline Sightseeing tour agency Tourist information center Vacation home rental agency,      
Badung Regency,-8.8108608,115.160679,+62 813-3727-1071,"Jl. Pura Pangulapan No. 99 Ungasan Kuta selatan, Ungasan, Badung, Kabupaten Badung, Bali 80361, Indonesia",125,4.5,Bali,House 99,Country house Resort hotel,      
Badung Regency,-8.8067098,115.223768,+62 361 3013333,"Lot Sw1, Kawasan Pariwisata Jl. Nusa Dua, Bali 80363, Indonesia",1098,4.7,Bali,Marriott’s Bali Nusa Dua Gardens,Hotel Extended stay hotel,      
Badung Regency,-8.6858593,115.1663176,+62 812-3833-370,"gg. dewata Jl. Raya Basangkasa No.15B, Seminyak, Kec. Kuta, Kabupaten Badung, Bali 80361, Indonesia",51,4.8,Bali,Villa Dewata Bali,Resort hotel Hotel Vacation home rental agency,      
Badung Regency,-8.6756161,115.1649508,+62 821-4401-3801,"Jl. Raya Kerobokan No.47, Kerobokan Kelod, Kec. Kuta Utara, Kabupaten Badung, Bali 80363, Indonesia",21,5.0,Bali,Expeditour Bali,Travel agency Car leasing service Tour agency Visa consulting service,"Monday Open 24 hours, Tuesday Open 24 hours, Wednesday Open 24 hours, Thursday Open 24 hours, Friday Open 24 hours, Saturday Open 24 hours, Sunday Open 24 hours,"
Badung Regency,-8.6860865,115.1592051,+62 361 737929,"Gg Kahyangan n°15,, Jalan Kayu Aya, Seminyak, Kec. Kuta, Kabupaten Badung, Bali 80361, Indonesia",1,5.0,Bali,Gorgeous Villas Bali,Serviced accommodation Vacation home rental agency,      
Badung Regency,-8.6890256,115.1695219,+62 361 8444567,"Jl. Kunti I Gg. Melati No.1, Seminyak, Kec. Kuta, Kabupaten Badung, Bali 80361, Indonesia",4,3.5,Bali,Villa Anggrek Bali,Villa Vacation home rental agency,"Monday 9 AM to 5 PM, Tuesday 9 AM to 5 PM, Wednesday 9 AM to 5 PM, Thursday 9 AM to 5 PM, Friday 9 AM to 5 PM, Saturday 9 AM to 5 PM, Sunday 9 AM to 5 PM,"
Badung Regency,-8.74008,115.174931,Unknown,"Jl. Taman Griya 3 No.14, Tuban, Kec. Kuta, Kabupaten Badung, Bali 80361, Indonesia",79,5.0,Bali,Bali Smart Travels,Tour agency Transportation service Travel agency,"Monday 8 AM to 10 PM, Tuesday 8 AM to 10 PM, Wednesday 8 AM to 10 PM, Thursday 8 AM to 10 PM, Friday 8 AM to 10 PM, Saturday 8 AM to 10 PM, Sunday 8 AM to 10 PM,"
Badung Regency,-8.7412261,115.1629683,Unknown,"7557+G54, Jl. Bandar Udara Ngurah Rai, Tuban, Kec. Kuta, Kabupaten Badung, Bali 80361, Indonesia",2,4.5,Bali,Gedung Kantor PT.Pertamina Persero Cabang Denpasar,Vacation home rental agency,"Monday Closed, Tuesday Closed, Wednesday Closed, Thursday 10:51 AM to 12 a.m., Friday 12 to 10 AM, Saturday Closed, Sunday Closed,"
Denpasar City,-8.6896287,115.2011121,Unknown,"Gg. Jempiring No.116, Pedungan, Denpasar Selatan, Kota Denpasar, Bali 80113, Indonesia",0,4.7,Bali,Kosan Ni Putu Desi Jayanti,Vacation home rental agency,      
Badung Regency,-8.7987698,115.1734412,+62 899-3956-091,"652F+F9W, Jl. Bleng Bong Sari, Jimbaran, Kec. Kuta Sel., Kabupaten Badung, Bali 80361, Indonesia",0,4.7,Bali,Kos Pak Gede,Vacation home rental agency,      
Denpasar City,-8.7165472,115.1996874,+62 812-3941-314,"Jl. Kecubung Gg. Sandat No.7, Pemogan, Denpasar Selatan, Kota Denpasar, Bali 80236, Indonesia",0,4.7,Bali,Bali Luxury Villas,Villa Holiday apartment rental Holiday home Hotel Lodging Vacation home rental agency,      
Denpasar City,-8.6765418,115.2191812,+62 361 242993,"JL. Sudirman Komplek Sudirman Agung, Blok F8, Dauh Puri Klod, Kec. Denpasar Bar., Kota Denpasar, Bali 80234, Indonesia",10,4.9,Bali,PT. Grand Legong Tours & Travel,Travel agency,"Monday 9 AM to 2 PM, Tuesday 9 AM to 2 PM, Wednesday 9 AM to 2 PM, Thursday 9 AM to 2 PM, Friday 9 AM to 2 PM, Saturday 9 AM to 2 PM, Sunday Closed,"
Denpasar City,-8.705445,115.2132915,+62 857-3718-7321,"Jl. Pulau Moyo II No.1, Pedungan, Denpasar Selatan, Kota Denpasar, Bali 80222, Indonesia",2,5.0,Bali,BALI WONDERS TOURS & TRAVEL,Travel agency,"Monday 8 AM to 10 PM, Tuesday 8 AM to 10 PM, Wednesday 8 AM to 10 PM, Thursday 8 AM to 10 PM, Friday 8 AM to 10 PM, Saturday Closed, Sunday Closed,"
Badung Regency,-8.7279413,115.1754798,+62 813-3982-6866,"Gg. Sadasari No.23, Kuta, Kec. Kuta, Kabupaten Badung, Bali 80361, Indonesia",3,5.0,Bali,Kost Pak Hasan,Vacation home rental agency,"Monday 7 AM to 8 PM, Tuesday 7 AM to 8 PM, Wednesday 7 AM to 8 PM, Thursday 7 AM to 8 PM, Friday 7 AM to 8 PM, Saturday 7 AM to 8 PM, Sunday 7 AM to 8 PM,"
Denpasar City,-8.7003826,115.1896993,+62 878-7647-2417,"Jl. Glogor Carik Gg. Cuculan Permai No.26, Pemogan, Denpasar Selatan, Kota Denpasar, Bali 80221, Indonesia",18,5.0,Bali,Bali Car Rental | Kencana Bali Tour,Tour agency,"Monday Open 24 hours, Tuesday Open 24 hours, Wednesday Open 24 hours, Thursday Open 24 hours, Friday Open 24 hours, Saturday Open 24 hours, Sunday Open 24 hours,"
Denpasar City,-8.680083,115.2051933,+62 812-3815-890,"Jl. Pulau Adi Dalam No.17, Dauh Puri Kauh, Kec. Denpasar Bar., Kota Denpasar, Bali 80361, Indonesia",0,4.7,Bali,Vacation Rental Villas in Bali,Villa,"Monday 9 AM to 5 PM, Tuesday 9 AM to 5 PM, Wednesday 9 AM to 5 PM, Thursday 9 AM to 5 PM, Friday 9 AM to 5 PM, Saturday 9 AM to 2 PM, Sunday Closed,"
Badung Regency,-8.8193627,115.14557,+62 812-9136-2131,"Jl. N.Kahuripan No.17, Ungasan, Kec. Kuta Sel., Kabupaten Badung, Bali 80361, Indonesia",9,5.0,Bali,AWR BALI TRAVEL,Tourist information center,"Monday Open 24 hours, Tuesday Open 24 hours, Wednesday Open 24 hours, Thursday Open 24 hours, Friday Open 24 hours, Saturday Open 24 hours, Sunday Open 24 hours,"
Badung Regency,-8.7150542,115.1810917,+62 878-6006-6424,"jl. raya legian 45A, Seminyak, Kuta, Badung Regency, Bali 80361, Indonesia",0,4.7,Bali,Semiinyak villas for rent,Villa Vacation home rental agency,      
Badung Regency,-8.740715,115.1723,Unknown,"755C+PW7, Tuban, Kuta, Badung Regency, Bali 80361, Indonesia",4,5.0,Bali,Joko Kost,Vacation home rental agency,      
Badung Regency,-8.7279733,115.1753804,+62 858-5813-9709,"Gg. Sadasari No.25, Kuta, Kec. Kuta, Kabupaten Badung, Bali 80361, Indonesia",4,4.5,Bali,Kost Bapak Koming Sadasari,Vacation home rental agency,"Monday 7 AM to 11 PM, Tuesday 7 AM to 11 PM, Wednesday 7 AM to 11 PM, Thursday 7 AM to 11 PM, Friday 7 AM to 11 PM, Saturday 7 AM to 11 PM, Sunday 7 AM to 11 PM,"
Badung Regency,-8.793671,115.1966423,+62 819-3664-4163,"Permata estate A15, Jl. Taman Giri Asri, Benoa, Kec. Kuta Sel., Kabupaten Badung, Bali 80361, Indonesia",6,5.0,Bali,Bali tridatu vacations-Tour Guide service,Travel agency,"Monday Open 24 hours, Tuesday Open 24 hours, Wednesday Open 24 hours, Thursday Open 24 hours, Friday Open 24 hours, Saturday Open 24 hours, Sunday Open 24 hours,"
Badung Regency,-8.7891465,115.1737195,Unknown,"Perumahan Puri Jimbaran No.58 Blok b, Jimbaran, Kec. Kuta Sel., Kabupaten Badung, Bali 80361, Indonesia",0,4.7,Bali,Kost Ibu Puspa blok b.58,Vacation home rental agency,      
Badung Regency,-8.7936305,115.1657919,Unknown,"Jl. Perum Pasraman Unud No.88, Jimbaran, Kec. Kuta Sel., Kabupaten Badung, Bali 80361, Indonesia",0,4.7,Bali,"Afata Pondok, Unud, Jimbaran, Kuta Selatan, Kabupaten Badung, Bali",Vacation home rental agency,      
Denpasar City,-8.7085557,115.2293016,+62 361 728771,"Jl. Pendidikan No.86, Sidakarya, Denpasar Selatan, Kota Denpasar, Bali 80224, Indonesia",1,5.0,Bali,Budget Bali Villas,Vacation home rental agency,"Monday 9 AM to 5 PM, Tuesday 9 AM to 5 PM, Wednesday 9 AM to 5 PM, Thursday 9 AM to 5 PM, Friday 9 AM to 5 PM, Saturday 9 AM to 3 PM, Sunday 9 AM to 3 PM,"
Badung Regency,-8.7948674,115.2109819,+62 878-5370-6813,"Perumahan, Jl. Puri Nusa Dua Gg. Panti Anyar III No.1, Kabupaten Badung, Bali 80363, Indonesia",0,4.7,Bali,Kost Panti Anyar,Vacation home rental agency,"Monday Open 24 hours, Tuesday Open 24 hours, Wednesday Open 24 hours, Thursday Open 24 hours, Friday Open 24 hours, Saturday Open 24 hours, Sunday Open 24 hours,"
Denpasar City,-8.7111641,115.1975197,+62 859-3490-1738,"Gg. BPU Pudak Sari 1 No.30, Pemogan, Denpasar Selatan, Kota Denpasar, Bali 80221, Indonesia",0,4.7,Bali,HAMBA VACATION CHANNEL OFFICE,Corporate office,"Monday 10 AM to 5 PM, Tuesday 10 AM to 5 PM, Wednesday 10 AM to 5 PM, Thursday 10 AM to 5 PM, Friday 10 AM to 5 PM, Saturday Closed, Sunday Closed,"
Denpasar City,-8.705684,115.221666,+62 812-3600-0841,"Banjar Pegok, Jl. Palapa XIII No.36, Sesetan, Denpasar Selatan, Kota Denpasar, Bali 80223, Indonesia",11,4.9,Bali,Rumah Kost WIRA GRAHA,Vacation home rental agency,"Monday Open 24 hours, Tuesday Open 24 hours, Wednesday Open 24 hours, Thursday Open 24 hours, Friday Open 24 hours, Saturday Open 24 hours, Sunday Open 24 hours,"
Badung Regency,-8.6992569,115.1768836,+62 857-3731-1709,"852G+7QR Kresna Unit 2, Jl. Plawa Gg. Ratna, Seminyak, Kec. Kuta, Kabupaten Badung, Bali 80361, Indonesia",0,4.7,Bali,TT Properties,Vacation home rental agency,      
Badung Regency,-8.6742723,115.154578,+62 812-3928-0201,"Jl. Cendrawasih No.9X, Kerobokan Kelod, Kec. Kuta Utara, Kabupaten Badung, Bali 80361, Indonesia",0,4.7,Bali,Bedforest Indonesia,Vacation home rental agency,      
Badung Regency,-8.7506574,115.1825391,+62 819-3620-2062,"Jl. Bypass Ngurah Rai Jl. Angsana No.2, kelan, tuban, Kabupaten Badung, Bali 80361, Indonesia",1,5.0,Bali,Lotus Vacation Tour & Transport.,Tour operator,"Monday Open 24 hours, Tuesday Open 24 hours, Wednesday Open 24 hours, Thursday Open 24 hours, Friday Open 24 hours, Saturday 9 AM to 3 PM, Sunday Closed,"
Badung Regency,-8.715955,115.1868592,Unknown,"75MP+JP9, Jl. LBC Sunset, Kuta, Kec. Kuta, Kabupaten Badung, Bali 80361, Indonesia",0,4.7,Bali,Rumah kost pondok 66,Vacation home rental agency,"Monday Open 24 hours, Tuesday Open 24 hours, Wednesday Open 24 hours, Thursday Open 24 hours, Friday Open 24 hours, Saturday Open 24 hours, Sunday Open 24 hours,"
Badung Regency,-8.7671834,115.2211165,Unknown,"No. Jl. Pratama No.91b, Benoa, Benoa, Kuta Sel, Kabupaten Badung, Bali 80361, Indonesia",8,5.0,Bali,Villa Georges 2,Vacation home rental agency,      
Denpasar City,-8.7042183,115.1880428,Unknown,"Jl. Margapadmayana No.11 Blok B2, Pemecutan Klod, Kec. Denpasar Bar., Kota Denpasar, Bali 80119, Indonesia",1,5.0,Bali,Kost harry,Vacation home rental agency,      
Badung Regency,-8.8216189,115.2123777,+62 878-6133-6699,"Jl. Desa Sawangan gg nusa indah No.01, Benoa, Kec. Kuta Sel., Kabupaten Badung, Bali 80361, Indonesia",1,5.0,Bali,Kendi House 1,Lodging Vacation home rental agency,      
Badung Regency,-8.8253979,115.1480192,+62 812-3931-6660,"Jl. Toya Ning II No.99, Ungasan, Kec. Kuta Sel., Kabupaten Badung, Bali 80361, Indonesia",61,4.6,Bali,Uluwatu Aarden,Vacation home rental agency,"Monday 6 AM to 11 PM, Tuesday 6 AM to 11 PM, Wednesday 6 AM to 11 PM, Thursday 6 AM to 11 PM, Friday 6 AM to 11 PM, Saturday 6 AM to 11 PM, Sunday 6 AM to 11 PM,"
Badung Regency,-8.6865832,115.1728307,+62 813-5377-1393,"Jl. Dewi Saraswati III, Seminyak, Kec. Kuta, Kabupaten Badung, Bali 80361, Indonesia",2,5.0,Bali,Bali Tour Getaways,Travel agency,"Monday Open 24 hours, Tuesday Open 24 hours, Wednesday Open 24 hours, Thursday Open 24 hours, Friday Open 24 hours, Saturday Open 24 hours, Sunday Open 24 hours,"
Badung Regency,-8.6755952,115.1672164,Unknown,"Jl. Mertanadi No.90A, Kerobokan Kelod, Kec. Kuta Utara, Kabupaten Badung, Bali 80361, Indonesia",1,5.0,Bali,Villa Bali Management,Vacation home rental agency,"Monday 9 AM to 5 PM, Tuesday 9 AM to 5 PM, Wednesday 9 AM to 5 PM, Thursday 9 AM to 5 PM, Friday 9 AM to 5 PM, Saturday Closed, Sunday Closed,"
Badung Regency,-8.8060707,115.1128212,+62 821-4074-6776,"Jl. Pantai Bingin, Pecatu, Kec. Kuta Sel., Kabupaten Badung, Bali 80364, Indonesia",30,4.5,Bali,Let it b,Hotel Vacation home rental agency,      
Badung Regency,-8.6995591,115.1729634,+62 857-3700-1562,"Jl. Nakula 5 No.8, Legian, Kec. Kuta, Kabupaten Badung, Bali 80361, Indonesia",30,4.7,Bali,Capricorn Villa,Villa Guest house Vacation home rental agency,      
Badung Regency,-8.6838101,115.1549886,+62 361 4741472,"Jl. Kayu Aya No.58, Seminyak, Kec. Kuta, Kabupaten Badung, Bali, Indonesia",3,3.7,Bali,VillaNaBali,Vacation home rental agency,"Monday 8 AM to 8 PM, Tuesday 8 AM to 8 PM, Wednesday 8 AM to 8 PM, Thursday 8 AM to 8 PM, Friday 8 AM to 8 PM, Saturday 8 AM to 3 PM, Sunday Closed,"
Denpasar City,-8.6763835,115.1803843,Unknown,"85FJ+C5R, Gang Puncak Sari, Jl. Gunung Salak Selatan, Padangsambian Klod, Kec. Denpasar Bar., Kota Denpasar, Bali 80117, Indonesia",30,4.4,Bali,Ceri Villa Bali,Vacation home rental agency Villa,"Monday 8 AM to 8 PM, Tuesday 8 AM to 8 PM, Wednesday 8 AM to 8 PM, Thursday 8 AM to 8 PM, Friday 8 AM to 8 PM, Saturday 8 AM to 8 PM, Sunday 8 AM to 8 PM,"
Badung Regency,-8.8150458,115.1544517,+62 361 703060,"55M3+XQP, Ungasan, South Kuta, Badung Regency, Bali 80361, Indonesia",0,4.7,Bali,Bali Resort,Travel agency Vacation home rental agency,      
Denpasar City,-8.6856301,115.1868767,+62 811-3088-877,"Office on 2nd Floor, Jl. Mahendradatta Selatan No.7b, Pemecutan Klod, Kec. Denpasar Bar., Bali 80119, Indonesia",3,4.7,Bali,Villa Promo Bali,Vacation home rental agency,"Monday 10 AM to 6 PM, Tuesday 10 AM to 6 PM, Wednesday 10 AM to 6 PM, Thursday 10 AM to 6 PM, Friday 10 AM to 6 PM, Saturday 10 AM to 2 PM, Sunday Closed,"
Badung Regency,-8.6908192,115.1696456,+62 812-3832-5212,"Jalan Plawa No. 22 AS, Seminyak, Kec. Kuta, Kabupaten Badung, Bali 80361, Indonesia",4,5.0,Bali,Homestay Inn Seminyak,Homestay Hotel Lodge Vacation home rental agency,      
Denpasar City,-8.6716093,115.2158845,+62 878-8992-2565,"Jl. Serma Made Pil No.25d, Dauh Puri Klod, Kec. Denpasar Bar., Kota Denpasar, Bali 80114, Indonesia",2,5.0,Bali,CariVila.Com | Ofisial Akomodasi Vila Sewa Online Bali,Vacation home rental agency Serviced accommodation Villa,      
Badung Regency,-8.8237431,115.1506434,+62 818-0537-1505,"Gg IV Jl. Pura Masuka, Ungasan, Kec. Kuta Sel., Kabupaten Badung, Bali 80361, Indonesia",5,5.0,Bali,StayinVilla.com,Travel agency,"Monday Open 24 hours, Tuesday Open 24 hours, Wednesday Open 24 hours, Thursday Open 24 hours, Friday Open 24 hours, Saturday Open 24 hours, Sunday Open 24 hours,"
Denpasar City,-8.7032621,115.2308183,+62 819-1644-1979,"Jl. Graha Wisata II No.11A, Sidakarya, Denpasar Selatan, Kota Denpasar, Bali 80024, Indonesia",2,5.0,Bali,Graha Wisata Residance,Vacation home rental agency,      
Badung Regency,-8.712923,115.181329,+62 812-3621-7054,"Jl. Raya Kuta, Kuta, Kec. Kuta, Kabupaten Badung, Bali 80361, Indonesia",0,4.7,Bali,Villas Bali,Vacation home rental agency Villa,"Monday 8 AM to 5 PM, Tuesday 8 AM to 5 PM, Wednesday 8 AM to 5 PM, Thursday 8 AM to 5 PM, Friday 8 AM to 5 PM, Saturday 8 AM to 5 PM, Sunday Closed,"
Badung Regency,-8.6876348,115.171527,+62 361 733229,"Jl. Sunset Road No.105 block 1, Seminyak, Kec. Kuta, Kabupaten Badung, Bali 80361, Indonesia",2,4.0,Bali,Central Bali Villas,Vacation home rental agency Apartment rental agency,"Monday 9 AM to 5 PM, Tuesday 9 AM to 5 PM, Wednesday 9 AM to 5 PM, Thursday 9 AM to 5 PM, Friday 9 AM to 5 PM, Saturday 9 AM to 5 PM, Sunday Closed,"
Badung Regency,-8.8059517,115.2019625,+62 813-3857-0194,"Jl. Dharmawangsa Lingkungan Ancak Kampial No.46, Benoa, Nusa Dua, Kabupaten Badung, Bali 80361, Indonesia",21,5.0,Bali,Nava Hospitality Bali Tour & Travel,Travel agency,"Monday Open 24 hours, Tuesday Open 24 hours, Wednesday Open 24 hours, Thursday Open 24 hours, Friday Open 24 hours, Saturday Open 24 hours, Sunday Open 24 hours,"
Denpasar City,-8.7016497,115.1929121,+62 819-3152-0378,"Gg. Arjuna No.13, Pemogan, Denpasar Selatan, Kota Denpasar, Bali 80221, Indonesia",19,5.0,Bali,Green Bali Tours,Car rental agency Tour agency,"Monday Open 24 hours, Tuesday Open 24 hours, Wednesday Open 24 hours, Thursday Open 24 hours, Friday Open 24 hours, Saturday Open 24 hours, Sunday Open 24 hours,"
Denpasar City,-8.7218654,115.1958427,Unknown,"75HW+784, Unnamed Road, Pemogan, Denpasar Selatan, Kota Denpasar, Bali 80221, Indonesia",4,4.0,Bali,Pondok Kedungu,Vacation home rental agency,      
Badung Regency,-8.6925057,115.1697253,Unknown,"Jl. Plawa Gg. Ratna No.21, Seminyak, Kec. Kuta, Kabupaten Badung, Bali 80361, Indonesia",13,4.8,Bali,Villa kangin - Seminyak - Bali,Vacation home rental agency,      
Badung Regency,-8.6994156,115.1628835,+62 361 764262,"Beach, Jl. Pantai, Jl. Arjuna Jl. Double Six No.18, Legian, Kuta, Badung Regency, Bali 80361, Indonesia",226,4.6,Bali,Anantara Vacation Club Legian Bali,Hotel,      
Badung Regency,-8.688091,115.1640917,+62 361 737908,"Jl. Drupadi No.28, Seminyak, Kec. Kuta, Kabupaten Badung, Bali 80361, Indonesia",393,4.7,Bali,Avani Seminyak Bali Resort,Resort hotel Hotel,      
Denpasar City,-8.6855141,115.2136321,Unknown,"Gg. Melati No.10, Sesetan, Denpasar Selatan, Kota Denpasar, Bali 80114, Indonesia",0,4.7,Bali,Bali Vacation tour and guide,Transportation service,      
Denpasar City,-8.7146162,115.2204443,+62 361 728258,"Bali Synergy Hospitality Building, Lt. 3 Pertokoan Istana Regency L18, Jl. Bypass Ngurah Rai Jl. Pesanggaran, Pedungan, Denpasar Selatan, Kota Denpasar, Bali 80223, Indonesia",14,4.6,Bali,PT. Kirana Bali Wisata,Vacation home rental agency Travel agency,"Monday 9 AM to 5 PM, Tuesday 9 AM to 5 PM, Wednesday 9 AM to 5 PM, Thursday 9 AM to 5 PM, Friday 9 AM to 5 PM, Saturday 9 AM to 3 PM, Sunday Closed,"
Denpasar City,-8.7005134,115.214443,+62 31 588526,"NO, Gg. Cendra Wasih No.38, Sesetan, Denpasar Selatan, Kota Denpasar, Bali 80224, Indonesia",2,5.0,Bali,bali luxury villas,Vacation home rental agency,"Monday 7 AM to 11 PM, Tuesday 7 AM to 11 PM, Wednesday 7 AM to 11 PM, Thursday 7 AM to 11 PM, Friday 7 AM to 11 PM, Saturday 7 AM to 11 PM, Sunday 7 AM to 11 PM,"
Denpasar City,-8.6890234,115.2284267,+62 819-1581-1153,"Gg. III A No.3, Panjer, Kec. Denpasar Bar., Kota Denpasar, Bali 80221, Indonesia",0,4.7,Bali,Menyewakan rumah tinggal,Vacation home rental agency,      
Bali,-8.696751,115.210931,+62 812-3629-5150,"Sixteen Events - 30 Pulau Moyo, Sanur, Pedungan, Denpasar Selatan, Bali, 80222, Indonesia",1,5.0,Bali,Cool Bali Villas,Vacation home rental agency,"Monday 9 AM to 6 PM, Tuesday 9 AM to 6 PM, Wednesday 9 AM to 6 PM, Thursday 9 AM to 6 PM, Friday 9 AM to 6 PM, Saturday 9 AM to 6 PM, Sunday 11 AM to 4 PM,"
Denpasar City,-8.7275389,115.2329946,+62 878-6253-8898,"Jl. Tukad Ngenjung No.12, Serangan, Denpasar Selatan, Kota Denpasar, Bali 80229, Indonesia",1,5.0,Bali,Kubu Jepun Homestay Serangan,Vacation home rental agency,"Monday Open 24 hours, Tuesday Open 24 hours, Wednesday Open 24 hours, Thursday Open 24 hours, Friday Open 24 hours, Saturday Open 24 hours, Sunday Open 24 hours,"
Denpasar City,-8.717017,115.1974882,Unknown,"Jl. Besakih No.3, Pemogan, Denpasar Selatan, Kota Denpasar, Bali 80221, Indonesia",8,4.6,Bali,Pondok Besakih,Vacation home rental agency,      
Denpasar City,-8.6956948,115.2319476,+62 851-5774-8690,"petanu resident 13, Jl. Tukad Petanu, Sidakarya, Denpasar Selatan, Kota Denpasar, Bali 80361, Indonesia",0,4.7,Bali,Baliwood vacation,Travel agency,"Monday Open 24 hours, Tuesday Open 24 hours, Wednesday Open 24 hours, Thursday Open 24 hours, Friday Open 24 hours, Saturday Open 24 hours, Sunday Open 24 hours,"
Denpasar City,-8.6799571,115.232963,+62 857-3081-3607,"Jl. Tukad Banyuning No.26, Dauh Puri Klod, Kec. Denpasar Bar., Kota Denpasar, Bali 80225, Indonesia",1,5.0,Bali,Spatiatur Bali Vacation,Tourist information center Raft trip outfitter Transportation service Travel agency,"Monday 8:30 AM to 5:30 PM, Tuesday 8:30 AM to 5:30 PM, Wednesday 8:30 AM to 5:30 PM, Thursday 8:30 AM to 5:30 PM, Friday 8:30 AM to 5:30 PM, Saturday 8:30 AM to 5:30 PM, Sunday Closed,"
Badung Regency,-8.6981533,115.1746037,+62 361 8639010,"Jl. Nakula No.88x, Legian, Kec. Kuta, Kabupaten Badung, Bali 80361, Indonesia",0,4.7,Bali,Bali Villa Rentals - Bali Land Property,Vacation home rental agency,"Monday 9 AM to 5 PM, Tuesday 9 AM to 5 PM, Wednesday 9 AM to 5 PM, Thursday 9 AM to 5 PM, Friday 9 AM to 5 PM, Saturday 9 AM to 4 PM, Sunday Closed,"
Gianyar Regency,-8.4214306,115.2957515,+62 812-5223-2323,"Kedisan, Tegallalang, Gianyar Regency, Bali 80561, Indonesia",51,4.5,Bali,Villa Rimba Ubud,Lodge Villa,      
Gianyar Regency,-8.4498545,115.2411687,+62 877-6100-7789,"Br Bayad, Melinggih Kelod, Kec. Payangan, Kabupaten Gianyar, Bali 80572, Indonesia",1,5.0,Bali,Bali Vacation Activity,Sport tour agency,"Monday Open 24 hours, Tuesday Open 24 hours, Wednesday Open 24 hours, Thursday Open 24 hours, Friday Open 24 hours, Saturday Open 24 hours, Sunday Open 24 hours,"
Gianyar Regency,-8.4426914,115.240368,+62 813-3970-3289,"Jl. Panca Rahayu No.mor 18, Melinggih Kelod, Kec. Payangan, Kabupaten Gianyar, Bali 80572, Indonesia",3,4.3,Bali,Bali Vacation Transport,Shopping mall,"Monday Open 24 hours, Tuesday Open 24 hours, Wednesday Open 24 hours, Thursday Open 24 hours, Friday Open 24 hours, Saturday Open 24 hours, Sunday Open 24 hours,"
Badung Regency,-8.7016421,115.1665525,+62 813-3882-0103,"Jl. Padma Utara No.5, Legian, Kec. Kuta, Kabupaten Badung, Bali 80361, Indonesia",2,5.0,Bali,Hi Bali Vacation,Corporate office,"Monday 9 AM to 9 PM, Tuesday 9 AM to 9 PM, Wednesday 9 AM to 9 PM, Thursday 9 AM to 9 PM, Friday 9 AM to 9 PM, Saturday 9 AM to 9 PM, Sunday 9 AM to 9 PM,"
Bangli Regency,-8.2879263,115.25422,+62 819-3620-2062,"Jl. Pura Dalem No.8, Mengani, Kec. Kintamani, Kabupaten Bangli, Bali 80671, Indonesia",2,5.0,Bali,Lotus Vacation ( MSM grups ),Travel agency,"Monday Open 24 hours, Tuesday Open 24 hours, Wednesday Open 24 hours, Thursday Open 24 hours, Friday Open 24 hours, Saturday Open 24 hours, Sunday Open 24 hours,"
Badung Regency,-8.7277496,115.1731567,+62 361 4755621,"Jl. Kubu Anyar No.16, Kuta, Kec. Kuta, Kabupaten Badung, Bali 80361, Indonesia",27,4.9,Bali,Bali Private Booking,Vacation home rental agency Group accommodation Hotel Lodging Travel agency Villa,      
Gianyar Regency,-8.544626,115.359274,+62 821-4520-2323,"Tulikup, Gianyar, Gianyar Regency, Bali 80515, Indonesia",1,5.0,Bali,Bali Just Vacation,Corporate office,"Monday Open 24 hours, Tuesday Open 24 hours, Wednesday Open 24 hours, Thursday Open 24 hours, Friday Open 24 hours, Saturday Open 24 hours, Sunday Open 24 hours,"
Badung Regency,-8.7101617,115.1729548,+62 852-2681-2887,"Jl. Patih Jelantik No.90, Legian, Kec. Kuta, Kabupaten Badung, Bali 80361, Indonesia",0,4.7,Bali,Vacation Vibes,Clothing store,"Monday 10 AM to 10 PM, Tuesday 10 AM to 10 PM, Wednesday 10 AM to 10 PM, Thursday 10 AM to 10 PM, Friday 10 AM to 10 PM, Saturday 10 AM to 10 PM, Sunday 10 AM to 10 PM,"
Gianyar Regency,-8.5068039,115.2488083,+62 878-6126-9395,"Jl. Penestanan No.8, Sayan, Kecamatan Ubud, Kabupaten Gianyar, Bali 80571, Indonesia",1,5.0,Bali,ASTA HOUSE,Vacation home rental agency,      
Gianyar Regency,-8.522439,115.237112,+62 813-3769-0484,"F6HP+2RH, Singakerta, Ubud, Gianyar Regency, Bali 80571, Indonesia",1,5.0,Bali,Vacation Bali Tour & Transport,Transportation service,"Monday 8 to 10 AM, Tuesday 8 to 10 AM, Wednesday 8 to 10 AM, Thursday 8 to 10 AM, Friday 8 to 10 AM, Saturday 8 to 10 AM, Sunday 8 to 10 AM,"
Gianyar Regency,-8.5028645,115.2568833,+62 821-4721-8139,"Raya, Ubud, Kecamatan Ubud, Kabupaten Gianyar, Bali, Indonesia",35,5.0,Bali,Bali taxi vacation,Transportation service,"Monday Open 24 hours, Tuesday Open 24 hours, Wednesday Open 24 hours, Thursday Open 24 hours, Friday Open 24 hours, Saturday Open 24 hours, Sunday Open 24 hours,"
Badung Regency,-8.7183814,115.1768965,+62 878-6224-4252,"Jl. Mataram No.32, Kuta, Kec. Kuta, Kabupaten Badung, Bali 80361, Indonesia",0,4.7,Bali,The Bali Vacation,,      
Klungkung Regency,-8.5338901,115.4076082,+62 813-1999-9878,"Gg. 2 No.7, Semarapura Kelod Kangin, Kec. Klungkung, Kabupaten Klungkung, Bali 80716, Indonesia",29,5.0,Bali,Grand Royal Vacation Bali,Travel agency,"Monday 7 AM to 10 PM, Tuesday 7 AM to 10 PM, Wednesday 7 AM to 10 PM, Thursday 7 AM to 10 PM, Friday 7 AM to 10 PM, Saturday 7 AM to 10 PM, Sunday 7 AM to 10 PM,"
Seminyak,-8.6785082,115.1531598,+62 828-3618-227,"Jl. Petitenget No.469, Kerobokan Kelod, Kec. Kuta Utara, Seminyak, Bali 80361, Indonesia",0,4.7,Bali,My Vacations,Tour operator Tour agency,      
Gianyar Regency,-8.5157036,115.2823899,+62 812-3757-9996,"Br. Dukuh Kawan, Pejeng Kawan, Kec. Tampaksiring, Kabupaten Gianyar, Bali 80552, Indonesia",12,5.0,Bali,Bali Vacation Tour,Tour operator,"Monday Open 24 hours, Tuesday Open 24 hours, Wednesday Open 24 hours, Thursday Open 24 hours, Friday Open 24 hours, Saturday Open 24 hours, Sunday Open 24 hours,"
Klungkung Regency,-8.5495357,115.4026394,+62 859-3511-8282,"Jl. Puputan, Tojan, Kec. Klungkung, Kabupaten Klungkung, Bali 80716, Indonesia",15,5.0,Bali,Tunik Bali vacation,Tour agency,"Monday Open 24 hours, Tuesday Open 24 hours, Wednesday Open 24 hours, Thursday Open 24 hours, Friday Open 24 hours, Saturday Open 24 hours, Sunday Open 24 hours,"
Badung Regency,-8.6970186,115.1654427,Unknown,"Legian, Kuta, Badung Regency, Bali 80361, Indonesia",4,3.8,Bali,VILLA KAMBOJA MASTER,Vacation home rental agency Indoor lodging,      
Denpasar City,-8.7027145,115.2040938,+62 812-3817-1755,"Jl. Mekar II Blok A9, Pemogan, Denpasar Selatan, Kota Denpasar, Bali 80221, Indonesia",2,5.0,Bali,Bali Vacation Tour and Travel,Travel agency,"Monday Open 24 hours, Tuesday Open 24 hours, Wednesday Open 24 hours, Thursday Open 24 hours, Friday Open 24 hours, Saturday Open 24 hours, Sunday Open 24 hours,"
Denpasar City,-8.6688032,115.1950137,+62 813-5321-9776,"Jl. Gn. Lebah 4 No.43, Tegal Harum, Kec. Denpasar Bar., Kota Denpasar, Bali 80112, Indonesia",14,5.0,Bali,Lestari vacation,Travel agency,"Monday Open 24 hours, Tuesday Open 24 hours, Wednesday Open 24 hours, Thursday Open 24 hours, Friday Open 24 hours, Saturday Open 24 hours, Sunday Open 24 hours,"
Gianyar Regency,-8.5078406,115.2588049,+62 812-8805-0588,"Jl. Bisma No.98/26, Ubud, Kecamatan Ubud, Kabupaten Gianyar, Bali 80571, Indonesia",1,4.0,Bali,"Jenna's Place, Villa's & Vacation Homes",Vacation home rental agency,"Monday Open 24 hours, Tuesday Open 24 hours, Wednesday Open 24 hours, Thursday Open 24 hours, Friday Open 24 hours, Saturday Open 24 hours, Sunday Open 24 hours,"
Legian,-8.698114,115.1775349,+62 361 3005227,"Jl. Sunset Road No.99, Seminyak, Kec. Kuta, Legian, Bali 80361, Indonesia",0,4.7,Bali,Bali Vacation Rentals and Leisure,Vacation home rental agency,"Monday 9 AM to 5 PM, Tuesday 9 AM to 5 PM, Wednesday 9 AM to 5 PM, Thursday 9 AM to 5 PM, Friday 9 AM to 5 PM, Saturday 9 AM to 3 PM, Sunday Closed,"
Gianyar Regency,-8.5386561,115.2527208,Unknown,"F763+G3Q, Jl. Jukut Paku, Singakerta, Kecamatan Ubud, Kabupaten Gianyar, Bali 80571, Indonesia",0,4.7,Bali,SereS Spring Vacation Club,Travel agency,      
Badung Regency,-8.7245008,115.1774269,+62 878-2328-9077,"Jl. Kalianget No.2, Kuta, Kec. Kuta, Kabupaten Badung, Bali 80361, Indonesia",1,5.0,Bali,Trip Bali vacation,Travel agency,"Monday 8 AM to 10 PM, Tuesday 8 AM to 10 PM, Wednesday 8 AM to 10 PM, Thursday Open 24 hours, Friday 8 AM to 10 PM, Saturday Open 24 hours, Sunday 8 AM to 10 PM,"
Gianyar Regency,-8.5299218,115.3567249,+62 857-3842-0792,"Banjar Blahpane Kelod, jl. Taman Bali Banjarangkan, Sidan, Kec. Gianyar, Bali 80582, Indonesia",0,4.7,Bali,Aneka wisata bali villa,Vacation home rental agency,"Monday Open 24 hours, Tuesday Open 24 hours, Wednesday Open 24 hours, Thursday Open 24 hours, Friday Open 24 hours, Saturday Open 24 hours, Sunday Open 24 hours,"
Gianyar Regency,-8.4823,115.3013812,+62 878-6140-8884,"G892+3HJ, Jl. Raya Pejeng Kangin, Pejeng Kangin, Kec. Tampaksiring, Kabupaten Gianyar, Bali 80552, Indonesia",1,5.0,Bali,Balidewa Vacation Tour,Travel agency,"Monday 7 AM to 11 PM, Tuesday 7 AM to 11 PM, Wednesday 7 AM to 11 PM, Thursday 7 AM to 11 PM, Friday 7 AM to 11 PM, Saturday 7 AM to 11 PM, Sunday 7 AM to 11 PM,"
Badung Regency,-8.7785736,115.192904,+62 812-3789-6161,"Jl. T.Jimbaran IX No.14, Jimbaran, Kec. Kuta Sel., Kabupaten Badung, Bali 80361, Indonesia",1,2.0,Bali,"""Arya Bali Vacation""",Corporate office,"Monday Open 24 hours, Tuesday Open 24 hours, Wednesday Open 24 hours, Thursday Open 24 hours, Friday Open 24 hours, Saturday Open 24 hours, Sunday Open 24 hours,"
Gianyar Regency,-8.5228883,115.2423438,+62 851-8067-6751,"Jl. Raya Tebongkang, Singakerta, Kecamatan Ubud, Kabupaten Gianyar, Bali 80571, Indonesia",4,5.0,Bali,Cheap Bali Vacation,Travel agency,"Monday 6 AM to 8 PM, Tuesday 6 AM to 10 PM, Wednesday 6 AM to 10 PM, Thursday 6 AM to 10 PM, Friday 6 AM to 10 PM, Saturday 7 AM to 10 PM, Sunday 7:30 AM to 7 PM,"
Badung Regency,-8.8020186,115.2146293,+62 878-4009-0106,"Jl. Mayapada I No.3, Benoa, Kec. Kuta Sel., Kabupaten Badung, Bali 80363, Indonesia",0,4.7,Bali,Pondox odae,Vacation home rental agency,      
Gianyar Regency,-8.5464156,115.3550023,+62 819-3311-1983,"Jl. Raya Tulikup, Tulikup, Kec. Gianyar, Kabupaten Gianyar, Bali 80515, Indonesia",12,4.9,Bali,Bali Tridatu Vacations-Travel,Tourist information center,"Monday 7 AM to 9:30 PM, Tuesday 7 AM to 9:30 PM, Wednesday 7 AM to 9:30 PM, Thursday 7 AM to 9:30 PM, Friday 7 AM to 9:30 PM, Saturday 7 to 9:30 PM, Sunday 7 AM to 9:30 PM,"
Gianyar Regency,-8.5141823,115.260735,+62 821-4736-5482,"Jl. Monkey Forest No.88X, Ubud, Kecamatan Ubud, Kabupaten Gianyar, Bali 80571, Indonesia",2,5.0,Bali,DEIP VACATION,Travel agency,"Monday 9 AM to 5 PM, Tuesday 9 AM to 5 PM, Wednesday 9 AM to 5 PM, Thursday 9 AM to 5 PM, Friday 9 AM to 5 PM, Saturday 8:30 AM to 5 PM, Sunday 9 AM to 5 PM,"
Gianyar Regency,-8.4381186,115.2783556,+62 812-3751-0954,"Br gagah, Tegallalang, Kec. Tegallalang, Kabupaten Gianyar, Bali, Indonesia",1,5.0,Bali,Bali vacation tour and travel,Air taxi,      
Gianyar Regency,-8.5446272,115.3592701,+62 821-4520-2323,"Jl. Raya Tulikup, Tulikup, Kec. Gianyar, Kabupaten Gianyar, Bali 80511, Indonesia",2,5.0,Bali,Bali just vacation,Tourist information center,"Monday Open 24 hours, Tuesday Open 24 hours, Wednesday Open 24 hours, Thursday Open 24 hours, Friday Open 24 hours, Saturday Open 24 hours, Sunday Open 24 hours,"
Denpasar City,-8.7127081,115.1996382,+62 821-4684-2369,"Gg. Wisata No.1, Pemogan, Denpasar Selatan, Kota Denpasar, Bali 80221, Indonesia",16,5.0,Bali,PT. VACATION BALI TOURS,Travel agency Bus charter Car rental agency,"Monday Open 24 hours, Tuesday Open 24 hours, Wednesday Open 24 hours, Thursday Open 24 hours, Friday Open 24 hours, Saturday Open 24 hours, Sunday Open 24 hours,"
Badung Regency,-8.795343,115.165201,+62 816-537-767,"Jalan Gunung Mas, Block F No 44, Jimbaran, Padang Sambian / Denpasar, Jimbaran, Kuta Selatan, Jimbaran, Kec. Kuta Sel., Kabupaten Badung, Bali 80361, Indonesia",0,4.7,Bali,Villa Getaways Bali,Vacation home rental agency,"Monday Open 24 hours, Tuesday Open 24 hours, Wednesday Open 24 hours, Thursday Open 24 hours, Friday Open 24 hours, Saturday Open 24 hours, Sunday Open 24 hours,"
Badung Regency,-8.8204871,115.150482,+62 812-3765-1008,"Uluwatu St No.75X, Ungasan, South Kuta, Badung Regency, Bali 80364, Indonesia",2,5.0,Bali,Exotik Villas Bali,Vacation home rental agency,"Monday 9 AM to 5 PM, Tuesday 9 AM to 5 PM, Wednesday 9 AM to 5 PM, Thursday 9 AM to 5 PM, Friday 9 AM to 5 PM, Saturday Closed, Sunday Closed,"
Badung Regency,-8.8448083,115.1804116,+62 361 3581000,"554J+652, Jl. Karang Tinggi, Kutuh, Kec. Kuta Sel., Kabupaten Badung, Bali, Indonesia",147,4.6,Bali,Karang Saujana Estate,Vacation home rental agency,      
Badung Regency,-8.7929754,115.2109687,+62 813-3788-8331,"Jl. Nusa Dua Jl. Pura Tegal Gading, Benoa, Kec. Kuta Sel., Kabupaten Badung, Bali 80225, Indonesia",0,4.7,Bali,bali vacation experience,Outdoor activity organiser,"Monday 8 AM to 10 PM, Tuesday 8 AM to 10 PM, Wednesday 8 AM to 10 PM, Thursday 8 AM to 10 PM, Friday 8 AM to 10 PM, Saturday Closed, Sunday 8 AM to 10 PM,"
Badung Regency,-8.7975407,115.1860691,+62 857-9275-3965,"Kori, Jl. Nuansa Utama V No.22, Jimbaran, Kec. Kuta Sel., Kabupaten Badung, Bali 80361, Indonesia",0,4.7,Bali,Bali Puri vacation,Villa,"Monday 9 AM to 5 PM, Tuesday 9 AM to 5 PM, Wednesday 9 AM to 5 PM, Thursday 9 AM to 5 PM, Friday 9 AM to 5 PM, Saturday 9 AM to 5 PM, Sunday 9 AM to 5 PM,"
Badung Regency,-8.833086,115.1365651,Unknown,"Jalan blimbing sari 1no2x, Ungasan, Kec. Kuta Sel., Kabupaten Badung, Bali 80361, Indonesia",0,4.7,Bali,Pondok asri,Vacation home rental agency,      
Badung Regency,-8.78652,115.180835,+62 361 8953599,"Jl. Raya Kampus Unud Jl. Poh Gading No.10 A, Jimbaran, Kec. Kuta Sel., Kabupaten Badung, Bali 80364, Indonesia",1,5.0,Bali,Bali Travel Vacations,Travel agency,"Monday 6 AM to 5:30 a.m., Tuesday 6 AM to 5:30 a.m., Wednesday 6 AM to 5:30 a.m., Thursday 6 AM to 5:30 a.m., Friday 6 AM to 5:30 a.m., Saturday 6 AM to 5:30 a.m., Sunday 6 AM to 5:30 a.m.,"
Badung Regency,-8.8104491,115.2024288,Unknown,"56Q2+RWV, Perumahan Pondok Kampial Permai, Benoa, Kec. Kuta Sel., Kabupaten Badung, Bali 80361, Indonesia",1,5.0,Bali,Rumah Billy,Vacation home rental agency Private college,      
Badung Regency,-8.7997545,115.1867764,+62 822-4797-6327,"Jl. Nuansa Utama Gang XV No.XVI, Jimbaran, Kec. Kuta Sel., Kabupaten Badung, Bali 80361, Indonesia",1,5.0,Bali,Luxvillas Getaway,Vacation home rental agency,"Monday 8 AM to 5 PM, Tuesday 8 AM to 5 PM, Wednesday 8 AM to 5 PM, Thursday 8 AM to 5 PM, Friday 8 AM to 5 PM, Saturday Closed, Sunday Closed,"
Badung Regency,-8.8115798,115.1100112,+62 813-3835-8075,"Jl. Pemutih, Pecatu, Kec. Kuta Sel., Kabupaten Badung, Bali 80361, Indonesia",0,4.7,Bali,Svara by Mazari Villas,Vacation home rental agency,      
Badung Regency,-8.8053247,115.1873937,+62 811-3896-777,"55VP+VXC, Blok OO, Benoa, Kec. Kuta Sel., Kabupaten Badung, Bali 80361, Indonesia",1,5.0,Bali,Indonesia Best Vacation,Tour agency,      
Badung Regency,-8.7769529,115.1707361,+62 812-3680-0911,"Uluwatu St No.45, Jimbaran, South Kuta, Badung Regency, Bali 80361, Indonesia",135,4.8,Bali,ForeverVacation Bali - Premium Tours & Experiences,Tour operator Sightseeing tour agency Tourist information center Transportation service Travel agency,"Monday Open 24 hours, Tuesday Open 24 hours, Wednesday Open 24 hours, Thursday Open 24 hours, Friday Open 24 hours, Saturday Open 24 hours, Sunday Open 24 hours,"
Badung Regency,-8.7864559,115.2060686,+62 818-0937-3682,"Jl. Taman Ayodia Gg. Rama No.4, Mumbul, Kec. Kuta Sel., Kabupaten Badung, Bali 80361, Indonesia",3,5.0,Bali,Soul Vacation Bali,Travel agency,"Monday 7:30 AM to 10 PM, Tuesday 7:30 AM to 10 PM, Wednesday 7:30 AM to 10 PM, Thursday 7:30 AM to 10 PM, Friday 7:30 AM to 10 PM, Saturday 7:30 AM to 10 PM, Sunday 7:30 AM to 8 PM,"
Badung Regency,-8.7987684,115.2236748,+62 361 3007520,"Gallery Building 1, Level 2 Novotel Nusa Dua Hotel & Residences Jl Terompong, BTDC Lot SW-2, Jl. Nusa Dua, Benoa, Kec. Kuta Sel., Kabupaten Badung, Bali 80363, Indonesia",8,1.4,Bali,Accor Vacation Club Asia,Travel agency,"Monday 9 AM to 6 PM, Tuesday 9 AM to 6 PM, Wednesday 9 AM to 6 PM, Thursday 9 AM to 6 PM, Friday 9 AM to 6 PM, Saturday 9 AM to 5 PM, Sunday Closed,"
Badung Regency,-8.8045278,115.1959145,+62 821-2348-3682,"Kampial Residence 2, Blok B6, Benoa, Kec. Kuta Sel., Kabupaten Badung, Bali 80361, Indonesia",3,5.0,Bali,Best Bali Vacation,Travel agency,"Monday 8 AM to 7 PM, Tuesday 8 AM to 7 PM, Wednesday 8 AM to 7 PM, Thursday 8 AM to 7 PM, Friday 8 AM to 7 PM, Saturday Closed, Sunday Closed,"
Badung Regency,-8.808506,115.224288,+62 361 3007500,"56RF+HPV, Jl. Nusa Dua, Benoa, Kec. Kuta Sel., Kabupaten Badung, Bali 80361, Indonesia",49,3.9,Bali,Accor Vacation Club,Travel agency,"Monday 9 AM to 6 PM, Tuesday 9 AM to 6 PM, Wednesday 9 AM to 6 PM, Thursday 9 AM to 6 PM, Friday 9 AM to 6 PM, Saturday 9 AM to 3:30 PM, Sunday 9 AM to 3:30 PM,"
Gianyar Regency,-8.4049057,115.2937922,Unknown,"H7WV+2GM, Sebatu, Tegallalang, Gianyar Regency, Bali 80561, Indonesia",42,4.7,Bali,"Obyek Wisata Gunung Kawi, Sebatu",Water park,      
Gianyar Regency,-8.4876645,115.3178644,+62 857-3904-6295,"Jl. Pura Dalem No.Desa, Suwat, Kec. Gianyar, Kabupaten Gianyar, Bali 80511, Indonesia",1294,4.6,Bali,Suwat Waterfall,Tourist attraction,"Monday 8 AM to 6 PM, Tuesday 8 AM to 6 PM, Wednesday 8 AM to 6 PM, Thursday 8 AM to 6 PM, Friday 8 AM to 6 PM, Saturday 8 AM to 6 PM, Sunday 8 AM to 6 PM,"
Gianyar Regency,-8.4326349,115.2787491,+62 821-4567-8979,"Jl. Raya Tegallalang, Tegallalang, Kec. Tegallalang, Kabupaten Gianyar, Bali 80561, Indonesia",683,4.4,Bali,Ricefields Tegallalang,Tourist attraction,      
Badung Regency,-8.483959,115.2122881,+62 813-3759-9837,"Jl. Brahmana No.38, Sangeh, Kec. Abiansemal, Kabupaten Badung, Bali 80352, Indonesia",2416,4.6,Bali,Taman Mumbul Sangeh,Tourist attraction,"Monday 7 AM to 7 PM, Tuesday 7 AM to 7 PM, Wednesday 7 AM to 7 PM, Thursday 7 AM to 7 PM, Friday 7 AM to 7 PM, Saturday 7 AM to 7 PM, Sunday 7 AM to 7 PM,"
Gianyar Regency,-8.4200247,115.3120268,Unknown,"Jalan Tirta No.25M, Sareseda, Tampaksiring, Kec. Tampaksiring, Kabupaten Gianyar, Bali 80552, Indonesia",984,4.8,Bali,Pura Mengening,Hindu temple Tourist attraction,"Monday 9 AM to 5 PM, Tuesday 9 AM to 5 PM, Wednesday 9 AM to 5 PM, Thursday 9 AM to 5 PM, Friday 9 AM to 5 PM, Saturday 9 AM to 5 PM, Sunday 9 AM to 5 PM,"
Gianyar Regency,-8.4544417,115.3049285,+62 877-6695-9778,"Jl. Pejeng Kaja - Tampak Siring No.18, Sanding, Kec. Tampaksiring, Kabupaten Gianyar, Bali 80552, Indonesia",83,4.6,Bali,Pada Wareg Eco Park,Tourist attraction,"Monday 9 AM to 6 PM, Tuesday 9 AM to 6 PM, Wednesday 9 AM to 6 PM, Thursday 9 AM to 6 PM, Friday 9 AM to 6 PM, Saturday 9 AM to 6 PM, Sunday 9 AM to 6 PM,"
Gianyar Regency,-8.4235792,115.3085317,Unknown,"Tampaksiring, Gianyar Regency, Bali 80552, Indonesia",199,4.6,Bali,Pura Gunung Kawi Parking Lot,Tourist attraction Parking lot,"Monday Open 24 hours, Tuesday Open 24 hours, Wednesday Open 24 hours, Thursday Open 24 hours, Friday Open 24 hours, Saturday Open 24 hours, Sunday Open 24 hours,"
Gianyar Regency,-8.3855532,115.28062,+62 819-9993-9888,"J78J+QH9, Jl. Raya Taro Kaja, Taro, Kec. Tegallalang, Kabupaten Gianyar, Bali 80561, Indonesia",39,4.6,Bali,Desa Wisata Taro,Tourist attraction,"Monday 8 AM to 6 PM, Tuesday 8 AM to 6 PM, Wednesday 8 AM to 6 PM, Thursday 8 AM to 6 PM, Friday 8 AM to 6 PM, Saturday 8 AM to 6 PM, Sunday 8 AM to 6 PM,"
Bangli Regency,-8.4410173,115.3868079,+62 878-6322-0041,"Central parkir waterfall tukad cepung, Jl. Tembuku, Tembuku, Kec. Tembuku, Kabupaten Bangli, Bali 80671, Indonesia",3168,4.6,Bali,Tukad Cepung Waterfall,Tourist attraction,"Monday 7 AM to 6 PM, Tuesday 7 AM to 6 PM, Wednesday 7 AM to 6 PM, Thursday 7 AM to 6 PM, Friday 7 AM to 6 PM, Saturday 7 AM to 6 PM, Sunday 7 AM to 6 PM,"
Gianyar Regency,-8.43989,115.2806075,+62 812-2784-2083,"Jl. Raya Tegallalang, Tegallalang, Kec. Tegallalang, Kabupaten Gianyar, Bali 80561, Indonesia",12744,4.5,Bali,Alas Harum Bali,Tourist attraction Adventure sports Coffee shop Recreation center Restaurant Vegetarian restaurant,"Monday 7 AM to 7 PM, Tuesday 7 AM to 7 PM, Wednesday 7 AM to 7 PM, Thursday 7 AM to 7 PM, Friday 7 AM to 7 PM, Saturday 7 AM to 7 PM, Sunday 7 AM to 7 PM,"
Tabanan Regency,-8.3666011,115.1978215,Unknown,"Kerobokan, Jl. Swadaya, Mekarsari, Kec. Baturiti, Kabupaten Tabanan, Bali 82191, Indonesia",2025,4.4,Bali,Leke Leke Waterfall,Tourist attraction,      
Gianyar Regency,-8.429407,115.3133,Unknown,"Jl. Pertiwi Brata, Tampaksiring, Kec. Tampaksiring, Kabupaten Gianyar, Bali 80552, Indonesia",183,4.5,Bali,Subak Pulagan,Tourist attraction,"Monday 9 AM to 5 PM, Tuesday 9 AM to 5 PM, Wednesday 9 AM to 5 PM, Thursday 9 AM to 5 PM, Friday 9 AM to 5 PM, Saturday 9 AM to 5 PM, Sunday 9 AM to 5 PM,"
Gianyar Regency,-8.3919447,115.2846379,+62 878-6004-6931,"Taro, Tegallalang, Gianyar Regency, Bali 80561, Indonesia",135,4.6,Bali,Lembu Putih Taro,Tourist attraction,"Monday 9 AM to 5 PM, Tuesday 9 AM to 5 PM, Wednesday 9 AM to 5 PM, Thursday 9 AM to 5 PM, Friday 9 AM to 5 PM, Saturday 9 AM to 5 PM, Sunday 9 AM to 5 PM,"
Gianyar Regency,-8.4046825,115.2935714,Unknown,"Sebatu, Tegallalang, Gianyar Regency, Bali 80511, Indonesia",2254,4.6,Bali,Pura Gunung Kawi Sebatu,Hindu temple Tourist attraction,"Monday 8 AM to 6 PM, Tuesday 8 AM to 6 PM, Wednesday 8 AM to 6 PM, Thursday 8 AM to 6 PM, Friday 8 AM to 6 PM, Saturday 8 AM to 6 PM, Sunday 8 AM to 6 PM,"
Gianyar Regency,-8.4149206,115.3109393,+62 361 901400,"Jl. Dr. Ir. Soekarno, Manukaya, Kec. Tampaksiring, Kabupaten Gianyar, Bali 80552, Indonesia",1463,4.7,Bali,Istana Kepresidenan Tampaksiring,Historical place Tourist attraction,"Monday 9 AM to 2 PM, Tuesday 9 AM to 2 PM, Wednesday 9 AM to 2 PM, Thursday 9 AM to 2 PM, Friday 9 AM to 2 PM, Saturday Closed, Sunday Closed,"
Gianyar Regency,-8.3971872,115.285367,+62 878-6134-2012,"Delodsema Road, Taro, Tegallalang, Gianyar Regency, Bali 80561, Indonesia",108,4.7,Bali,Delodsema Traditional Village,Tourist attraction,"Monday 9 AM to 5 PM, Tuesday 9 AM to 5 PM, Wednesday 9 AM to 5 PM, Thursday 9 AM to 5 PM, Friday 9 AM to 5 PM, Saturday 9 AM to 5 PM, Sunday 9 AM to 5 PM,"
Gianyar Regency,-8.3925533,115.2880366,Unknown,"Sangaji, Taro, Kec. Tegallalang, Kabupaten Gianyar, Bali 80561, Indonesia",193,4.2,Bali,Lembah Bidadari,Tourist attraction,"Monday Open 24 hours, Tuesday Open 24 hours, Wednesday Open 24 hours, Thursday Open 24 hours, Friday Open 24 hours, Saturday Open 24 hours, Sunday Open 24 hours,"
Gianyar Regency,-8.4149259,115.3017433,Unknown,"manik sawang, Jl. Raya Bayad, Kedisan, Tegallalang, Gianyar Regency, Bali 80561, Indonesia",198,4.7,Bali,Ulu Petanu Waterfall,Tourist attraction,"Monday 6:30 AM to 5 PM, Tuesday 6 AM to 5 PM, Wednesday 6:30 AM to 5 PM, Thursday 6 AM to 5 PM, Friday 6:30 AM to 5 PM, Saturday 6:30 AM to 5 PM, Sunday 6 AM to 5 PM,"
Bangli Regency,-8.4225039,115.3597531,+62 821-4454-3439,"Jl. Penglipuran, Kubu, Kec. Bangli, Kabupaten Bangli, Bali 80611, Indonesia",22765,4.8,Bali,Penglipuran Village,Tourist attraction,"Monday 8 AM to 6:30 PM, Tuesday 8 AM to 6:30 PM, Wednesday 8 AM to 6:30 PM, Thursday 8 AM to 6:30 PM, Friday 8 AM to 6:30 PM, Saturday 8 AM to 6:30 PM, Sunday 8 AM to 6:30 PM,"
Gianyar Regency,-8.4156589,115.3153284,Unknown,"Tampaksiring, Gianyar Regency, Bali 80552, Indonesia",22589,4.6,Bali,Pura Tirta Empul,Hindu temple Tourist attraction,"Monday 8 AM to 6 PM, Tuesday 8 AM to 6 PM, Wednesday 8 AM to 6 PM, Thursday 8 AM to 6 PM, Friday 8 AM to 6 PM, Saturday 8 AM to 6 PM, Sunday 8 AM to 6 PM,"
Jembrana Regency,-8.3863779,114.8737092,+62 365 41210,"JV7C+7F, Desa Manggisari, Manggissari, Kec. Pekutatan, Kabupaten Jembrana, Bali 82262, Indonesia",940,4.5,Bali,Bunut Bolong,Tourist attraction,"Monday Open 24 hours, Tuesday Open 24 hours, Wednesday Open 24 hours, Thursday Open 24 hours, Friday Open 24 hours, Saturday Open 24 hours, Sunday Open 24 hours,"
Buleleng Regency,-8.2704796,115.0879002,Unknown,"P3HQ+P55, Jl. Danau Tamblingan, Munduk, Kec. Banjar, Kabupaten Buleleng, Bali 81152, Indonesia",2,4.0,Bali,Jalan Danau Tamblingan,Scenic spot,      
Buleleng Regency,-8.172844,115.1046069,+62 821-4432-7656,"Banjar, Sambangan, Sukasada, Buleleng Regency, Bali 81161, Indonesia",19,4.9,Bali,Bali Jungle Trekking Sambangan Waterfall Point,Hiking area,"Monday 8 AM to 5 PM, Tuesday 8 AM to 5 PM, Wednesday 8 AM to 5 PM, Thursday 8 AM to 5 PM, Friday 8 AM to 5 PM, Saturday 8 AM to 5 PM, Sunday 8 AM to 5 PM,"
Buleleng Regency,-8.2440291,115.1033125,+62 821-4430-4624,"Jl. Munduk - Wanagiri, Munduk, Kec. Sukasada, Kabupaten Buleleng, Bali 81152, Indonesia",103,4.5,Bali,Twin Lake,Tourist attraction,"Monday 7 AM to 6 PM, Tuesday 7 AM to 6 PM, Wednesday 7 AM to 6 PM, Thursday 7 AM to 6 PM, Friday 7 AM to 6 PM, Saturday 7 AM to 6 PM, Sunday 7 AM to 6 PM,"
Tabanan Regency,-8.2840649,115.1716726,Unknown,"Jl. Puncak Mangu No.1, Batunya, Buleleng, Kabupaten Tabanan, Bali 82191, Indonesia",896,4.6,Bali,Daya Tarik Wisata Bedugul,Tourist attraction,"Monday 8 AM to 6 PM, Tuesday 8 AM to 6 PM, Wednesday 8 AM to 6 PM, Thursday 8 AM to 6 PM, Friday 8 AM to 6 PM, Saturday 8 AM to 6 PM, Sunday 8 AM to 6 PM,"
Buleleng Regency,-8.177354,115.106228,+62 812-4632-0871,"Sambangan, Sukasada, Buleleng Regency, Bali 81161, Indonesia",239,4.6,Bali,"Blue Lagoon (Secret Garden of Sambangan & Sliding, Jumping Attraction)",Tourist information center Tourist attraction,"Monday 8 AM to 5 PM, Tuesday 8 AM to 5 PM, Wednesday 8 AM to 5 PM, Thursday 8 AM to 5 PM, Friday 8 AM to 5 PM, Saturday 8 AM to 5 PM, Sunday 8 AM to 5 PM,"
Tabanan Regency,-8.37031,115.131372,+62 856-9238-1416,"Village, Jl. Jatiluwih Kawan No.Desa, Jatiluwih, Kec. Penebel, Kabupaten Tabanan, Bali 82152, Indonesia",10674,4.7,Bali,Jatiluwih Rice Terraces,Tourist attraction,"Monday 8 AM to 6 PM, Tuesday 8 AM to 6 PM, Wednesday 8 AM to 6 PM, Thursday 8 AM to 6 PM, Friday 8 AM to 6 PM, Saturday 8 AM to 6 PM, Sunday 8 AM to 6 PM,"
Buleleng Regency,-8.1775308,115.1825825,Unknown,"Bebetin, Sawan, Buleleng Regency, Bali, Indonesia",1037,4.1,Bali,Sekumpul Waterfall,Tourist attraction,      
Buleleng Regency,-8.1896479,115.1134453,+62 852-3826-1272,"Unnamed Road, Sambangan, Sukasada, Buleleng Regency, Bali 81161, Indonesia",129,4.6,Bali,Gatep Lawas Ambengan,Tourist attraction,"Monday 8 AM to 5 PM, Tuesday 8 AM to 5 PM, Wednesday 8 AM to 5 PM, Thursday 8 AM to 5 PM, Friday 8 AM to 5 PM, Saturday 8 AM to 5 PM, Sunday 8 AM to 5 PM,"
Buleleng Regency,-8.2371393,115.1417792,Unknown,"Jl. Raya Wanagiri, Pancasari, Kec. Sukasada, Kabupaten Buleleng, Bali 81161, Indonesia",1916,4.6,Bali,Puncak Wanagiri,Tourist attraction,"Monday Open 24 hours, Tuesday Open 24 hours, Wednesday Open 24 hours, Thursday Open 24 hours, Friday Open 24 hours, Saturday Open 24 hours, Sunday Open 24 hours,"
Buleleng Regency,-8.1767187,115.1061741,+62 812-3695-1889,"Sambangan, Sukasada, Buleleng Regency, Bali 81161, Indonesia",7,5.0,Bali,Canyoning Aling2 Waterfall,Tourist attraction,"Monday 8 AM to 3 PM, Tuesday 8 AM to 3 PM, Wednesday 8 AM to 3 PM, Thursday 8 AM to 3 PM, Friday 8 AM to 3 PM, Saturday 8 AM to 3 PM, Sunday 8 AM to 3 PM,"
Tabanan Regency,-8.3724161,115.1441338,+62 822-4747-1517,"Babahan, Penebel, Tabanan Regency, Bali 82152, Indonesia",106,4.7,Bali,Babahan Crystal Water,Tourist attraction,      
Tabanan Regency,-8.3492215,115.1118354,Unknown,"Penebel, Tabanan Regency, Bali, Indonesia",0,4.7,Bali,Jatiluwih,,      
Buleleng Regency,-8.1603942,115.0255797,+62 819-1699-5636,"Jl. Binaria No.43, Anturan, Kec. Buleleng, Kabupaten Buleleng, Bali 81152, Indonesia",35,3.9,Bali,MAHA BALI TOURIST INFOMATION,Tourist attraction,"Monday 7 AM to 10:30 PM, Tuesday 7 AM to 10:30 PM, Wednesday 7 AM to 10:30 PM, Thursday 7 AM to 10:30 PM, Friday 7 AM to 10:30 PM, Saturday 7 AM to 10:30 PM, Sunday 7:30 AM to 10:30 PM,"
Tabanan Regency,-8.3722462,115.1439836,+62 822-4747-1517,"Babahan, Penebel, Tabanan Regency, Bali 82152, Indonesia",20,5.0,Bali,Babahan Rice Terraces,Tourist attraction,      
Buleleng Regency,-8.1737031,115.1044002,+62 896-3749-2944,"Jl. Raya Desa Sambangan, Sambangan, Kec. Sukasada, Kabupaten Buleleng, Bali 81161, Indonesia",9,5.0,Bali,Bali Canyon Park,Tourist attraction National reserve,      
Buleleng Regency,-8.2379625,115.1035418,+62 877-5289-8872,"Q463+RC, Wanagiri, Sukasada, Buleleng Regency, Bali 81161, Indonesia",1,5.0,Bali,Banyan Spirit tree temple,Tourist attraction Hindu temple Religious destination,"Monday Open 24 hours, Tuesday Open 24 hours, Wednesday Open 24 hours, Thursday Open 24 hours, Friday Open 24 hours, Saturday Open 24 hours, Sunday Open 24 hours,"
Jembrana Regency,-8.2938045,114.639346,+62 878-6307-7981,"Unnamed Road, Pendem, Kec. Jembrana, Kabupaten Jembrana, Bali 82218, Indonesia",197,4.1,Bali,Roses peak Jembrana Bali,Tourist attraction,"Monday 8 AM to 5 PM, Tuesday 8 AM to 5 PM, Wednesday 8 AM to 5 PM, Thursday 8 AM to 5 PM, Friday 8 AM to 5 PM, Saturday 8 AM to 5 PM, Sunday 8 AM to 5 PM,"
Jembrana Regency,-8.323959,114.6101304,+62 819-9908-3199,"Berangbang, Negara, Jembrana Regency, Bali 82218, Indonesia",6,3.7,Bali,Wisata Alam Lembah Ijogading,Park,      
Buleleng Regency,-8.2121421,114.7807953,Unknown,"Patas, Gerokgak, Buleleng Regency, Bali 81155, Indonesia",248,4.4,Bali,Gerokgak Dam,Tourist attraction,      
Badung Regency,-8.8001117,115.2307077,+62 361 774935,"Complex Bali Tourism Development Corporation (BTDC) Area Block P, Benoa, South Kuta, Badung Regency, Bali 80361, Indonesia",556,4.5,Bali,Museum Pasifika Bali,Art museum Cultural center Education center Tourist attraction,"Monday 10 AM to 6 PM, Tuesday 10 AM to 6 PM, Wednesday 10 AM to 6 PM, Thursday 10 AM to 6 PM, Friday 10 AM to 6 PM, Saturday 10 AM to 6 PM, Sunday 10 AM to 6 PM,"
Badung Regency,-8.4906347,115.2399794,+62 878-8828-8832,"Jl. Dewi Saraswati No.7, Bongkasa Pertiwi, Kec. Abiansemal, Kabupaten Badung, Bali 80352, Indonesia",13221,4.6,Bali,Real Bali Swing,Theme park Outdoor activity organiser Tourist attraction,"Monday 8 AM to 5 PM, Tuesday 8 AM to 5 PM, Wednesday 8 AM to 5 PM, Thursday 8 AM to 5 PM, Friday 8 AM to 5 PM, Saturday 8 AM to 5 PM, Sunday 8 AM to 5 PM,"
Gianyar Regency,-8.5065977,115.2625884,Unknown,"Jl. Raya Ubud No.8, Ubud, Kecamatan Ubud, Kabupaten Gianyar, Bali 80571, Indonesia",12089,4.3,Bali,Ubud Palace,Tourist attraction Historical landmark,"Monday 7 AM to 5 PM, Tuesday 7 AM to 5 PM, Wednesday 7 AM to 5 PM, Thursday 7 AM to 5 PM, Friday 7 AM to 5 PM, Saturday 7 AM to 5 PM, Sunday 7 AM to 5 PM,"
Badung Regency,-8.4815663,115.2065458,+62 851-0042-2740,"Jl. Brahmana, Sangeh, Kec. Abiansemal, Kabupaten Badung, Bali 80352, Indonesia",146,4.6,Bali,Objek Wisata Sangeh,Tourist attraction National forest Zoo,"Monday 8 AM to 5 PM, Tuesday 8 AM to 5 PM, Wednesday 8 AM to 5 PM, Thursday 8 AM to 5 PM, Friday 8 AM to 5 PM, Saturday 8 AM to 5 PM, Sunday 8 AM to 5 PM,"
Gianyar Regency,-8.5753621,115.2889599,Unknown,"Kemenuh, Sukawati, Gianyar Regency, Bali, Indonesia",31274,4.3,Bali,Tegenungan Waterfall,Scenic spot Tourist attraction,      
Badung Regency,-8.4817743,115.2067391,+62 851-0302-8181,"Jl. Brahmana, Sangeh, Kec. Abiansemal, Kabupaten Badung, Bali 80353, Indonesia",6642,4.6,Bali,Sangeh Monkey Forest,Tourist attraction,"Monday 8 AM to 5 PM, Tuesday 8 AM to 5 PM, Wednesday 8 AM to 5 PM, Thursday 8 AM to 5 PM, Friday 8 AM to 5 PM, Saturday 8 AM to 5 PM, Sunday 8 AM to 5 PM,"
Tabanan Regency,-8.5294825,115.1553403,Unknown,"F5C4+644, Jl. Raya Alas Kedaton, Kukuh, Kec. Marga, Kabupaten Tabanan, Bali 82121, Indonesia",2479,4.2,Bali,Alas Kedaton,Tourist attraction Park,"Monday 9 AM to 5 PM, Tuesday 9 AM to 5 PM, Wednesday 9 AM to 5 PM, Thursday 9 AM to 5 PM, Friday 9 AM to 5 PM, Saturday 9 AM to 5 PM, Sunday 9 AM to 5 PM,"
Badung Regency,-8.5396366,115.198893,+62 812-3629-808,"Jl. Oleg No.50, Penarungan, Kec. Mengwi, Kabupaten Badung, Bali 80352, Indonesia",8,4.9,Bali,Desa Wisata Penarungan,Tourist attraction,"Monday 9 AM to 5 PM, Tuesday 9 AM to 5 PM, Wednesday 9 AM to 5 PM, Thursday 9 AM to 5 PM, Friday 9 AM to 5 PM, Saturday 9 AM to 5 PM, Sunday 9 AM to 5 AM,"
Gianyar Regency,-8.4993467,115.2550384,Unknown,"Jl. Bangkiang Sidem, Kelusa, Kec. Payangan, Kabupaten Gianyar, Bali 80571, Indonesia",2392,4.5,Bali,Bukit Campuhan,Hiking area Tourist attraction,      
Badung Regency,-8.4745676,115.2057216,+62 821-4655-6708,"Sangeh, Abiansemal, Badung Regency, Bali 80352, Indonesia",270,4.1,Bali,Tanah Wuk,Tourist attraction Lodging,      
Badung Regency,-8.5021162,115.2358589,+62 878-4604-8773,"Jl. Tangga Yuda, Bongkasa, Kec. Abiansemal, Kabupaten Badung, Bali 80571, Indonesia",232,4.7,Bali,Desa Swing Bongkasa,Tourist attraction,"Monday 8 AM to 6 PM, Tuesday 8 AM to 6 PM, Wednesday 8 AM to 6 PM, Thursday 8 AM to 6 PM, Friday 8 AM to 6 PM, Saturday 8 AM to 6 PM, Sunday 8 AM to 6 PM,"
Gianyar Regency,-8.5178025,115.2693721,+62 852-0536-1552,"F7J9+VP4, Jl. Cok Gede Rai, Peliatan, Kecamatan Ubud, Kabupaten Gianyar, Bali 80571, Indonesia",273,4.7,Bali,Puri Agung Peliatan,Tourist attraction,"Monday 10 AM to 5 PM, Tuesday 10 AM to 5 PM, Wednesday 10 AM to 5 PM, Thursday 10 AM to 5 PM, Friday 10 AM to 5 PM, Saturday 10 AM to 5 PM, Sunday 10 AM to 5 PM,"
Badung Regency,-8.5033538,115.2366462,+62 878-6175-0855,"Jl Raya Bongkjasa Banjar Sayang Agung, Bongkasa, Kec. Abiansemal, Kabupaten Badung, Bali 80354, Indonesia",226,4.6,Bali,Dtukad Adventure Club Bali,Tourist attraction Outdoor activity organiser,"Monday 10 AM to 5 PM, Tuesday 10 AM to 5 PM, Wednesday 10 AM to 5 PM, Thursday 10 AM to 5 PM, Friday 10 AM to 5 PM, Saturday 10 AM to 5 PM, Sunday 10 AM to 5 PM,"
Gianyar Regency,-8.5058937,115.2614881,Unknown,"F7V6+JHX, Jl. Kajeng, Ubud, Kecamatan Ubud, Kabupaten Gianyar, Bali 80571, Indonesia",3911,4.3,Bali,Pura Taman Kemuda Saraswati,Hindu temple Place of worship Tourist attraction,      
Gianyar Regency,-8.5035806,115.2547579,Unknown,"Kelusa, Payangan, Jl. Raya Campuhan, Sayan, Kecamatan Ubud, Kabupaten Gianyar, Bali 80571, Indonesia",12330,4.4,Bali,Campuhan Ridge Walk,Hiking area Tourist attraction,"Monday Open 24 hours, Tuesday Open 24 hours, Wednesday Open 24 hours, Thursday Open 24 hours, Friday Open 24 hours, Saturday Open 24 hours, Sunday Open 24 hours,"
Gianyar Regency,-8.5193727,115.2606299,+62 361 971304,"Jl. Monkey Forest, Ubud, Kecamatan Ubud, Kabupaten Gianyar, Bali 80571, Indonesia",47409,4.5,Bali,Sacred Monkey Forest Sanctuary,Nature preserve Tourist attraction,"Monday 9 AM to 5 PM, Tuesday 9 AM to 5 PM, Wednesday 9 AM to 5 PM, Thursday 9 AM to 5 PM, Friday 9 AM to 5 PM, Saturday 9 AM to 5 PM, Sunday 9 AM to 5 PM,"
Gianyar Regency,-8.5065206,115.2404698,+62 859-3524-4052,"Jl. Raya Sayan, Ubud, Kecamatan Ubud, Kabupaten Gianyar, Bali 80571, Indonesia",7,4.3,Bali,Desa Wisata Sayan,Tourist attraction,"Monday 8 AM to 5 PM, Tuesday 8 AM to 5 PM, Wednesday 8 AM to 5 PM, Thursday 8 AM to 5 PM, Friday 8 AM to 5 PM, Saturday 9 AM to 5 PM, Sunday 10 AM to 5 PM,"
Bangli Regency,-8.5068384,115.3330831,+62 878-2605-4230,"Jl. Setra Agung, Apuan, Kec. Susut, Kabupaten Bangli, Bali 80661, Indonesia",1312,4.5,Bali,Tibumana Waterfall,Tourist attraction,"Monday 7 AM to 6 PM, Tuesday 7 AM to 6 PM, Wednesday 7 AM to 6 PM, Thursday 7 AM to 6 PM, Friday 7 AM to 6 PM, Saturday 7 AM to 6 PM, Sunday 7 AM to 6 PM,"
Gianyar Regency,-8.5081572,115.2477457,+62 361 975009,"F6RX+P3Q, Jl. Penestanan Kelod, Sayan, Kecamatan Ubud, Kabupaten Gianyar, Bali 80571, Indonesia",93,4.6,Bali,Bali Bird Walks,Bird watching area Tourist attraction Travel agency,      
Tabanan Regency,-8.469335,115.2034665,Unknown,"G6J3+798, Jl. Seribupati, Cau Belayu, Kec. Marga, Kabupaten Tabanan, Bali 82181, Indonesia",649,4.2,Bali,Pengempu Waterfall,Tourist attraction,      
Karangasem Regency,-8.2754365,115.5918038,Unknown,"PHGQ+4VR, Tulamben, Kubu, Karangasem Regency, Bali 80852, Indonesia",8,5.0,Bali,Tulamben,Tourist attraction,      
Karangasem Regency,-8.224334,115.508731,Unknown,"Unnamed Road, Tianyar, Kubu, Karangasem Regency, Bali 80853, Indonesia",724,4.5,Bali,Savana Tianyar,Tourist attraction,"Monday 12 to 6 AM, 6:15 AM to 12 a.m., Tuesday 12 to 6 AM, 7:15 AM to 12 a.m., Wednesday 12 to 6 AM, 7:15 AM to 12 a.m., Thursday 12 to 6 AM, 7:15 AM to 12 a.m., Friday 12 to 6 AM, 7:15 AM to 12 a.m., Saturday 12 to 6 AM, 7:15 AM to 12 a.m., Sunday 12 to 6 AM, 7:15 AM to 12 a.m.,"
Klungkung Regency,-8.5087457,115.4604698,Unknown,"Unnamed Road, Besan, Kec. Dawan, Kabupaten Klungkung, Bali 80761, Indonesia",47,4.6,Bali,Tukad Tista,Tourist attraction,      
Klungkung Regency,-8.7017154,115.511657,+62 813-3957-1909,"Ped, Nusa Penida, Klungkung Regency, Bali 80771, Indonesia",14,4.9,Bali,One Day Trip Nusa Penida - Nusapenidatourist.com,Travel agency,"Monday Open 24 hours, Tuesday Open 24 hours, Wednesday Open 24 hours, Thursday Open 24 hours, Friday Open 24 hours, Saturday Open 24 hours, Sunday Open 24 hours,"
Klungkung Regency,-8.6824449,115.488461,+62 877-6156-9384,"Jl. Raya Toya Pakeh - Ped, Kp. Toyapakeh, Kec. Nusa Penida, Kabupaten Klungkung, Bali 80711, Indonesia",1,5.0,Bali,Nusa Penida Manta Poin,Tourist attraction Rafting Tour agency Water sports equipment rental service,"Monday Open 24 hours, Tuesday Open 24 hours, Wednesday Open 24 hours, Thursday Open 24 hours, Friday Open 24 hours, Saturday Open 24 hours, Sunday Open 24 hours,"
Klungkung Regency,-8.7335003,115.4489788,Unknown,"7C8X+HHX, Sakti, Nusa Penida, Klungkung Regency, Bali, Indonesia",3783,4.6,Bali,Angel's Billabong,Tourist attraction,      
Klungkung Regency,-8.6937883,115.4508423,+62 821-4435-0661,"Jl. Yellow Bridge, Nusa, Lembongan, Kabupaten Klungkung, Bali 80771, Indonesia",24,5.0,Bali,The Ceningan Expedition,Tourist information center,"Monday 7 AM to 6 PM, Tuesday 7 AM to 6 PM, Wednesday 7 AM to 6 PM, Thursday 7 AM to 6 PM, Friday 7 AM to 6 PM, Saturday 7 AM to 6 PM, Sunday 7 AM to 6 PM,"
Klungkung Regency,-8.7074668,115.442369,+62 812-3838-2901,"Secret beach Nusa ceningan, Lembongan, Kec. Nusa Penida, Kabupaten Klungkung, Bali 80771, Indonesia",6,5.0,Bali,Tropicurl group and soft Destination,Travel agency Boat tour agency Event ticket seller SCUBA tour agency Sightseeing tour agency Tour operator Tourist attraction Tourist information center Transportation service,"Monday Open 24 hours, Tuesday Open 24 hours, Wednesday Open 24 hours, Thursday Open 24 hours, Friday Open 24 hours, Saturday Open 24 hours, Sunday Open 24 hours,"
Klungkung Regency,-8.6826621,115.4872996,+62 818-0533-3747,"Jalan Raya Toya Pakeh, Desa Toya Pakeh Nusa Penida, Kp. Toyapakeh, Kec. Nusa Penida, Kabupaten Klungkung, Bali 80771, Indonesia",166,4.6,Bali,Nusa Penida Explorer,Tourist information center,      
Klungkung Regency,-8.7082874,115.4372271,Unknown,"7CRP+MVQ, Lembongan, Nusa Penida, Klungkung Regency, Bali 80771, Indonesia",15,4.9,Bali,Shiroi Lookout,Tourist attraction,"Monday Open 24 hours, Tuesday Open 24 hours, Wednesday Open 24 hours, Thursday Open 24 hours, Friday Open 24 hours, Saturday Open 24 hours, Sunday Open 24 hours,"
Klungkung Regency,-8.6910559,115.4324628,Unknown,"Lembongan island, Jungutbatu, Nusa Penida, Klungkung Regency, Bali 80771, Indonesia",65,4.6,Bali,Dream Beach Cliff,Tourist attraction,"Monday Open 24 hours, Tuesday Open 24 hours, Wednesday Open 24 hours, Thursday Open 24 hours, Friday Open 24 hours, Saturday Open 24 hours, Sunday Open 24 hours,"
Klungkung Regency,-8.6662999,115.4669795,+62 813-5339-2851,"Nusa Penida, Jungutbatu, Kec. Klungkung, Kabupaten Klungkung, Bali 80771, Indonesia",760,4.3,Bali,Mangrove Point,Tourist attraction,"Monday 9 AM to 5 PM, Tuesday 9 AM to 5 PM, Wednesday 9 AM to 5 PM, Thursday 9 AM to 5 PM, Friday 9 AM to 5 PM, Saturday 9 AM to 5 PM, Sunday 9 AM to 5 PM,"
Klungkung Regency,-8.6835073,115.4272838,Unknown,"Tj. Sanghyang, Jungutbatu, Nusa Penida, Klungkung Regency, Bali 80771, Indonesia",414,4.6,Bali,Sunset Point,Tourist attraction Restaurant,"Monday Open 24 hours, Tuesday Open 24 hours, Wednesday Open 24 hours, Thursday Open 24 hours, Friday Open 24 hours, Saturday Open 24 hours, Sunday Open 24 hours,"
Klungkung Regency,-8.7306775,115.4497781,Unknown,"7C9X+PWC, Sakti, Nusa Penida, Klungkung Regency, Bali 80771, Indonesia",79,4.6,Bali,Dolphin Beach,Tourist attraction,"Monday Open 24 hours, Tuesday Open 24 hours, Wednesday Open 24 hours, Thursday Open 24 hours, Friday Open 24 hours, Saturday Open 24 hours, Sunday Open 24 hours,"
Klungkung Regency,-8.7744198,115.502352,+62 853-3841-7232,"6GG2+6WQ, Jl. Saren 1, Batumadeg, Kec. Nusa Penida, Kabupaten Klungkung, Bali 80771, Indonesia",178,4.6,Bali,Saren Cliff Point,Tourist attraction,"Monday Open 24 hours, Tuesday Open 24 hours, Wednesday Open 24 hours, Thursday Open 24 hours, Friday Open 24 hours, Saturday Open 24 hours, Sunday Open 24 hours,"
Klungkung Regency,-8.6658093,115.4642081,+62 815-5773-999,"Mangrove Beach, Jungutbatu village, Nusa Lembongan, Kecamatan:, Propinsi:, Jungutbatu, Nusa Penida, Klungkung Regency, Bali 80771, Indonesia",306,4.6,Bali,Lembongan watersport,Tourist attraction Canoe & kayak tour agency Diving center Restaurant,"Monday 7 AM to 10 PM, Tuesday 7 AM to 10 PM, Wednesday 7 AM to 10 PM, Thursday 7 AM to 10 PM, Friday 7 AM to 10 PM, Saturday 7 AM to 10 PM, Sunday 7 AM to 10 PM,"
Klungkung Regency,-8.672396,115.4523031,+62 812-1097-3456,"Nusa lembongan, Nusa Lembongan, Jungut batu, Kec. Nusa Penida, Kabupaten Klungkung, Bali 80771, Indonesia",39,5.0,Bali,Nusa Lembongan Tour,Sport tour agency,      
Klungkung Regency,-8.7785108,115.6168404,Unknown,"6JC8+HPW, Pejukutan, Nusa Penida, Klungkung Regency, Bali 80771, Indonesia",1216,4.1,Bali,"Rumah Pohon ""Tree House""",Tourist attraction,      
Klungkung Regency,-8.7670731,115.4869036,Unknown,"6FMP+5QC, Unnamed Road, Batumadeg, Nusa Penida, Klungkung Regency, Bali 80771, Indonesia",357,4.5,Bali,Banah Cliff Point,Tourist attraction,"Monday Open 24 hours, Tuesday Open 24 hours, Wednesday Open 24 hours, Thursday Open 24 hours, Friday Open 24 hours, Saturday Open 24 hours, Sunday Open 24 hours,"
Klungkung Regency,-8.7081221,115.4384371,Unknown,"Jl. Nusa Ceningan, Lembongan, Kec. Klungkung, Kabupaten Klungkung, Bali 80871, Indonesia",3435,4.7,Bali,Blue Lagoon Nusa Ceningan,Tourist attraction,"Monday 6 AM to 5 PM, Tuesday 6 AM to 5 PM, Wednesday 6 AM to 5 PM, Thursday 6 AM to 5 PM, Friday 6 AM to 5 PM, Saturday 6 AM to 5 PM, Sunday 6 AM to 5 PM,"
Klungkung Regency,-8.7156148,115.4592001,+62 852-3885-2836,"Unnamed Road, Sakti, Kec. Nusa Penida, Kabupaten Klungkung, Bali 80771, Indonesia",3945,4.4,Bali,Crystal Bay Beach,Tourist attraction,"Monday Open 24 hours, Tuesday Open 24 hours, Wednesday Open 24 hours, Thursday Open 24 hours, Friday Open 24 hours, Saturday Open 24 hours, Sunday Open 24 hours,"
Tabanan Regency,-8.618622,115.0867662,Unknown,"93JP+HP2, Beraban, Kediri, Tabanan Regency, Bali 82121, Indonesia",589,4.8,Bali,Sunset View at Tanah Lot,Tourist attraction,      
Tabanan Regency,-8.6058593,115.087231,+62 878-7876-0111,"Jl. Pantai Kedungu, Belalang, Kec. Kediri, Kabupaten Tabanan, Bali 82121, Indonesia",0,4.7,Bali,OUR DESTINATION INDONESIA,Tourist information center,"Monday Open 24 hours, Tuesday Open 24 hours, Wednesday Open 24 hours, Thursday Open 24 hours, Friday Open 24 hours, Saturday Open 24 hours, Sunday Open 24 hours,"
Denpasar,-8.7142191,115.18264,+62 812-3856-7764,"Jl. Merdeka Raya No.2, Kuta, Kec. Kuta, Denpasar, Bali 80361, Indonesia",1,5.0,Bali,Balibestdrivertour.com,Tourist attraction,"Monday Open 24 hours, Tuesday Open 24 hours, Wednesday Open 24 hours, Thursday Open 24 hours, Friday Open 24 hours, Saturday Open 24 hours, Sunday Open 24 hours,"
Denpasar City,-8.6568602,115.253657,+62 812-3810-2983,"Sanur, Jl. Bypass Ngurah Rai, Kesiman, Denpasar Selatan, Kota Denpasar, Bali 80237, Indonesia",6001,4.3,Bali,Big Garden Corner,Tourist attraction,"Monday 9 AM to 6 PM, Tuesday 9 AM to 6 PM, Wednesday 9 AM to 6 PM, Thursday 9 AM to 6 PM, Friday 9 AM to 6 PM, Saturday 9 AM to 6 PM, Sunday 9 AM to 6 PM,"
Tabanan Regency,-8.6300542,115.099108,Unknown,"93CX+6C, Beraban, Kediri, Tabanan Regency, Bali 82121, Indonesia",162,4.7,Bali,Nuanu Gate,Tourist attraction,      
Tabanan Regency,-8.5423361,115.0833992,Unknown,"F35M+396, Baturiti, Kerambitan, Tabanan Regency, Bali 82161, Indonesia",300,4.6,Bali,Puri Anyar Royal Palace Kerambitan,Tourist attraction,"Monday Open 24 hours, Tuesday Open 24 hours, Wednesday Open 24 hours, Thursday Open 24 hours, Friday Open 24 hours, Saturday Open 24 hours, Sunday Open 24 hours,"
Badung Regency,-8.6182312,115.1283214,Unknown,"94JH+P84, Munggu, Mengwi, Badung Regency, Bali 80351, Indonesia",10,4.7,Bali,Desa Wisata Munggu,Tourist attraction,"Monday Open 24 hours, Tuesday Open 24 hours, Wednesday Open 24 hours, Thursday Open 24 hours, Friday Open 24 hours, Saturday Open 24 hours, Sunday Open 24 hours,"
Denpasar City,-8.716711,115.2052612,+62 811-3880-0123,"Jl. Bypass Ngurah Rai No.762, Pemogan, Denpasar Selatan, Kota Denpasar, Bali 80221, Indonesia",3904,4.2,Bali,Upside Down World Bali,Tourist attraction,"Monday 9 AM to 8:30 PM, Tuesday 9 AM to 8:30 PM, Wednesday 9 AM to 8:30 PM, Thursday 9 AM to 8:30 PM, Friday 9 AM to 8:30 PM, Saturday 9 AM to 8:30 PM, Sunday 9 AM to 8:30 PM,"
Badung Regency,-8.6637779,115.1359348,Unknown,"84PP+F9M, Jl. Pemelisan Agung, Tibubeneng, Kec. Kuta Utara, Kabupaten Badung, Bali 80361, Indonesia",163,4.6,Bali,Perancak Beach,Tourist attraction,      
Tabanan Regency,-8.621213,115.086807,+62 361 880361,"Beraban, Kediri, Tabanan Regency, Bali 82121, Indonesia",91935,4.6,Bali,Tanah Lot,Scenic spot Tourist attraction,"Monday 6 AM to 7 PM, Tuesday 6 AM to 7 PM, Wednesday 6 AM to 7 PM, Thursday 6 AM to 7 PM, Friday 6 AM to 7 PM, Saturday 6 AM to 7 PM, Sunday 6 AM to 7 PM,"
Tabanan Regency,-8.5678423,115.1151558,+62 817-0673-445,"C4J8+V36, Bongan Jawa kangin, Bongan, Kec. Tabanan, Kabupaten Tabanan, Bali 82121, Indonesia",27,4.2,Bali,Wisata Grembengan,Tourist attraction,"Monday 8 AM to 5 PM, Tuesday 8 AM to 5 PM, Wednesday 8 AM to 5 PM, Thursday 8 AM to 5:30 PM, Friday 8 AM to 5 PM, Saturday 8 AM to 5 PM, Sunday 8 AM to 9 PM,"
Gianyar Regency,-8.5049013,115.2545998,Unknown,"F7W3+2RQ, Jl. Raya Campuhan, Sayan, Kecamatan Ubud, Kabupaten Gianyar, Bali 80571, Indonesia",19,3.9,Bali,Pont de Campuhan,Tourist attraction,      
Gianyar Regency,-8.4317112,115.279303,Unknown,"Jl. Raya Tegallalang, Tegallalang, Kec. Tegallalang, Kabupaten Gianyar, Bali 80561, Indonesia",45953,4.4,Bali,Ceking Rice Terrace,Scenic spot Tourist attraction,"Monday 8 AM to 6 PM, Tuesday 8 AM to 6 PM, Wednesday 8 AM to 6 PM, Thursday 8 AM to 6 PM, Friday 8 AM to 6 PM, Saturday 8 AM to 6 PM, Sunday 8 AM to 6 PM,"
Klungkung Regency,-8.7798706,115.6126948,+62 821-4700-7700,"Desa Pekraman, Pelilit, Pejukutan, Kec. Nusa Penida, Kabupaten Klungkung, Bali 80771, Indonesia",13,4.7,Bali,Oceania Cliff Activities,Summer camp Tourist attraction,"Monday 6 AM to 12 a.m., Tuesday 6 AM to 12 a.m., Wednesday 6 AM to 12 a.m., Thursday 6 AM to 12 a.m., Friday 6 AM to 12 a.m., Saturday 6 AM to 12 a.m., Sunday 6 AM to 12 a.m.,"
Klungkung Regency,-8.8043034,115.5557363,Unknown,"Jl. Pura Segara Suwehan Hughug, Dusun Tabuanan, Sekartaji, Kec. Nusa Penida, Kabupaten Klungkung, Bali 80771, Indonesia",6,4.7,Bali,Manta Point Beach,Tourist attraction,"Monday Open 24 hours, Tuesday Open 24 hours, Wednesday Open 24 hours, Thursday Open 24 hours, Friday Open 24 hours, Saturday Open 24 hours, Sunday Open 24 hours,"
Klungkung Regency,-8.7098274,115.5674976,+62 812-3616-7920,"7HR8+3X9 Buah, Kutampi, Nusa Penida, Klungkung Regency, Bali 80771, Indonesia",3,5.0,Bali,Golden Egg of Bali,Tour agency Tourist information center,"Monday Open 24 hours, Tuesday Open 24 hours, Wednesday Open 24 hours, Thursday Open 24 hours, Friday Open 24 hours, Saturday Open 24 hours, Sunday Open 24 hours,"
Klungkung Regency,-8.7378184,115.548237,+62 821-4493-3400,"Batukandik, Nusa Penida, Klungkung Regency, Bali 80771, Indonesia",6,5.0,Bali,Nusa Penida tour and travel,Travel agency,"Monday Open 24 hours, Tuesday Open 24 hours, Wednesday Open 24 hours, Thursday Open 24 hours, Friday Open 24 hours, Saturday Open 24 hours, Sunday Open 24 hours,"
Klungkung Regency,-8.7321375,115.5242335,Unknown,"Unnamed Rd, 80771, Klumpu, Kec. Nusa Penida, Kabupaten Klungkung, Bali 80771, Indonesia",297,4.6,Bali,Pura Puncak Mundi,Hindu temple Tourist attraction,"Monday Open 24 hours, Tuesday Open 24 hours, Wednesday Open 24 hours, Thursday Open 24 hours, Friday Open 24 hours, Saturday Open 24 hours, Sunday Open 24 hours,"
Klungkung Regency,-8.7853848,115.5747842,Unknown,"Unnamed Rd, 80771, Tanglad, Kec. Nusa Penida, Kabupaten Klungkung, Bali 80771, Indonesia",984,4.1,Bali,Teletubbies Hill,Tourist attraction,"Monday Open 24 hours, Tuesday Open 24 hours, Wednesday Open 24 hours, Thursday Open 24 hours, Friday Open 24 hours, Saturday Open 24 hours, Sunday Open 24 hours,"
Klungkung Regency,-8.7787791,115.6169247,+62 822-3617-6345,"6JC8+FQM, Pejukutan, Nusa Penida, Klungkung Regency, Bali 80771, Indonesia",2112,4.6,Bali,Thousand Islands Viewpoint,Tourist attraction,"Monday Open 24 hours, Tuesday Open 24 hours, Wednesday Open 24 hours, Thursday Open 24 hours, Friday Open 24 hours, Saturday Open 24 hours, Sunday Open 24 hours,"
Buleleng Regency,-8.1532932,115.3604458,Unknown,"Buleleng, Les, Kec. Tejakula, Kabupaten Buleleng, Bali 81173, Indonesia",361,4.7,Bali,Yeh Mampeh Waterfall,Tourist attraction,"Monday 6:30 AM to 7 PM, Tuesday 6:30 AM to 7 PM, Wednesday 6:30 AM to 7 PM, Thursday 6:30 AM to 7 PM, Friday 6:30 AM to 7 PM, Saturday 6:30 AM to 7 PM, Sunday 6:30 AM to 7 PM,"
Buleleng Regency,-8.1327843,115.2562698,+62 831-1478-8739,"Tajun, Kubutambahan, Kab. Buleleng, Bali, Tajun, Kec. Kubutambahan, Kabupaten Buleleng, Bali 81172, Indonesia",127,4.8,Bali,Pura Bukit Sinunggal,Hindu temple Tourist attraction,      
Buleleng Regency,-8.0644839,115.1897779,+62 821-4656-9437,"W5PQ+6W2, Unnamed Road, Kubutambahan, Kec. Kubutambahan, Kabupaten Buleleng, Bali 81172, Indonesia",8,4.0,Bali,Pantai kutebanding,Tourist attraction,      
Klungkung Regency,-8.7270619,115.5990259,Unknown,"7HFX+5JC, Jl. Batu Nunggal-Suana, Suana, Kec. Nusa Penida, Kabupaten Klungkung, Bali 80771, Indonesia",2,5.0,Bali,Suana Point Beach,Tourist attraction,      
Klungkung Regency,-8.7402834,115.4548348,Unknown,"Sakti, Nusa Penida, Klungkung Regency, Bali 80771, Indonesia",78,4.5,Bali,Lumangan Beach,Tourist attraction,"Monday Open 24 hours, Tuesday Open 24 hours, Wednesday Open 24 hours, Thursday Open 24 hours, Friday Open 24 hours, Saturday Open 24 hours, Sunday Open 24 hours,"
Klungkung Regency,-8.7817774,115.5183935,Unknown,"6G99+79J, Br. Peguyangan, Batukandik, Kec. Nusa Penida, Kabupaten Klungkung, Bali 80771, Indonesia",70,4.7,Bali,Pura Segara Kidul & Guyangan,Hindu temple Tourist attraction,      
Klungkung Regency,-8.7840469,115.6073861,Unknown,"6J84+9X, Tanglad, Nusa Penida, Klungkung Regency, Bali, Indonesia",2,5.0,Bali,Sunrise hill,Tourist attraction,      
Klungkung Regency,-8.7756323,115.6272871,Unknown,"6JFG+PW, Pejukutan, Nusa Penida, Klungkung Regency, Bali, Indonesia",3,5.0,Bali,Laught tale,Tourist attraction,      
Klungkung Regency,-8.7759057,115.6190014,Unknown,"6JF9+JJJ, Pejukutan, Nusa Penida, Klungkung Regency, Bali 80771, Indonesia",27,4.6,Bali,pantai pelilit,Tourist attraction,      
Klungkung Regency,-8.7734116,115.6218187,Unknown,"Nusa Penida Tour - Atuh Beach, Pejukutan, Kec. Nusa Penida, Kabupaten Klungkung, Bali 80771, Indonesia",3,4.7,Bali,Nusa Penida,Tourist attraction,      
Klungkung Regency,-8.6814617,115.575338,Unknown,"8H9G+C48, Jl. Batumulapan, Batununggul, Kec. Nusa Penida, Kabupaten Klungkung, Bali 80771, Indonesia",4,4.5,Bali,Batumulapan Beach,Tourist attraction,      
Klungkung Regency,-8.7781184,115.6168301,Unknown,"6JC8+QP4, Pejukutan, Nusa Penida, Klungkung Regency, Bali 80771, Indonesia",21,3.4,Bali,Coco Cliff,Tourist attraction,      
Denpasar City,-8.6510099,115.2174823,+62 812-4615-7579,"Jl. Veteran No.62, Dangin Puri Kaja, Kec. Denpasar Utara, Kota Denpasar, Bali 80361, Indonesia",141,4.6,Bali,Puri Agung Denpasar,Tourist attraction Hindu temple,"Monday 8 AM to 6 PM, Tuesday 8 AM to 6 PM, Wednesday 8 AM to 6 PM, Thursday 8 AM to 6 PM, Friday 8 AM to 6 PM, Saturday 8 AM to 6 PM, Sunday 8 AM to 6 PM,"
Klungkung Regency,-8.7501127,115.4736914,Unknown,"6FXF+XF4, Bunga Mekar, Nusa Penida, Klungkung Regency, Bali 80771, Indonesia",95,4.7,Bali,Nusa penida,Tourist attraction,      
Klungkung Regency,-8.706513,115.4384217,Unknown,"7CVQ+99V, Jl. Sarang Burung, Lembongan, Kec. Nusa Penida, Kabupaten Klungkung, Bali 80771, Indonesia",194,4.6,Bali,Secret Point Beach,Tourist attraction,"Monday Open 24 hours, Tuesday Open 24 hours, Wednesday Open 24 hours, Thursday Open 24 hours, Friday Open 24 hours, Saturday Open 24 hours, Sunday Open 24 hours,"
Klungkung Regency,-8.7812546,115.5195018,Unknown,"6G99+FRR, Batukandik, Nusa Penida, Klungkung Regency, Bali 80771, Indonesia",1058,4.5,Bali,Guyangan Waterfall Nusa Penida,Tourist attraction,"Monday 6 AM to 7 PM, Tuesday 6 AM to 7 PM, Wednesday 6 AM to 7 PM, Thursday 6 AM to 7 PM, Friday 6 AM to 7 PM, Saturday 6 AM to 7 PM, Sunday 6 AM to 7 PM,"
Badung Regency,-8.8098285,115.1683232,Unknown,"55R9+388, Jl. GWK Bali, Ungasan, Kec. Kuta Sel., Kabupaten Badung, Bali 80361, Indonesia",63,4.4,Bali,Plaza Wisnu,Tourist attraction,      
Badung Regency,-8.752582,115.1637062,Unknown,"Jl. Taman Sari Jl. Pantai Kelan, Tuban, Kec. Kuta, Kabupaten Badung, Bali 80361, Indonesia",155,4.7,Bali,Bali Camel Adventure,Tourist attraction,"Monday 9 AM to 4 PM, Tuesday 9 AM to 4 PM, Wednesday 9 AM to 4 PM, Thursday 9 AM to 4 PM, Friday 9 AM to 4 PM, Saturday 9 AM to 4 PM, Sunday 9 AM to 4 PM,"
Badung Regency,-8.7375094,115.1604694,Unknown,"7576+33, Kuta, Badung Regency, Bali, Indonesia",19,4.2,Bali,"Baruna Statue, God of Sea",Tourist attraction,      
Gianyar Regency,-8.609527,115.2890415,+62 813-4729-4219,"97QQ+XMM, Jl. Sahadewa, Banjar Wangbung, Guwang, Kec. Sukawati, Kabupaten Gianyar, Bali 80582, Indonesia",2774,4.5,Bali,Hidden Canyon Beji Guwang,Tourist attraction,"Monday 8:30 AM to 4:30 PM, Tuesday 8:30 AM to 4:30 PM, Wednesday 8:30 AM to 4:30 PM, Thursday 8:30 AM to 4:30 PM, Friday 8:30 AM to 4:30 PM, Saturday 8:30 AM to 4:30 PM, Sunday 8:30 AM to 4:30 PM,"
Gianyar Regency,-8.5155934,115.3313441,Unknown,"Jl. Goa Jl. Rang Reng, Bakbakan, Gianyar, Gianyar Regency, Bali 80515, Indonesia",724,4.7,Bali,Goa Rang Reng Waterfall,Tourist attraction,      
Klungkung Regency,-8.783237,115.5945124,Unknown,"6H8V+PR2, Jalan Pura Tunjuk, Tanglad, Kec. Nusa Penida, Kabupaten Klungkung, Bali 80771, Indonesia",14,4.8,Bali,Pura Tunjuk Pusuh,Hindu temple Tourist attraction,      
Klungkung Regency,-8.7761184,115.6149112,Unknown,"6JF7+HX3, Unnamed Road, Pejukutan, Nusa Penida, Klungkung Regency, Bali 80771, Indonesia",1,5.0,Bali,Molenteng,Tourist attraction,      
Klungkung Regency,-8.782428,115.5981795,+62 853-8492-2511,"Unnamed Road, Tanglad, Kec. Nusa Penida, Kabupaten Klungkung, Bali 80771, Indonesia",56,5.0,Bali,Pos Inggan Hill,Tourist attraction,"Monday Open 24 hours, Tuesday Open 24 hours, Wednesday Open 24 hours, Thursday Open 24 hours, Friday Open 24 hours, Saturday Open 24 hours, Sunday Open 24 hours,"
Karangasem Regency,-8.436981,115.5335573,+62 813-3767-7241,"Jalan raya Kutabali, Sibetan, Kec. Bebandem, Kabupaten Karangasem, Bali 80861, Indonesia",71,4.7,Bali,Sibetan Rice Terrace,Tourist attraction,"Monday Open 24 hours, Tuesday Open 24 hours, Wednesday Open 24 hours, Thursday Open 24 hours, Friday Open 24 hours, Saturday Open 24 hours, Sunday Open 24 hours,"
Karangasem Regency,-8.3721589,115.6371092,+62 852-9816-1172,"Banjar Dinas Gulinten, Bunutan, Kec. Abang, Kabupaten Karangasem, Bali 80852, Indonesia",823,4.6,Bali,Lahangan Sweet,Tourist attraction,"Monday 6 AM to 8 PM, Tuesday 6 AM to 8 PM, Wednesday 6 AM to 8 PM, Thursday 6 AM to 8 PM, Friday 6 AM to 8 PM, Saturday 6 AM to 8 PM, Sunday 6 AM to 8 PM,"
Karangasem Regency,-8.4123473,115.5872919,+62 363 21697,"HHQQ+836, Jalan Raya Abang Desa Adat Jl. Raya Tirta Gangga, Ababi, Kec. Abang, Kabupaten Karangasem, Bali 80852, Indonesia",18274,4.6,Bali,Tirta Gangga,Tourist attraction,"Monday 6 AM to 7 PM, Tuesday 6 AM to 7 PM, Wednesday 6 AM to 7 PM, Thursday 6 AM to 7 PM, Friday 6 AM to 7 PM, Saturday 6 AM to 7 PM, Sunday 6 AM to 7 PM,"
Karangasem Regency,-8.3352244,115.6505008,+62 877-5839-0766,"Jl ketut natih, Purwakerti, Kec. Abang, Kabupaten Karangasem, Bali 80852, Indonesia",34,4.8,Bali,Amed Snorkeling & Sunset tour,Tourist attraction,"Monday Open 24 hours, Tuesday Open 24 hours, Wednesday Open 24 hours, Thursday Open 24 hours, Friday Open 24 hours, Saturday Open 24 hours, Sunday Open 24 hours,"
Tabanan Regency,-8.5470255,115.079887,+62 812-3926-720,"F33H+5XJ, Jl. Jurusan Kerambitan, Kerambitan, Kec. Kerambitan, Kabupaten Tabanan, Bali 82161, Indonesia",364,4.7,Bali,Puri Agung Kerambitan,Tourist attraction Historical place,"Monday 12 AM to 6 PM, Tuesday 9 AM to 6 PM, Wednesday 9 AM to 6 PM, Thursday 9 AM to 6 PM, Friday 9 AM to 6 PM, Saturday 9 AM to 6 PM, Sunday 9 AM to 6 PM, 9 PM to 12 AM,"
Tabanan Regency,-8.5715783,115.1436741,+62 819-9932-2355,"C4HV+9F7, Pandak Bandung, Kediri, Tabanan Regency, Bali 82121, Indonesia",3,3.0,Bali,Air terjun yeh ge,Tourist attraction,      
Denpasar City,-8.6137206,115.2140324,Unknown,"96P7+GJ7, Jl. Ahmad Yani Utara, Peguyangan, Kec. Denpasar Utara, Kota Denpasar, Bali 80239, Indonesia",1296,4.6,Bali,Ekowisata Subak Sembung Peguyangan,Ecological park Tourist attraction,"Monday 6 AM to 7 PM, Tuesday 6 AM to 7 PM, Wednesday 6 AM to 7 PM, Thursday 6 AM to 7 PM, Friday 6 AM to 7 PM, Saturday 6 AM to 7 PM, Sunday 6 AM to 7 PM,"
Badung Regency,-8.5615738,115.1712283,Unknown,"Jl. Raya Denpasar - Gilimanuk No.9a, Mengwitani, Kec. Mengwi, Kabupaten Badung, Bali 80351, Indonesia",1362,4.5,Bali,Rama Shinta Garden,Park Tourist attraction,"Monday Open 24 hours, Tuesday Open 24 hours, Wednesday Open 24 hours, Thursday Open 24 hours, Friday Open 24 hours, Saturday Open 24 hours, Sunday Open 24 hours,"
Tabanan Regency,-8.5369314,115.1258664,+62 361 7992082,"Jl. Gunung Agung No.5, Dajan Peken, Kec. Tabanan, Kabupaten Tabanan, Bali 82113, Indonesia",882,4.8,Bali,Tabanan Anom Palace,Cultural center Heritage museum Tourist attraction,"Monday 9 AM to 5 PM, Tuesday 9 AM to 5 PM, Wednesday 9 AM to 5 PM, Thursday 9 AM to 5 PM, Friday 9 AM to 5 PM, Saturday 9 AM to 5 PM, Sunday 9 AM to 5 PM,"
Tabanan Regency,-8.4795048,115.1348148,+62 878-6307-5006,"Br.Sandan Lebah, Jl. Batukaru No.76, Sedandan, Kec. Tabanan, Kabupaten Tabanan, Bali 82115, Indonesia",1452,4.4,Bali,Bali Butterfly Park,Animal park Tourist attraction,"Monday 8 AM to 5 PM, Tuesday 8 AM to 5 PM, Wednesday 8 AM to 5 PM, Thursday 8 AM to 5 PM, Friday 8 AM to 5 PM, Saturday 8 AM to 5 PM, Sunday 8 AM to 5 PM,"
Tabanan Regency,-8.5365342,115.1356076,Unknown,"F47P+96Q, Dajan Peken, Tabanan, Tabanan Regency, Bali 82121, Indonesia",78,4.3,Bali,Taman Bermain Dan Taman Olahraga,Park,"Monday Open 24 hours, Tuesday Open 24 hours, Wednesday Open 24 hours, Thursday Open 24 hours, Friday Open 24 hours, Saturday Open 24 hours, Sunday Open 24 hours,"
Tabanan Regency,-8.5374924,115.1264057,Unknown,"F47G+2H2, Delod Peken, Tabanan, Tabanan Regency, Bali 82121, Indonesia",116,4.6,Bali,Taman Bung Karno ᬢᬫᬦ᭄ ᬩᬸᬂ ᬓᬃᬡᭀ᭟,City park,      
Gianyar Regency,-8.5995781,115.2519216,+62 361 299352,"Jl. Serma Cok Ngurah Gambir Singapadu, Batubulan, Kec. Sukawati, Kabupaten Gianyar, Bali 80582, Indonesia",11845,4.6,Bali,Bali Bird Park,Bird watching area Park Tourist attraction Wildlife park,"Monday 9 AM to 5:30 PM, Tuesday 9 AM to 5:30 PM, Wednesday 9 AM to 5:30 PM, Thursday 9 AM to 5:30 PM, Friday 9 AM to 5:30 PM, Saturday 9 AM to 5:30 PM, Sunday 9 AM to 5:30 PM,"
Tabanan Regency,-8.5364138,115.1359349,Unknown,"F47P+C9M, Jl. MT Haryono, Dajan Peken, Kec. Tabanan, Kabupaten Tabanan, Bali 82121, Indonesia",9,4.2,Bali,Hutan Kota Dangin Carik,Garden,      
Badung Regency,-8.5416323,115.1726013,Unknown,"Jl. Ayodya No.10, Mengwi, Kec. Mengwi, Kabupaten Badung, Bali 80351, Indonesia",8233,4.6,Bali,Taman Ayun Temple,Hindu temple Tourist attraction,"Monday 8 AM to 6:15 PM, Tuesday 8 AM to 6:15 PM, Wednesday 8 AM to 6:15 PM, Thursday 8 AM to 6:15 PM, Friday 8 AM to 6:15 PM, Saturday 8 AM to 6:15 PM, Sunday 8 AM to 6:15 PM,"
Klungkung Regency,-8.8019211,115.5517607,Unknown,"Jl. Pura Segara Suwehan Hughug, Dusun Tabuanan, Sekartaji, Kec. Nusa Penida, Kabupaten Klungkung, Bali 80771, Indonesia",193,4.7,Bali,THE MANTA POINT,Tourist attraction,"Monday Open 24 hours, Tuesday Open 24 hours, Wednesday Open 24 hours, Thursday Open 24 hours, Friday Open 24 hours, Saturday Open 24 hours, Sunday Open 24 hours,"
Klungkung Regency,-8.6936122,115.473113,Unknown,"Sakti, Nusa Penida, Klungkung Regency, Bali 80771, Indonesia",22,4.3,Bali,tanjung kuning,Tourist attraction,"Monday Open 24 hours, Tuesday Open 24 hours, Wednesday Open 24 hours, Thursday Open 24 hours, Friday Open 24 hours, Saturday Open 24 hours, Sunday Open 24 hours,"
Bandung City,-6.869957,107.6147321,Unknown,"Jl. Dagopojok No.95, Dago, Kecamatan Coblong, Kota Bandung, Jawa Barat 40135, Indonesia",249,4.3,West Java,Kampung Wisata Augmentedreality Dago Pojok Tanggulan,Tourist attraction,      
Bandung City,-6.931545,107.588444,+62 821-4208-4258,"Jl. Peta No.229, Suka Asih, Kec. Bojongloa Kaler, Kota Bandung, Jawa Barat 40242, Indonesia",5071,4.4,West Java,Peta Park,City park Park Tourist attraction,"Monday Closed, Tuesday 7 AM to 7 PM, Wednesday 7 AM to 7 PM, Thursday 7 AM to 7 PM, Friday 7 AM to 7 PM, Saturday 7 AM to 7 PM, Sunday 7 AM to 7 PM,"
Bandung City,-6.8981292,107.6094856,Unknown,"Jl. Tamansari No.66, Lb. Siliwangi, Kecamatan Coblong, Kota Bandung, Jawa Barat 40132, Indonesia",2819,4.1,West Java,Taman Jomblo,City park Park Tourist attraction,"Monday Open 24 hours, Tuesday Open 24 hours, Wednesday Open 24 hours, Thursday Open 24 hours, Friday Open 24 hours, Saturday Open 24 hours, Sunday Open 24 hours,"
Bandung City,-6.9101223,107.6102605,Unknown,"Jl. Aceh No.53, Babakan Ciamis, Kec. Sumur Bandung, Kota Bandung, Jawa Barat 40117, Indonesia",4455,4.6,West Java,Taman Sejarah Bandung,City park Park Tourist attraction,"Monday Closed, Tuesday Open 24 hours, Wednesday Open 24 hours, Thursday Open 24 hours, Friday Open 24 hours, Saturday Open 24 hours, Sunday Open 24 hours,"
Bandung City,-6.9246489,107.6287936,+62 856-2090-890,"Jl. Gatot Subroto No.165, Samoja, Kec. Batununggal, Kota Bandung, Jawa Barat 40274, Indonesia",123,3.9,West Java,Pondok Patradisa,Vacation home rental agency,"Monday Open 24 hours, Tuesday Open 24 hours, Wednesday Open 24 hours, Thursday Open 24 hours, Friday Open 24 hours, Saturday Open 24 hours, Sunday Open 24 hours,"
Bandung City,-6.9015017,107.6639123,+62 838-1166-8993,"JL. Jamaras III rt.06/17 no. 12, Jatihandap, Kec. Mandalajati, Kota Bandung, Jawa Barat 40195, Indonesia",0,4.7,West Java,Kontrakan ibu tuti mas ganteng,Vacation home rental agency,"Monday Open 24 hours, Tuesday Open 24 hours, Wednesday Open 24 hours, Thursday Open 24 hours, Friday Open 24 hours, Saturday Open 24 hours, Sunday Open 24 hours,"
Bandung City,-6.92894,107.66687,+62 22 63740207,"kav, Jl. Mekar Indah Blk. F No.4, Antapani Tengah, Kec. Antapani, Kota Bandung, Jawa Barat 40291, Indonesia",0,4.7,West Java,kostan sawargi,Vacation home rental agency,      
Bandung City,-6.8947277,107.6303989,+62 811-2047-766,"Jl. Batik Jogja No.44, Sukaluyu, Kec. Cibeunying Kaler, Kota Bandung, Jawa Barat 40123, Indonesia",1,5.0,West Java,Aku Vacations,Travel agency,"Monday 9 AM to 5 PM, Tuesday 9 AM to 5 PM, Wednesday 9 AM to 5 PM, Thursday 9 AM to 5 PM, Friday 9 AM to 5 PM, Saturday Closed, Sunday Closed,"
Bandung City,-6.9247068,107.6676297,Unknown,"Jl. Puri Dagomas Raya Barat No.3 no 23, Antapani Tengah, Kec. Antapani, Kota Bandung, Jawa Barat 40291, Indonesia",3,5.0,West Java,Satria,Vacation home rental agency,      
Bandung City,-6.8974892,107.6332333,Unknown,"Jl.Surapati, No.323/008, RT.008, Indonesia",1,5.0,West Java,Kostan Mio,Vacation home rental agency,      
Bandung City,-6.9350798,107.5820086,+62 812-2340-7000,"3H7J+XR6, Gg. Situgunting Barat, Sukahaji, Kec. Babakan Ciparay, Kota Bandung, Jawa Barat, Indonesia",0,4.7,West Java,Kontrakan Pak SUHARA,Vacation home rental agency,      
Bandung City,-6.947638,107.5760371,Unknown,"3H2G+WCV, Jl. H. Anwar, Margahayu Utara, Kec. Babakan Ciparay, Kota Bandung, Jawa Barat 40224, Indonesia",0,4.7,West Java,Kontrakan Teh Opi,Vacation home rental agency,      
Bandung City,-6.9052556,107.6429921,+62 853-7309-0655,"Jl. Sekepanjang 1 Jl. Sukamulya No.76/142B, RT.04/RW.09, Cikutra, Kec. Cibeunying Kidul, Kota Bandung, Jawa Barat 40124, Indonesia",0,4.7,West Java,Boarding House Naga Malim,Vacation home rental agency,"Monday 9 AM to 7 PM, Tuesday 9 AM to 7 PM, Wednesday 9 AM to 7 PM, Thursday 9 AM to 7 PM, Friday 9 AM to 7 PM, Saturday 9 AM to 7 PM, Sunday 9 AM to 7 PM,"
Bandung City,-6.9453671,107.5791811,Unknown,"3H3H+VM3, Jl. Pasadena, RT.02/RW.03, Babakan Ciparay, Kec. Babakan Ciparay, Kota Bandung, Jawa Barat 40223, Indonesia",4,5.0,West Java,Kosan bapak oceng,Vacation home rental agency,"Monday 9 AM to 5 PM, Tuesday 9 AM to 5 PM, Wednesday 9 AM to 5 PM, Thursday 9 AM to 5 PM, Friday 9 AM to 5 PM, Saturday Open 24 hours, Sunday 9 AM to 5 PM,"
Bandung City,-6.9325469,107.5832681,Unknown,"3H8M+W8F, Sukahaji, Babakan Ciparay, Bandung City, West Java 40221, Indonesia",0,4.7,West Java,Kontrakan Bu ida,Vacation home rental agency,      
Bandung City,-6.9321025,107.5511732,+62 22 6041579,"V C Blok C, Jl. Marga Asri II A No.248, Gempolsari, Kec. Bandung Kulon, Kota Bandung, Jawa Barat 40215, Indonesia",1,5.0,West Java,Dikdik Palasara,Vacation home rental agency,      
Bandung City,-6.8843873,107.5953438,+62 816-616-170,"Jl. Karang Tinggal Dalam No.7, RT.6/RW.3, Cipedes, Kec. Sukajadi, Kota Bandung, Jawa Barat 40162, Indonesia",3,5.0,West Java,Sakura Kost Christine,Vacation home rental agency,      
Bandung City,-6.8931174,107.5899931,Unknown,"Jl. Bijaksana gg.masjid albarakah No.14PasteurKec, Kec. Sukajadi, Kota Bandung, Jawa Barat 40161, Indonesia",0,4.7,West Java,kosan bu.bambang,Vacation home rental agency,      
Bandung City,-6.9191676,107.617671,+62 813-9599-9020,"Lima Building, Jl. Sunda No.55 Unit L1-K, RW.61, Kb. Pisang, Kec. Sumur Bandung, Kota Bandung, Jawa Barat 40112, Indonesia",4,4.0,West Java,MY HALAL VACATION | PT. Esa Globalindo,Tour agency,"Monday 10 AM to 5 PM, Tuesday 10 AM to 5 PM, Wednesday 10 AM to 5 PM, Thursday 10 AM to 5 PM, Friday 10 AM to 5 PM, Saturday Closed, Sunday Closed,"
Bandung City,-6.8969434,107.5870178,Unknown,"Jl djunjunan dalam 1, Gg. Sukawarna Baru F II No.12, Pajajaran, Kec. Cicendo, Kota Bandung, Jawa Barat 40173, Indonesia",5,5.0,West Java,Kosan bu ratih,Vacation home rental agency,"Monday Open 24 hours, Tuesday Open 24 hours, Wednesday Open 24 hours, Thursday Open 24 hours, Friday Open 24 hours, Saturday Open 24 hours, Sunday Open 24 hours,"
Bandung City,-6.8904487,107.6154804,+62 22 82524545,"Jl. Imam Bonjol No.52, Lebakgede, Kecamatan Coblong, Kota Bandung, Jawa Barat 40132, Indonesia",4,4.8,West Java,Smart Vacation Tour&Travel,Travel agency,"Monday 9 AM to 5 PM, Tuesday 9 AM to 5 PM, Wednesday 9 AM to 5 PM, Thursday 9 AM to 5 PM, Friday 9 AM to 5 PM, Saturday 9 AM to 1 PM, Sunday Closed,"
Bandung City,-6.9191781,107.5915857,+62 812-2149-4494,"Jl. Jend. Sudirman No.344, Ciroyom, Kec. Andir, Kota Bandung, Jawa Barat 40241, Indonesia",1,5.0,West Java,Ultima Vacation,Travel agency,"Monday 9 AM to 5 PM, Tuesday 9 AM to 5 PM, Wednesday 9 AM to 5 PM, Thursday 9 AM to 5 PM, Friday 9 AM to 5 PM, Saturday 9 AM to 5 PM, Sunday Closed,"
Bandung City,-6.8945291,107.630882,+62 811-2047-766,"Jl. Rereng Adumanis No.45, Sukaluyu, Kec. Cibeunying Kaler, Kota Bandung, Jawa Barat 40123, Indonesia",7,4.9,West Java,AKU VACATIONS,Tour agency,"Monday 9 AM to 5 PM, Tuesday 9 AM to 5 PM, Wednesday 9 AM to 5 PM, Thursday 9 AM to 5 PM, Friday 9 AM to 5 PM, Saturday 9 AM to 1 PM, Sunday 9 AM to 5 PM,"
Bandung City,-6.8914459,107.5749961,+62 813-1220-1120,"Jalan Komplek Unpar II Kav.15,, Sukaraja, Bandung, Kota Bandung, Jawa Barat 40175, Indonesia",11,5.0,West Java,Indy Vacation Bandung,Travel agency Bus tour agency Tour agency Tour operator,"Monday 8:30 AM to 5 PM, Tuesday 8:30 AM to 5 PM, Wednesday 8:30 AM to 5 PM, Thursday 8:30 AM to 5 PM, Friday 8:30 AM to 5 PM, Saturday Closed, Sunday Closed,"
Bandung City,-6.9505079,107.6787613,Unknown,"Jl. Terusan Saluyu No.1, Cipamokolan, Kec. Rancasari, Kota Bandung, Jawa Barat 40292, Indonesia",0,4.7,West Java,Kontrakan bibi,Vacation home rental agency,      
Bandung City,-6.8688126,107.5908893,+62 813-2281-2395,"Jalan Gg. 3 No.62, RT.04/RW.04, Gegerkalong, Kec. Sukasari, Kota Bandung, Jawa Barat 40153, Indonesia",0,4.7,West Java,Kost 62 Bandung,Vacation home rental agency,      
Bandung City,-6.9599706,107.6433093,Unknown,"Gg Bp Modih, Rt 02, Rw 04. Kp Ciparay, Kujangsari, Kec. Bandung Kidul, Kota Bandung, Jawa Barat, Indonesia",1,5.0,West Java,Kontrakan Bpk Asep,Vacation home rental agency,      
Bandung City,-6.9478629,107.6763892,+62 821-2196-8847,"Komp. Rancaloa Regency, Jl. Cipamokolan, Cipamokolan, Kec. Rancasari, Kota Bandung, Jawa Barat 40292, Indonesia",6,4.8,West Java,Rancaloa Regency,Condominium complex,      
Bandung City,-6.9390324,107.6584983,+62 22 7317944,"Metro Business Park Blok B7 @Metro Suite, Jl. Soekarno Hatta No.693, Jatisari, Kec. Buahbatu, Kota Bandung, Jawa Barat 40286, Indonesia",22,4.0,West Java,Megatama Tours (PT. Wisata Mega Utama),Tour agency Travel agency,"Monday 8 AM to 5 PM, Tuesday 8 AM to 5 PM, Wednesday 8 AM to 5 PM, Thursday 8 AM to 5 PM, Friday 8 AM to 5 PM, Saturday 8 AM to 1 PM, Sunday Closed,"
Bandung City,-6.9439502,107.6671989,+62 21 29707601,"Tata Sehat, Jl. Tata Surya No.15, Margahayu Raya, Kec. Rancasari, Kota Bandung, Jawa Barat 40286, Indonesia",0,4.7,West Java,OYO 90203 Dzawani Guest House,Hotel,      
Bandung City,-6.951873,107.6403075,Unknown,"Gg. Lumbung I No.23, RT.03/RW.02, Cijaura, Kec. Buahbatu, Kota Bandung, Jawa Barat 40287, Indonesia",0,4.7,West Java,Kost Sri Rezeki,Vacation home rental agency,      
Bandung City,-6.9294456,107.651009,+62 878-2250-0700,"Babakan sentral RT. 05, RT.05/RW.05, Sukapura, Kec. Kiaracondong, Kota Bandung, Jawa Barat 40285, Indonesia",1,5.0,West Java,Kontrakan Pa Wawan,Vacation home rental agency,"Monday Open 24 hours, Tuesday Open 24 hours, Wednesday Open 24 hours, Thursday Open 24 hours, Friday Open 24 hours, Saturday Open 24 hours, Sunday Open 24 hours,"
Bandung City,-6.9294191,107.6510627,+62 878-2250-0700,"Babakan sentral No.80, RT.05/RW.05, Sukapura, Kec. Kiaracondong, Kota Bandung, Jawa Barat 40285, Indonesia",1,5.0,West Java,Kontrakan Pak Wawan,Vacation home rental agency,"Monday Open 24 hours, Tuesday Open 24 hours, Wednesday Open 24 hours, Thursday Open 24 hours, Friday Open 24 hours, Saturday Open 24 hours, Sunday Open 24 hours,"
Bandung City,-6.9275915,107.6902919,Unknown,"3MCR+X47, Jl. Cinambo Indah, Pakemitan, Kec. Cinambo, Kota Bandung, Jawa Barat 45474, Indonesia",1,5.0,West Java,Syahreza house,Vacation home rental agency,      
Bandung City,-6.946103,107.658115,Unknown,"3M35+H65, Unnamed Road, Sekejati, Kec. Buahbatu, Kota Bandung, Jawa Barat 40286, Indonesia",1,5.0,West Java,Trini Kost,Vacation home rental agency,      
Bandung City,-6.9566331,107.6405651,+62 813-2128-0239,"Jl. Puskesmas ujung No.126, RT.06 RW01, Kujangsari, Kec. Bandung Kidul, Kota Bandung, Jawa Barat 40287, Indonesia",0,4.7,West Java,Konrakan H. Dendi,Vacation home rental agency,"Monday Open 24 hours, Tuesday Open 24 hours, Wednesday Open 24 hours, Thursday Open 24 hours, Friday Open 24 hours, Saturday Open 24 hours, Sunday Open 24 hours,"
Bandung Regency,-6.9665732,107.6559345,+62 821-1583-8000,"Komplek Pradha Ciganitri Ruko No, RW.1, Cipagalo, Kec. Bojongsoang, Kabupaten Bandung, Jawa Barat 40287, Indonesia",18,4.7,West Java,Liburan Online,Tour agency Bus tour agency Event ticket seller Sightseeing tour agency,"Monday 10 AM to 6 PM, Tuesday 10 AM to 6 PM, Wednesday 10 AM to 6 PM, Thursday 10 AM to 6 PM, Friday 10 AM to 6 PM, Saturday Closed, Sunday Closed,"
Bandung City,-6.9632251,107.6577319,+62 819-3571-9912,"Jl cijawura hillir no 322 rt 05/ 12, Kota Bandung, Jawa Barat 40287, Indonesia",0,4.7,West Java,Dila Kost putri,Vacation home rental agency,"Monday Open 24 hours, Tuesday Open 24 hours, Wednesday Open 24 hours, Thursday Open 24 hours, Friday Open 24 hours, Saturday Open 24 hours, Sunday Open 24 hours,"
Bandung City,-6.9592269,107.6423526,Unknown,"Rt02Rw04 Jl. Ciparay No.97, Kujangsari, Kec. Bandung Kidul, Kota Bandung, Jawa Barat 40287, Indonesia",0,4.7,West Java,"Ella & Hadi, Kontrakan Bp Cecep",Vacation home rental agency,      
Bandung City,-6.9396115,107.6231246,+62 22 7303541,"Jl. Pirus No.2B, Cijagra, Kec. Lengkong, Kota Bandung, Jawa Barat 40262, Indonesia",14,4.9,West Java,Navi Wisata,Travel agency,      
Bandung City,-6.9523141,107.6096902,+62 821-1799-4165,"2JX5+3RX, Karasak, Astanaanyar, Bandung City, West Java 40243, Indonesia",2,5.0,West Java,Kontrakan pa.rosid,Vacation home rental agency,"Monday 5 AM to 12 a.m., Tuesday 5 AM to 12 a.m., Wednesday 5 AM to 12 a.m., Thursday 5 AM to 12 a.m., Friday 5 AM to 12 a.m., Saturday 5 AM to 12 a.m., Sunday 5 AM to 12 a.m.,"
Bandung City,-6.9452438,107.6294893,+62 812-2222-4444,"Jl. Situ Batu 1 No.E-2, Cijagra, Kec. Lengkong, Kota Bandung, Jawa Barat 40265, Indonesia",14,4.8,West Java,Rumah Kost R2B,Hostel Vacation home rental agency,      
Bandung City,-6.9186805,107.6193087,+62 812-2049-711,"Jl. Baranang Siang No.26, Kb. Pisang, Kec. Sumur Bandung, Kota Bandung, Jawa Barat 40112, Indonesia",1,5.0,West Java,Kost Putri Baranang siang 26 kebon pisang.kec sumur bandung. bandung jawa barat,Vacation home rental agency,      
Bandung City,-6.9328322,107.6063574,Unknown,"Gg. Tegallega No.58, Ciateul, Kec. Regol, Kota Bandung, Jawa Barat 40252, Indonesia",1,5.0,West Java,Kiki bbtc 007,Vacation home rental agency,      
Bandung City,-6.9245931,107.613751,+62 858-6038-7448,"JL.PALEDANG BLK No.35, Paledang, Lengkong, Bandung City, West Java 40261, Indonesia",2,4.5,West Java,Paledang blk no 35,Vacation home rental agency,      
Bandung City,-6.8940785,107.662007,Unknown,"atas kampung sinom, Jl. Jatihandap, Jatihandap, Kec. Mandalajati, Kota Bandung, Jawa Barat, Indonesia",0,4.7,West Java,tempat nyari tobrut,Tourist attraction,      
Bandung City,-6.9107406,107.6970078,Unknown,"Cigending, Ujung Berung, Bandung City, West Java 40611, Indonesia",0,4.7,West Java,Join to the gangster,Tourist attraction,      
Bandung City,-6.9037076,107.653303,+62 813-9465-9596,"Gg. Sukaresmi No.69 C, Cicaheum, Kec. Kiaracondong, Kota Bandung, Jawa Barat 40282, Indonesia",0,4.7,West Java,Abira Vacations,Tour agency,"Monday Open 24 hours, Tuesday Open 24 hours, Wednesday Open 24 hours, Thursday Open 24 hours, Friday Open 24 hours, Saturday Open 24 hours, Sunday Closed,"
Bandung City,-6.9310373,107.5749718,Unknown,"3H9F+HXQ, Babakan, Babakan Ciparay, Bandung City, West Java 40222, Indonesia",58,4.5,West Java,Rizky Parkir Penitipan Motor 24 Jam,Vacation home rental agency,"Monday Open 24 hours, Tuesday Open 24 hours, Wednesday Open 24 hours, Thursday Open 24 hours, Friday Open 24 hours, Saturday Open 24 hours, Sunday Open 24 hours,"
Bandung City,-6.9058483,107.6599299,Unknown,"Jl. Setra Dago Utara blok karamat No.16, Antapani Wetan, Kec. Antapani, Kota Bandung, Jawa Barat 40282, Indonesia",4,5.0,West Java,HouseMiens,Vacation home rental agency,      
Bandung City,-6.9472894,107.6262465,Unknown,"Jl. Cijagra No.51, Cijagra, Kec. Lengkong, Kota Bandung, Jawa Barat 40265, Indonesia",1,3.0,West Java,Cipta Vacation Tour & Travel,Corporate office,"Monday 8:30 AM to 4:30 AM, Tuesday 8:30 AM to 4:30 AM, Wednesday 8:30 AM to 4:30 AM, Thursday 8:30 AM to 4:30 AM, Friday 8:30 AM to 4:30 AM, Saturday Closed, Sunday Closed,"
Bandung City,-6.9269545,107.5782066,+62 22 6042594,"Jl. Aki Padma No.47, RT.02/RW.05, Babakan, Kec. Babakan Ciparay, Kota Bandung, Jawa Barat 40222, Indonesia",0,4.7,West Java,Rumah Bpk Dayat - Ibu Nia,Vacation home rental agency,      
Bandung City,-6.9288442,107.5682605,Unknown,"Jl. Terusan Nako No.5, Cigondewah Kaler, Kec. Bandung Kulon, Kota Bandung, Jawa Barat 40212, Indonesia",0,4.7,West Java,kontrakan pa opik,Vacation home rental agency,      
Bandung City,-6.9305347,107.5508593,+62 821-2735-2277,"Jl. Dirgantara VIII No.4, Gempolsari, Kec. Bandung Kulon, Kota Bandung, Jawa Barat 40215, Indonesia",1,5.0,West Java,Kost tams,Vacation home rental agency,"Monday Open 24 hours, Tuesday Open 24 hours, Wednesday Open 24 hours, Thursday Open 24 hours, Friday Open 24 hours, Saturday Open 24 hours, Sunday Open 24 hours,"
Bandung City,-6.8877553,107.6005468,Unknown,"4J62+V6V, Jl. Jurang, Pasteur, Kec. Sukajadi, Kota Bandung, Jawa Barat 40161, Indonesia",0,4.7,West Java,Kpst32,Vacation home rental agency,      
Bandung City,-6.8623446,107.5883372,Unknown,"Jl. Gegerkalong Girang Gg. Cempaka No.27, Gegerkalong, Kec. Sukasari, Kota Bandung, Jawa Barat, Indonesia",2,5.0,West Java,Kosan 27,Vacation home rental agency,      
Bandung City,-6.9311799,107.6159601,+62 813-9599-1551,"Jl. Karapitan No.143, Burangrang, Kec. Lengkong, Kota Bandung, Jawa Barat 40262, Indonesia",5,5.0,West Java,ISTIQLAL WISATA BANDUNG,Tourist information center,      
Bandung City,-6.9373013,107.6046178,Unknown,"3J73+3RH, Jl. Otto Iskandar Dinata, Karanganyar, Kec. Astanaanyar, Kota Bandung, Jawa Barat 40241, Indonesia",3469,4.4,West Java,Tegallega Park,Park City park,      
Malang City,-7.9538531,112.6060548,+62 811-3030-748,"Jl. Sunan Muria II No.5, Dinoyo, Kec. Lowokwaru, Kota Malang, Jawa Timur 65144, Indonesia",3,5.0,East Java,Malang Travelista,Travel agency,"Monday 8 AM to 4 PM, Tuesday 8 AM to 4 PM, Wednesday 8 AM to 4 PM, Thursday 8 AM to 4 PM, Friday 8 AM to 4 PM, Saturday 8 AM to 4 PM, Sunday Closed,"
Malang City,-7.9490904,112.6032146,Unknown,"Jl. Joyo Suko No.52a, Merjosari, Kec. Lowokwaru, Kota Malang, Jawa Timur 65144, Indonesia",3,5.0,East Java,Kos Putra Pak Pri,Vacation home rental agency,      
Malang City,-7.930642,112.6167344,+62 822-4571-6267,"Indah S5-6, Jl. Akordion, Perum Bumi, Tunggulwulung, Kec. Lowokwaru, Kota Malang, Jawa Timur 65143, Indonesia",80,5.0,East Java,HMC TOUR & TRAVEL,Event ticket seller Travel agency,"Monday 7 AM to 10 PM, Tuesday 7 AM to 10 PM, Wednesday 7 AM to 10 PM, Thursday 7 AM to 10 PM, Friday 7 AM to 10 PM, Saturday 7 AM to 10 PM, Sunday 9 AM to 9 PM,"
Malang City,-7.9491577,112.6031259,Unknown,"3J23+87J, Merjosari, Lowokwaru, Malang City, East Java 65144, Indonesia",5,4.2,East Java,Kost pak ri Joyo Suko Metro,Vacation home rental agency,"Monday 8 AM to 6 PM, Tuesday 8 AM to 6 PM, Wednesday 8 AM to 6 PM, Thursday 8 AM to 6 PM, Friday 8 AM to 6 PM, Saturday 8 AM to 6 PM, Sunday 8 AM to 6 PM,"
Malang City,-7.9269744,112.6019207,+62 838-4559-1676,"Jl. Raya Tlogomas Gg. 9 No.48, Tlogomas, Kec. Lowokwaru, Kota Malang, Jawa Timur 65144, Indonesia",0,4.7,East Java,Kostku Malang,Vacation home rental agency,      
Malang City,-7.9434448,112.6013625,+62 852-5776-9696,"Jl. Joyo Utomo V No.10b, Merjosari, Kec. Lowokwaru, Kota Malang, Jawa Timur 65144, Indonesia",10,5.0,East Java,Kontrakan Griya Fajar Bagus,Vacation home rental agency,"Monday Open 24 hours, Tuesday Open 24 hours, Wednesday Open 24 hours, Thursday Open 24 hours, Friday Open 24 hours, Saturday Open 24 hours, Sunday Open 24 hours,"
Malang City,-7.9886441,112.6492766,+62 812-3394-3067,"Jl. H. Ali Nasrudin No.53, Kedungkandang, Kec. Kedungkandang, Kota Malang, Jawa Timur 65137, Indonesia",5,5.0,East Java,D-ROMA Rumah Kontrakan,Vacation home rental agency,"Monday Open 24 hours, Tuesday Open 24 hours, Wednesday Open 24 hours, Thursday Open 24 hours, Friday Open 24 hours, Saturday Open 24 hours, Sunday Open 24 hours,"
Malang City,-8.013468,112.633473,+62 857-3229-1170,"Jl. Jengkol No.46, Bumiayu, Kec. Kedungkandang, Kota Malang, Jawa Timur 65135, Indonesia",0,4.7,East Java,Nikam Rent a House,Vacation home rental agency Housing complex,      
Malang City,-7.9563796,112.652959,+62 822-3476-7999,"Jl. Titan Asri III No.CC-34, Purwantoro, Kec. Blimbing, Kota Malang, Jawa Timur 65126, Indonesia",1,5.0,East Java,Titan Asri CC-34,Vacation home rental agency,      
Malang Regency,-8.0374785,112.6668778,+62 877-3377-4736,"Jl. Raya Tlogowaru, Sukomulyo, Tlogowaru, Kec. Tajinan, Kabupaten Malang, Jawa Timur 65172, Indonesia",0,4.7,East Java,Kos bulanan malang,Vacation home rental agency,"Monday Open 24 hours, Tuesday Open 24 hours, Wednesday Open 24 hours, Thursday Open 24 hours, Friday Open 24 hours, Saturday Open 24 hours, Sunday Open 24 hours,"
Malang City,-7.9776484,112.6799148,+62 812-4950-4001,"2MCH+WXV, Jl. Raya Madyopuro, Cemorokandang, Kec. Kedungkandang, Kota Malang, Jawa Timur 65139, Indonesia",3,5.0,East Java,Kos H. Tirto,Vacation home rental agency,      
Malang City,-7.9912492,112.637491,Unknown,"Jl. Kebalen Wetan No.98, Kotalama, Kec. Kedungkandang, Kota Malang, Jawa Timur 65136, Indonesia",1,5.0,East Java,RUMAH ACH. SU'UD,Vacation home rental agency,      
Malang City,-8.0087487,112.6466348,+62 857-5533-3474,"XJRW+GM2 Perum Griya Cahaya Permai, Jl. KH. Malik Dalam, Buring, Kec. Kedungkandang, Kota Malang, Jawa Timur 65136, Indonesia",3,5.0,East Java,Cahaya Kost Buring,Vacation home rental agency,"Monday Open 24 hours, Tuesday Open 24 hours, Wednesday Open 24 hours, Thursday Open 24 hours, Friday Open 24 hours, Saturday Open 24 hours, Sunday Open 24 hours,"
Malang City,-7.9821365,112.6630701,+62 856-0630-4922,"rumah kontrakan ibu riyamah, Gg. V No.17 a, Madyopuro, Kec. Kedungkandang, Kota Malang, Jawa Timur 65139, Indonesia",0,4.7,East Java,RoufX,Vacation home rental agency,"Monday Open 24 hours, Tuesday Open 24 hours, Wednesday Open 24 hours, Thursday Open 24 hours, Friday Open 24 hours, Saturday Open 24 hours, Sunday Open 24 hours,"
Malang City,-7.9732184,112.6046363,+62 852-0490-8649,"Jl. Pisang Agung No.24, Pisang Candi, Kec. Sukun, Kota Malang, Jawa Timur 65146, Indonesia",1,5.0,East Java,Kost Anggrek,Vacation home rental agency,"Monday Open 24 hours, Tuesday Open 24 hours, Wednesday Open 24 hours, Thursday Open 24 hours, Friday Open 24 hours, Saturday Open 24 hours, Sunday Open 24 hours,"
Malang City,-7.942173,112.6038759,Unknown,"Jl. Mertojoyo Blk. P No.12, Merjosari, Kec. Lowokwaru, Kota Malang, Jawa Timur 65144, Indonesia",1,5.0,East Java,Kost Putra,Vacation home rental agency,"Monday 8 AM to 5 PM, Tuesday 8 AM to 5 PM, Wednesday 8 AM to 5 PM, Thursday 8 AM to 5 PM, Friday 8 AM to 5 PM, Saturday 8 AM to 5 PM, Sunday 8 AM to 5 PM,"
Malang City,-7.9985683,112.6039989,+62 895-6222-57365,"Jln bandulan gg1 f, Kota Malang, Jawa Timur 65147, Indonesia",0,4.7,East Java,Penginpan,Vacation home rental agency,"Monday Open 24 hours, Tuesday Open 24 hours, Wednesday Open 24 hours, Thursday Open 24 hours, Friday Open 24 hours, Saturday Open 24 hours, Sunday Open 24 hours,"
Malang City,-7.9386281,112.618665,+62 838-3461-0004,"Griya shanta No.L.311, Mojolangu, Kec. Lowokwaru, Kota Malang, Jawa Timur 65142, Indonesia",0,4.7,East Java,Piknik Slay,Vacation home rental agency,"Monday 7 AM to 7 PM, Tuesday 7 AM to 7 PM, Wednesday 7 AM to 7 PM, Thursday 7 AM to 7 PM, Friday 7 AM to 7 PM, Saturday 7 AM to 7 PM, Sunday 7 AM to 7 PM,"
Malang City,-7.9850312,112.6024477,Unknown,"2J72+9C5, Jl. Tebo Utara blok III - 77, Mulyorejo, Kec. Sukun, Kota Malang, Jawa Timur 65147, Indonesia",7,5.0,East Java,Tebo Utara Boarding House,Vacation home rental agency,      
Malang City,-7.963416,112.614716,+62 878-7736-0450,"Jl. Terusan Surabaya gang Pandawa No.82A, RT.02/RW.05, Sumbersari, Kec. Lowokwaru, Kota Malang, Jawa Timur 65145, Indonesia",0,4.7,East Java,Kos putri Ailah 82A,Vacation home rental agency,      
Malang City,-7.9268079,112.6412384,Unknown,"Unnamed Road, 65126, Polowijen, Kec. Blimbing, Kota Malang, Jawa Timur 65126, Indonesia",2,5.0,East Java,Rental PS INSTINCT,Vacation home rental agency,"Monday 8 AM to 9 PM, Tuesday 8 AM to 9 PM, Wednesday 8 AM to 9 PM, Thursday 8 AM to 9 PM, Friday Open 24 hours, Saturday Open 24 hours, Sunday 8 AM to 9 PM,"
Malang City,-7.9622269,112.6216659,+62 812-3209-7879,"Jl. Pekalongan Dalam No.34, Penanggungan, Kec. Klojen, Kota Malang, Jawa Timur 65113, Indonesia",0,4.7,East Java,Rumah kost Pak Kusen,Vacation home rental agency,      
Malang City,-7.9614121,112.6260069,Unknown,"Jl. Mayjend Panjaitan No.8a, Penanggungan, Kec. Klojen, Kota Malang, Jawa Timur 65113, Indonesia",1,5.0,East Java,Kos-kosanku,Vacation home rental agency,      
Malang City,-7.957457,112.6135397,+62 852-4433-4775,"Jl. Bendungan Sutami No.5, Sumbersari, Kec. Lowokwaru, Kota Malang, Jawa Timur 65145, Indonesia",5,3.4,East Java,Green Kost Malang,Vacation home rental agency Boarding house,      
Malang City,-7.9416865,112.6099991,Unknown,"3J55+8XH, Jl. MT. Haryono XIb, Dinoyo, Kec. Lowokwaru, Kota Malang, Jawa Timur 65144, Indonesia",0,4.7,East Java,kost nikvin,Vacation home rental agency,      
Malang City,-7.944083,112.6348152,+62 857-7686-2352,"Jl. Candi Agung IV, Mojolangu, Kec. Lowokwaru, Kota Malang, Jawa Timur 65152, Indonesia",4,5.0,East Java,Nyewain kasur malang ( Sewa Kasur Malang ),Vacation home rental agency,"Monday 8 AM to 8 PM, Tuesday 8 AM to 8 PM, Wednesday 8 AM to 8 PM, Thursday 8 AM to 8 PM, Friday 8 AM to 8 PM, Saturday 8 AM to 8 PM, Sunday 8 AM to 8 PM,"
Malang City,-7.9633117,112.6237988,Unknown,"Jl. Simpang Ijen No.3-19, Oro-oro Dowo, Kec. Klojen, Kota Malang, Jawa Timur 65113, Indonesia",0,4.7,East Java,Parkiran Vacation,Tourist attraction,      
Malang City,-8.0019886,112.6225839,+62 857-9134-6377,"Jl. Janti Bar. A No.1, Bandungrejosari, Kec. Sukun, Kota Malang, Jawa Timur 65148, Indonesia",0,4.7,East Java,Vacation,Travel agency,"Monday 9 AM to 9 PM, Tuesday 9 AM to 9 PM, Wednesday 9 AM to 9 PM, Thursday 9 AM to 9 PM, Friday 9 AM to 9 PM, Saturday 9 AM to 9 PM, Sunday 9 AM to 9 PM,"
Malang City,-7.9556324,112.6237099,Unknown,"Jl. Bougenville Bawah No.50, RT.001/RW.009, Jatimulyo, Kec. Lowokwaru, Kota Malang, Jawa Timur 65141, Indonesia",3,5.0,East Java,Bougenville Bawah No.50,Vacation home rental agency,"Monday 9 AM to 5 PM, Tuesday 9 AM to 5 PM, Wednesday 9 AM to 5 PM, Thursday 9 AM to 5 PM, Friday 9 AM to 5 PM, Saturday 9 AM to 5 PM, Sunday 9 AM to 5 PM,"
Malang City,-7.9270286,112.6399463,+62 821-3234-0885,"Jl. Cakalang No.287, Polowijen, Kec. Blimbing, Kota Malang, Jawa Timur 65126, Indonesia",0,4.7,East Java,Gettrip vacation tour and travel,Travel agency,"Monday Open 24 hours, Tuesday Open 24 hours, Wednesday Open 24 hours, Thursday Open 24 hours, Friday Open 24 hours, Saturday Open 24 hours, Sunday Open 24 hours,"
Malang City,-7.977187,112.6176692,+62 819-6066-042,"2JF9+43F, Bareng, Klojen, Malang City, East Java 65116, Indonesia",1,5.0,East Java,"Kontrakan Bareng Kulon VI,ZioShaka",Vacation home rental agency,      
Malang City,-7.9813684,112.630201,+62 341 325460,"Jl. Jenderal Basuki Rahmat No.01, Kiduldalem, Kec. Klojen, Kota Malang, Jawa Timur 65119, Indonesia",1160,4.2,East Java,Riche Heritage Hotel,Hotel,      
Pasuruan Regency,-7.9397703,112.6421027,+62 895-6306-14602,"Bumi parerejo indah, jl. Lapangan Jl. A. Yani Gg. III No.14, Parerejo, Kec. Purwodadi, Pasuruan, Jawa Timur 67163, Indonesia",0,4.7,East Java,Kos angrek bu yono purwodadi,Vacation home rental agency,"Monday 6 AM to 5 PM, Tuesday 6 AM to 9 PM, Wednesday 6 AM to 9 PM, Thursday 6 AM to 9 PM, Friday 6 AM to 9 PM, Saturday 6 AM to 9 PM, Sunday 6 AM to 9 PM,"
Malang City,-7.9835318,112.6301217,+62 341 4399000,"Jl. Merdeka Selatan No.5, Kauman, Kec. Klojen, Kota Malang, Jawa Timur 65119, Indonesia",311,4.6,East Java,"Bobopod Alun-Alun, Malang",Capsule hotel,      
Malang City,-7.9771632,112.6329115,+62 341 363891,"Jl. Tugu No.3, Kauman, Kec. Klojen, Kota Malang, Jawa Timur 65119, Indonesia",3590,4.7,East Java,Hotel Tugu Malang,Hotel Fine dining restaurant Spa,      
Malang City,-7.9819126,112.6619202,Unknown,"Jl. Ki Ageng Gribig No.24, RT.5, Madyopuro, Kec. Kedungkandang, Kota Malang, Jawa Timur 65138, Indonesia",0,4.7,East Java,Rumah selsadevina,Vacation home rental agency,      
Malang City,-7.9809331,112.6386684,+62 812-3393-0143,"Jl.Untung Suropati Selatan No.6, Kesatrian, Kec. Blimbing, Kota Malang, Jawa Timur 65121, Indonesia",360,4.7,East Java,ERC_Trans Sewa Mobil Di Malang,Car rental agency Travel agency,"Monday Open 24 hours, Tuesday Open 24 hours, Wednesday Open 24 hours, Thursday Open 24 hours, Friday Open 24 hours, Saturday Open 24 hours, Sunday Open 24 hours,"
Malang City,-7.9796336,112.6308258,+62 812-3306-6434,"Pertokoan kayu tangan, Jl. Majapahit No.6 H7, Kiduldalem, Kec. Klojen, Kota Malang, Jawa Timur 65119, Indonesia",129,4.9,East Java,Bromo Holiday,Tour operator Tourist information center Transportation escort service Travel agency,"Monday 9 AM to 9 PM, Tuesday 9 AM to 9 PM, Wednesday 9 AM to 9 PM, Thursday 9 AM to 9 PM, Friday 9 AM to 9 PM, Saturday 9 AM to 9 PM, Sunday 9 AM to 9 PM,"
Malang City,-7.972602,112.63641,+62 818-0509-3192,"Jl. Cokroaminoto No.43, Klojen, Kec. Klojen, Kota Malang, Jawa Timur 65111, Indonesia",25,4.7,East Java,Gunz Tour & Travel Malang Juanda PP,Travel agency,"Monday Open 24 hours, Tuesday Open 24 hours, Wednesday Open 24 hours, Thursday Open 24 hours, Friday Open 24 hours, Saturday Open 24 hours, Sunday Open 24 hours,"
Malang City,-8.0040578,112.6374513,Unknown,"Jl. Semanggi No.31, Bumiayu, Kec. Kedungkandang, Kota Malang, Jawa Timur 65135, Indonesia",2,5.0,East Java,Kontrakan Pak Tirto,Vacation home rental agency,"Monday 8 AM to 9 PM, Tuesday 8 AM to 9 PM, Wednesday 8 AM to 9 PM, Thursday 8 AM to 9 PM, Friday 8 AM to 9 PM, Saturday 8 AM to 9 PM, Sunday 8 AM to 9 PM,"
Malang City,-7.9746135,112.6663472,+62 821-3289-5527,"Jl. Danau Sentani Utara I No.H3 A19, RT.01/RW.12, Madyopuro, Kec. Kedungkandang, Kota Malang, Jawa Timur 65139, Indonesia",7,5.0,East Java,JAVA BRAVE TOUR & DOLANO TRAVEL MALANG,Travel agency,"Monday 9:30 AM to 1 PM, Tuesday 9 AM to 4 PM, Wednesday 9 AM to 4 PM, Thursday 9 AM to 4 PM, Friday 9 AM to 4 PM, Saturday 9 AM to 4 PM, Sunday Closed,"
Malang City,-7.9152051,112.6252541,+62 838-6216-3000,"3JMG+W46, Jl. Atletik, Tasikmadu, Kec. Lowokwaru, Kota Malang, Jawa Timur, Indonesia",2,5.0,East Java,Makarim rent house,Vacation home rental agency,      
Malang City,-7.9790711,112.6627807,+62 822-3004-4567,"Sawojajar, Jl. Danau Singkarak VI No.E3F2, Madyopuro, Kec. Kedungkandang, Kota Malang, Jawa Timur 63159, Indonesia",47,4.9,East Java,Sewa Kasur Malang,Equipment rental agency Hotel Vacation home rental agency,      
Malang City,-7.9761937,112.6524752,+62 896-8541-5827,"Jl. Margo Utomo No.4, Sawojajar, Kec. Kedungkandang, Kota Malang, Jawa Timur 65139, Indonesia",0,4.7,East Java,Kos Putra Wisma Ulin,Real estate rental agency,"Monday Open 24 hours, Tuesday Open 24 hours, Wednesday Open 24 hours, Thursday Open 24 hours, Friday Open 24 hours, Saturday Open 24 hours, Sunday Open 24 hours,"
Malang City,-7.9423366,112.654452,+62 813-3380-5435,"Perumahan, Plaosan Permai Blk. C No.22, Pandanwangi, Kec. Blimbing, Kota Malang, Jawa Timur, Indonesia",1,4.0,East Java,Rumah kos abang,Vacation home rental agency,"Monday Open 24 hours, Tuesday Open 24 hours, Wednesday Open 24 hours, Thursday Open 24 hours, Friday Open 24 hours, Saturday Open 24 hours, Sunday Open 24 hours,"
Malang City,-7.9811603,112.657552,+62 822-3015-1113,"2M95+G2M, Jl. Selat Karimata, Lesanpuro, Kec. Kedungkandang, Kota Malang, Jawa Timur 65138, Indonesia",44,4.5,East Java,Kandang87 - Omahkandang Adventure GARAGE,Tour agency,"Monday 9 AM to 8 PM, Tuesday 9 AM to 8 PM, Wednesday 9 AM to 8 PM, Thursday 9 AM to 8 PM, Friday 1 to 8 PM, Saturday 8 AM to 9 PM, Sunday 9 AM to 8 PM,"
Malang City,-7.9358583,112.6512298,+62 341 484777,"Jl. Green Boulevard No.2, Purwodadi, Kec. Blimbing, Kota Malang, Jawa Timur 65125, Indonesia",3953,4.4,East Java,Hotel Grand Cakra,Hotel,      
Malang Regency,-7.9753737,112.661564,+62 823-3541-5506,"Jl. Danau Kerinci Raya No.13/14, Sawojajar, Kec. Kedungkandang, Kabupaten Malang, Jawa Timur 65139, Indonesia",27,4.9,East Java,NOORIS IIN GUEST HOUSE & CAFFE,Hotel,      
Malang City,-7.9347108,112.6556441,+62 822-3357-3358,"Jl. Simpang Panji Suroso No.Kav 192, Purwodadi, Kec. Blimbing, Kota Malang, Jawa Timur 65126, Indonesia",18,4.9,East Java,MLAKU Tours and Travel,Corporate office Tourist information center Transportation service Travel agency,"Monday Open 24 hours, Tuesday Open 24 hours, Wednesday Open 24 hours, Thursday Open 24 hours, Friday Open 24 hours, Saturday Open 24 hours, Sunday Open 24 hours,"
Semarang City,-6.9864102,110.4207509,Unknown,"Jl. Pekunden Dalam No.19 A, Pekunden, Kec. Semarang Tengah, Kota Semarang, Jawa Tengah 50241, Indonesia",4,5.0,Central Java,The Wujil Maison Gajah Mada Semarang,Vacation home rental agency,      
Semarang City,-7.0149946,110.4370767,Unknown,"Jl.tandang selatan rt12 / RW 10, Kota Semarang, Jawa Tengah 50123, Indonesia",0,4.7,Central Java,Kontrakan pak parto,Vacation home rental agency,      
Semarang City,-6.9675,110.4282,Unknown,"Jalan Taman Srigunting No.5, RW.6, Tj. Mas, Kec. Semarang Utara, Kota Semarang, Jawa Tengah 50174, Indonesia",1682,4.6,Central Java,Semarang Contemporary Art Gallery,Art gallery Museum Tourist attraction,"Monday Closed, Tuesday 10 AM to 8:30 PM, Wednesday 10 AM to 8:30 PM, Thursday 10 AM to 8:30 PM, Friday 10 AM to 8:30 PM, Saturday 10 AM to 8:30 PM, Sunday 10 AM to 8:30 PM,"
Semarang City,-7.0047949,110.4213132,Unknown,"Jl. Wilis No.3, Tegalsari, Kec. Candisari, Kota Semarang, Jawa Tengah 50614, Indonesia",938,4.5,Central Java,"Taman Wilis, Semarang",City park Tourist attraction,"Monday Open 24 hours, Tuesday Open 24 hours, Wednesday Open 24 hours, Thursday Open 24 hours, Friday Open 24 hours, Saturday Open 24 hours, Sunday Open 24 hours,"
Semarang City,-6.957397,110.4371318,Unknown,"Jl. Purnasari VII, Kemijen, Kec. Semarang Tim., Kota Semarang, Jawa Tengah 50228, Indonesia",0,4.7,Central Java,Kontrakan Ibu Siti Rohmah,Vacation home rental agency,      
Semarang City,-6.9716252,110.4483311,Unknown,"Jl. Dempel Bar. No.29, RT.03/RW.08, Sawah Besar, Kec. Gayamsari, Kota Semarang, Jawa Tengah 50163, Indonesia",0,4.7,Central Java,Kontrakan Jasmine elina,Vacation home rental agency,      
Semarang City,-7.0036905,110.4619681,Unknown,"Jl. Panda Bar. III No.5, Palebon, Kec. Pedurungan, Kota Semarang, Jawa Tengah, Indonesia",3,5.0,Central Java,Kost bunda wiek,Vacation home rental agency,"Monday Open 24 hours, Tuesday Open 24 hours, Wednesday Open 24 hours, Thursday Open 24 hours, Friday Open 24 hours, Saturday Open 24 hours, Sunday Open 24 hours,"
Semarang City,-7.0151882,110.390917,Unknown,"Jl. Menoreh IV No.34, Sampangan, Kec. Gajahmungkur, Kota Semarang, Jawa Tengah 50232, Indonesia",1,5.0,Central Java,Dhee Kost,Vacation home rental agency,      
Semarang City,-6.987642,110.430424,Unknown,"Jl. Trengguli III No.24, Karangkidul, Kec. Semarang Tengah, Kota Semarang, Jawa Tengah 50136, Indonesia",4,5.0,Central Java,Rumah kost keluarga,Vacation home rental agency,      
Semarang City,-6.9705536,110.4132277,Unknown,"Jl. Patriot II No.H 41c, Purwosari, Kec. Semarang Utara, Kota Semarang, Jawa Tengah 50172, Indonesia",2,4.5,Central Java,Green Home Kost,Vacation home rental agency,"Monday Open 24 hours, Tuesday Open 24 hours, Wednesday Open 24 hours, Thursday Open 24 hours, Friday Open 24 hours, Saturday Open 24 hours, Sunday Open 24 hours,"
Semarang City,-6.9979199,110.4575241,Unknown,"Jl. Kalicari 2 No.15, RT.3/RW.4, Kalicari, Kec. Pedurungan, Kota Semarang, Jawa Tengah 50198, Indonesia",0,4.7,Central Java,Rumah Kost Bu Ita,Vacation home rental agency,      
Semarang City,-6.966774,110.4609894,Unknown,"Jl. Sendang Indah Raya, RT.7/RW.2, Muktiharjo Lor, Kec. Genuk, Kota Semarang, Jawa Tengah 50111, Indonesia",6,5.0,Central Java,"GRIYA PANDAWA ""Kost Putri Executive""",Vacation home rental agency,"Monday Open 24 hours, Tuesday Open 24 hours, Wednesday Open 24 hours, Thursday Open 24 hours, Friday Open 24 hours, Saturday Open 24 hours, Sunday Open 24 hours,"
Semarang City,-7.0171254,110.3915966,Unknown,"Jl. Gunung Talang No.29, Bendan Duwur, Kec. Gajahmungkur, Kota Semarang, Jawa Tengah 50235, Indonesia",31,4.9,Central Java,Kost Sunflower Sampangan Semarang,Lodge Vacation home rental agency,      
Semarang City,-6.9946955,110.3790834,Unknown,"Jl. Muradi No.62, Kalibanteng Kulon, Kec. Semarang Barat, Kota Semarang, Jawa Tengah 50183, Indonesia",0,4.7,Central Java,Indo vacation,Corporate office,      
Semarang City,-6.9683012,110.4284367,Unknown,"2CJH+M9F, Tanjung Mas, Semarang Utara, Semarang City, Central Java 50174, Indonesia",6452,4.7,Central Java,Old Town Semarang,Tourist attraction Heritage preservation Historical landmark,"Monday Open 24 hours, Tuesday Open 24 hours, Wednesday Open 24 hours, Thursday Open 24 hours, Friday Open 24 hours, Saturday Open 24 hours, Sunday Open 24 hours,"
Semarang City,-6.9832732,110.3974422,Unknown,"Jl. Puspanjolo Barat Raya No.18C Lt.2, Cabean, Kec. Semarang Barat, Kota Semarang, Jawa Tengah 50141, Indonesia",2,5.0,Central Java,VICTORIA VACATION,Travel agency,"Monday 8 AM to 5 PM, Tuesday 8 AM to 5 PM, Wednesday 8 AM to 5 PM, Thursday 8 AM to 5 PM, Friday 8 AM to 5 PM, Saturday 8 AM to 1 PM, Sunday Closed,"
Semarang City,-7.0340226,110.4201889,Unknown,"Jl. Jatingaleh I No.215, Ngesrep, Kec. Banyumanik, Kota Semarang, Jawa Tengah 50261, Indonesia",0,4.7,Central Java,Rumah Kost Jatingaleh 216,Vacation home rental agency,"Monday Open 24 hours, Tuesday Open 24 hours, Wednesday Open 24 hours, Thursday Open 24 hours, Friday Open 24 hours, Saturday Open 24 hours, Sunday Open 24 hours,"
Semarang City,-6.9718921,110.4272678,Unknown,"Jl. K.H. Agus Salim, Purwodinatan, Kec. Semarang Tengah Metro Center Lantai 2 Ruang 213, Purwodinatan, Kec. Semarang Tengah, Kota Semarang, Jawa Tengah 50137, Indonesia",25,4.6,Central Java,ATS Vacations Semarang,Tour agency,"Monday 9 AM to 5 PM, Tuesday 9 AM to 5 PM, Wednesday 9 AM to 5 PM, Thursday 9 AM to 5 PM, Friday 9 AM to 5 PM, Saturday Closed, Sunday Closed,"
Semarang City,-7.0340361,110.4233526,Unknown,"Jl. Jatiluhur Timur V No.286, RT.2/RW.5, Ngesrep, Kec. Banyumanik, Kota Semarang, Jawa Tengah 50261, Indonesia",5,5.0,Central Java,Kontrakan Joehans,Vacation home rental agency,      
Semarang City,-7.0021242,110.4558518,Unknown,"Jl. Singa Tengah II No.4, Kalicari, Kec. Pedurungan, Kota Semarang, Jawa Tengah 50198, Indonesia",49,4.2,Central Java,Singa Residence,Hotel Extended stay hotel Hostel Motel,      
Semarang City,-6.9781626,110.4564823,Unknown,"Jl. Dempel Kidul Raya - Ruko Kav No: 1A, Tlogosari Kulon, Kec. Pedurungan, Kota Semarang, Jawa Tengah 50196, Indonesia",2,5.0,Central Java,CP HOME kost exclusive,Hostel Motel Vacation home rental agency,      
Semarang City,-6.9829275,110.4562185,Unknown,"Jl. Satrio Wibowo I depan SMK Farmasi No.28, Tlogosari Kulon, Kec. Pedurungan, Kota Semarang, Jawa Tengah 50196, Indonesia",8,5.0,Central Java,Kost Tlogosari Putri Semarang,Vacation home rental agency,"Monday Open 24 hours, Tuesday Open 24 hours, Wednesday Open 24 hours, Thursday Open 24 hours, Friday Open 24 hours, Saturday Open 24 hours, Sunday Open 24 hours,"
Semarang City,-6.9915126,110.4506328,Unknown,"Jl. Gajah Tim. Dalam V No.21, Gayamsari, Kec. Gayamsari, Kota Semarang, Jawa Tengah 50248, Indonesia",15,4.4,Central Java,Kost Bu Hj. Khosiyah,Boarding house Vacation home rental agency,      
Semarang City,-7.0065868,110.4575383,Unknown,"Jl. Majapahit No.282, Kalicari, Kec. Pedurungan, Kota Semarang, Jawa Tengah 50246, Indonesia",1502,4.2,Central Java,Hotel Dalu Majapahit Semarang,Hotel,      
Semarang City,-6.9931579,110.4002576,Unknown,"Jl. Gedung Batu Utara I No.12A, Ngemplak Simongan, Kec. Semarang Barat, Kota Semarang, Jawa Tengah 50148, Indonesia",8,4.6,Central Java,CV. BAHANA Tour,Tour agency,"Monday 9 AM to 5 PM, Tuesday 9 AM to 5 PM, Wednesday 9 AM to 5 PM, Thursday 9 AM to 5 PM, Friday 9 AM to 5 PM, Saturday 9 AM to 5 PM, Sunday 9 AM to 5 PM,"
Semarang City,-6.9919638,110.3982882,Unknown,"Jl. Pamularsih Raya No.3, Bongsari, Kec. Semarang Barat, Kota Semarang, Jawa Tengah 50148, Indonesia",188,4.5,Central Java,Kiyana Hotel Semarang,Hotel,      
Semarang City,-6.9792614,110.4309061,Unknown,"2CCJ+79R, Jagalan, Semarang Tengah, Semarang City, Central Java 50136, Indonesia",175,4.7,Central Java,Grajen Temple,Buddhist temple,      
Semarang City,-6.9782351,110.4118638,Unknown,"Jl. Imam Bonjol No.205, Pindrikan Lor, Kec. Semarang Tengah, Kota Semarang, Jawa Tengah 50131, Indonesia",0,4.7,Central Java,Booking Office Azaya Bandungan Hotel,Hotel,      
Semarang City,-6.9854797,110.4098457,Unknown,"Jl. Pandanaran No.9, Randusari, Kec. Semarang Sel., Kota Semarang, Jawa Tengah 50244, Indonesia",3760,4.8,Central Java,Gereja Katedral Santa Perawan Maria Ratu Rosario Suci,Catholic cathedral Cathedral Catholic church Tourist attraction,"Monday 8 AM to 6 PM, Tuesday 8 AM to 6 PM, Wednesday 8 AM to 6 PM, Thursday 8 AM to 6 PM, Friday 8 AM to 6 PM, Saturday 8 AM to 6 PM, Sunday 8 AM to 6 PM,"
Semarang City,-6.969086,110.4517142,Unknown,"Jl. Dempel Lor Raya, RT.04/RW.23, Muktiharjo Kidul, Kec. Pedurungan, Kota Semarang, Jawa Tengah 50197, Indonesia",2,4.5,Central Java,Panda kost,Boarding house Vacation home rental agency,      
Semarang City,-7.001297,110.4293536,Unknown,"XCXH+FPQ, Jl. Wonodri Baru IV, Wonodri, Kec. Semarang Sel., Kota Semarang, Jawa Tengah 50242, Indonesia",8,4.5,Central Java,Kos Putri Wonodri Baru,Vacation home rental agency,"Monday 6 to 10 AM, Tuesday 6 to 10 AM, Wednesday 6 to 10 AM, Thursday 6 to 10 AM, Friday 6 to 10 AM, Saturday 6 to 10 AM, Sunday 6 to 10 AM,"
Semarang City,-6.9996759,110.4278147,Unknown,"Jl. Singosari Raya No.29, Pleburan, Kec. Semarang Sel., Kota Semarang, Jawa Tengah 50241, Indonesia",70,4.9,Central Java,Bersukaria Tour,Travel agency,"Monday 8 AM to 12 a.m., Tuesday 8 AM to 12 a.m., Wednesday 8 AM to 12 a.m., Thursday 8 AM to 12 a.m., Friday 8 AM to 12 a.m., Saturday 8 AM to 12 a.m., Sunday 8 AM to 12 a.m.,"
Semarang City,-6.965633,110.430964,Unknown,"Jl. Ronggowarsito No.11, Rejomulyo, Kec. Semarang Tim., Kota Semarang, Jawa Tengah 50127, Indonesia",1331,4.8,Central Java,"Saint Joseph Catholic Church, Gedangan",Catholic church Tourist attraction,"Monday Closed, Tuesday Closed, Wednesday Closed, Thursday Closed, Friday Closed, Saturday Closed, Sunday 7 AM to 12 PM,"
Semarang City,-7.0004267,110.427545,Unknown,"Jl. Singosari Raya No.4, Wonodri, Kec. Semarang Sel., Kota Semarang, Jawa Tengah 50242, Indonesia",2056,4.5,Central Java,Radja Art & Boutique Hotel Simpang Lima Semarang,Hotel,      
Semarang City,-6.9839737,110.4221997,Unknown,"Jl. Gajahmada No.146, Brumbungan, Kec. Semarang Tengah, Kota Semarang, Jawa Tengah 50134, Indonesia",781,4.4,Central Java,Dimdimsum Kitchen,Asian restaurant Restaurant,"Monday 7 AM to 10 PM, Tuesday 7 AM to 10 PM, Wednesday 7 AM to 10 PM, Thursday 7 AM to 10 PM, Friday 7 AM to 12 AM, Saturday 7 AM to 12 AM, Sunday 7 AM to 12 AM,"
Semarang City,-6.9763865,110.4274882,Unknown,"Gg. Besen No.57, Kranggan, Kec. Semarang Tengah, Kota Semarang, Jawa Tengah 50139, Indonesia",14,4.4,Central Java,Tx Travel Gang Besen,Tourist information center,"Monday 8:30 AM to 5 PM, Tuesday 8:30 AM to 5 PM, Wednesday 8:30 AM to 5 PM, Thursday 8:30 AM to 5 PM, Friday 8:30 AM to 5 PM, Saturday 8:30 AM to 2 PM, Sunday Closed,"
Semarang City,-6.9730504,110.4474625,Unknown,"Jl. Dempel Bar. No.1, RW.8, rt4 rw, Kec. Gayamsari, Kota Semarang, Jawa Tengah 50163, Indonesia",0,4.7,Central Java,bu yuni bandeng presto,Vacation home rental agency,      
Semarang City,-6.9749931,110.4277386,Unknown,"Gg. Besen No.8, Kranggan, Kec. Semarang Tengah, Kota Semarang, Jawa Tengah 50137, Indonesia",230,4.5,Central Java,Nusantara Tour & Travel - Branch Office,Tour agency,"Monday 8 AM to 7 PM, Tuesday 8 AM to 7 PM, Wednesday 8 AM to 7 PM, Thursday 8 AM to 7 PM, Friday 8 AM to 7 PM, Saturday 8 AM to 2:30 PM, Sunday 9 AM to 2 PM,"
Semarang City,-6.9876751,110.423695,Unknown,"Jl. Anggrek I No.18, Pekunden, Kec. Semarang Tengah, Kota Semarang, Jawa Tengah 50134, Indonesia",91,4.6,Central Java,Gold Hotel Simpang Lima,Hotel,      
Semarang City,-6.9953095,110.4325986,Unknown,"Bangkong Plaza, Jl. MT. Haryono No.864-866, Peterongan, Kec. Semarang Sel., Kota Semarang, Jawa Tengah 50242, Indonesia",95,4.4,Central Java,Qub Rooms by Tamara Wibowo Architects,Hotel,      
Semarang City,-6.9811934,110.3961862,Unknown,"Jl. Jenderal Sudirman No.161 A, Krobokan, Kec. Semarang Barat, Kota Semarang, Jawa Tengah 50141, Indonesia",353,4.5,Central Java,Hotel Youstay Semarang,Hotel,      
Semarang City,-6.9724596,110.3953586,Unknown,"Jonggring saloka indah 1 no. 24, RT.07 Rw13, Krobokan, Kota Semarang, Jawa Tengah 50141, Indonesia",13,4.3,Central Java,Kost & Kontrakan (GRIYA SADIYAH),Vacation home rental agency Halfway house,"Monday 7 AM to 10 PM, Tuesday 7 AM to 10 PM, Wednesday 7 AM to 10 PM, Thursday 7 AM to 10 PM, Friday 7 AM to 10 PM, Saturday 7 AM to 10 PM, Sunday 7 AM to 10 PM,"
Semarang City,-6.9944642,110.4619402,Unknown,"Jl. Tlogo Biru II No.29, Tlogosari Kulon, Kec. Pedurungan, Kota Semarang, Jawa Tengah 50196, Indonesia",6,4.7,Central Java,Mess Elite 29,Vacation home rental agency,      
Semarang City,-6.9997518,110.4528173,Unknown,"Jl. Sendangsari Barat No.IV, Gayamsari, Kec. Gayamsari, Kota Semarang, Jawa Tengah 50248, Indonesia",1,5.0,Central Java,Markas ISP di Semarang,Vacation home rental agency,      
Semarang City,-7.0108833,110.4117209,Unknown,"Jl. Cikurai Raya No.585, Gajahmungkur, Kec. Gajahmungkur, Kota Semarang, Jawa Tengah 50232, Indonesia",3,5.0,Central Java,KONTRAKAN PAK JOHAN,Vacation home rental agency,      
Semarang City,-7.0091294,110.4165291,Unknown,"Jl. Sultan Agung No.86, Wonotingal, Kec. Candisari, Kota Semarang, Jawa Tengah 50252, Indonesia",1907,4.8,Central Java,Padma Hotel Semarang,Hotel,      
Semarang City,-6.9857102,110.422768,Unknown,"Jl. Mayor Jend. D.I. Panjaitan No.166c, Miroto, Kec. Semarang Tengah, Kota Semarang, Jawa Tengah 53411, Indonesia",100,4.3,Central Java,Rons City Hotel near Simpang Lima Semarang Mitra RedDoorz,Hotel,      
Semarang City,-6.9817231,110.4468363,Unknown,"Jl. Gajah Raya No.178, Pandean Lamper, Kec. Gayamsari, Kota Semarang, Jawa Tengah 50166, Indonesia",9,4.9,Central Java,VILA KU VILA MU,Villa,      
Semarang City,-6.9822696,110.4169928,Unknown,"Jl. Batan Miroto No.1, Miroto, Kec. Semarang Tengah, Kota Semarang, Jawa Tengah 50134, Indonesia",0,4.7,Central Java,Angel kos,Vacation home rental agency,      
Semarang City,-6.9823584,110.4157586,Unknown,"Jl. Sekayu Baru III No.391B, Sekayu, Kec. Semarang Tengah, Kota Semarang, Jawa Tengah 50132, Indonesia",0,4.7,Central Java,Sewa_inn,Real estate rental agency Tent rental service,"Monday 6 AM to 10 PM, Tuesday 6 AM to 10 PM, Wednesday 6 AM to 10 PM, Thursday 6 AM to 10 PM, Friday 6 AM to 10 PM, Saturday 6 AM to 10 PM, Sunday 6 AM to 10 PM,"
Semarang City,-6.9868513,110.4218618,Unknown,"Jl. Gajahmada No.123, Pekunden, Kec. Semarang Tengah, Kota Semarang, Jawa Tengah 50134, Indonesia",8541,4.7,Central Java,Hotel Tentrem Semarang,Hotel,      
Semarang City,-6.9891319,110.4235898,Unknown,"Jl. Simpang Lima No.1, Pekunden, Kec. Semarang Tengah, Kota Semarang, Jawa Tengah 50134, Indonesia",12038,4.8,Central Java,Hotel Ciputra Semarang managed by Swiss-Belhotel International,Hotel,      
Semarang City,-6.9841163,110.4124065,Unknown,"Jl. Simpang No.11, Sekayu, Kec. Semarang Tengah, Kota Semarang, Jawa Tengah 50132, Indonesia",1043,4.6,Central Java,AWANN SEWU Boutique Hotel & Suite,Hotel,      
Semarang City,-6.9867431,110.4228955,Unknown,"Jl. Gajahmada No.172, Pekunden, Kec. Semarang Tengah, Kota Semarang, Jawa Tengah 50133, Indonesia",6538,4.2,Central Java,ibis Semarang Simpang Lima,Hotel,      
Semarang City,-6.9742648,110.4192961,Unknown,"Jl. Pemuda No.45-51, Pandansari, Kec. Semarang Tengah, Kota Semarang, Jawa Tengah 50139, Indonesia",3278,4.4,Central Java,Hotel Louis Kienne Pemuda,Hotel,      
Semarang City,-6.9825991,110.4107302,Unknown,"Jl. Pemuda No.169, Sekayu, Kec. Semarang Tengah, Kota Semarang, Jawa Tengah 50132, Indonesia",690,4.5,Central Java,Hotel Quest Prime,Hotel,      
Surabaya,-7.2609221,112.6790723,Unknown,"PMQH+MM7, Balongsari, Tandes, Surabaya, East Java 60186, Indonesia",2,5.0,East Java,KOS PRIA SINGLE VONNY,Vacation home rental agency,      
Surabaya,-7.2264879,112.649662,+62 813-3074-6226,"Griyo, Benowo, Surabaya, East Java 60191, Indonesia",0,4.7,East Java,Guest House Agung,Vacation home rental agency,      
Surabaya,-7.2832726,112.664214,+62 815-5344-4664,"Jl. Raya Lontar No.212, Lontar, Kec. Sambikerep, Surabaya, Jawa Timur 60185, Indonesia",6,4.2,East Java,Rumah Kos 212,Vacation home rental agency,"Monday Open 24 hours, Tuesday Open 24 hours, Wednesday Open 24 hours, Thursday Open 24 hours, Friday Open 24 hours, Saturday Open 24 hours, Sunday Open 24 hours,"
Surabaya,-7.2788047,112.6326735,+62 813-5982-9306,"PJCM+F3F rumah pak kasmari, Jl. Made Selatan, RT.4 rw1, Made, Kec. Sambikerep, Surabaya, Jawa Timur 60219, Indonesia",5,4.2,East Java,Kos dan kontrak an pak kasmari,Vacation home rental agency,"Monday Open 24 hours, Tuesday Open 24 hours, Wednesday Open 24 hours, Thursday Open 24 hours, Friday Open 24 hours, Saturday Open 24 hours, Sunday Open 24 hours,"
Surabaya,-7.3026999,112.764256,+62 857-4520-3985,"Jl. Nginden V No.45a, Nginden Jangkungan, Kec. Sukolilo, Surabaya, Jawa Timur 60118, Indonesia",2,5.0,East Java,Kontrakan bu solicha,Vacation home rental agency,      
Surabaya,-7.2584528,112.6500288,+62 851-0017-6089,"Jl. Bringin Harapan Baru 1 No.1, Bringin, Kec. Sambikerep, Surabaya, Jawa Timur 60218, Indonesia",1,4.0,East Java,Kontrakan Bringin Harapan Baru I,Vacation home rental agency,"Monday Open 24 hours, Tuesday Open 24 hours, Wednesday Open 24 hours, Thursday Open 24 hours, Friday Open 24 hours, Saturday Open 24 hours, Sunday Open 24 hours,"
Surabaya,-7.2751394,112.7367808,+62 812-3142-9979,"depan masjid mustajabah, Jl. Pandegiling Tengah No.15, Tegalsari, Kec. Tegalsari, Surabaya, Jawa Timur 60262, Indonesia",0,4.7,East Java,Indah Home Kost,Vacation home rental agency,"Monday Open 24 hours, Tuesday Open 24 hours, Wednesday Open 24 hours, Thursday Open 24 hours, Friday Open 24 hours, Saturday Open 24 hours, Sunday Open 24 hours,"
Surabaya,-7.3321268,112.6777217,+62 896-9964-7461,"Jl. Sumberan hksn 3/29, RT.02/RW.04, Balas Klumprik, Kec. Wiyung, Surabaya, Jawa Timur 60222, Indonesia",3,5.0,East Java,grillnco_,Real estate rental agency,"Monday Open 24 hours, Tuesday Open 24 hours, Wednesday Open 24 hours, Thursday Open 24 hours, Friday Open 24 hours, Saturday Open 24 hours, Sunday Open 24 hours,"
Surabaya,-7.2906678,112.7613182,Unknown,"Ngagel Wasana VI No.11-15, Baratajaya, Kec. Gubeng, Surabaya, Jawa Timur 60284, Indonesia",0,4.7,East Java,Kos Pak Jo,Vacation home rental agency,"Monday 8 AM to 6 PM, Tuesday 8 AM to 6 PM, Wednesday 8 AM to 6 PM, Thursday 8 AM to 6 PM, Friday 8 AM to 6 PM, Saturday Closed, Sunday Closed,"
Surabaya,-7.3086173,112.7284421,+62 856-0606-0546,"Jl. Jetis Kulon Gg. X No.38, Wonokromo, belakang, Surabaya, Jawa Timur 60243, Indonesia",0,4.7,East Java,Kost Putri Bu Ria,Vacation home rental agency,      
Surabaya,-7.3125444,112.7390264,+62 823-3702-5282,"Jl. Margorejo IV F No.97, Margorejo, Kec. Wonocolo, Surabaya, Jawa Timur 60238, Indonesia",28,4.5,East Java,Kost Putri di Surabaya Islami,Vacation home rental agency Boarding house,      
Surabaya,-7.2855911,112.7414688,+62 851-7344-0091,"Jl. Dinoyo Sekolahan II No.40B, Keputran, Kec. Tegalsari, Surabaya, Jawa Timur 60265, Indonesia",3,4.7,East Java,Inna Kost,Vacation home rental agency,      
Surabaya,-7.3180117,112.7275086,+62 856-0430-1505,"Jl. Ketintang Sel. No.3, Karah, Kec. Jambangan, Surabaya, Jawa Timur 60232, Indonesia",1,1.0,East Java,Kos Putri 3,Vacation home rental agency,"Monday 8 AM to 10 PM, Tuesday 8 AM to 10 PM, Wednesday 8 AM to 10 PM, Thursday 8 AM to 10 PM, Friday 8 AM to 10 PM, Saturday 8 AM to 10 PM, Sunday 8 AM to 10 PM,"
Surabaya,-7.2849612,112.7118881,Unknown,"Jl. Dukuh Kupang XXXI No.59, Dukuh Kupang, Kec. Dukuhpakis, Surabaya, Jawa Timur 60225, Indonesia",24,4.9,East Java,Kost Ryan Yd,Vacation home rental agency,"Monday Open 24 hours, Tuesday Open 24 hours, Wednesday Open 24 hours, Thursday Open 24 hours, Friday Open 24 hours, Saturday Open 24 hours, Sunday Open 24 hours,"
Surabaya,-7.2758102,112.6413635,+62 813-3306-4898,"Jl. Alam Hijau Jl. Citraland Surabaya No.F5 no 14, Made, Kec. Sambikerep, Surabaya, Jawa Timur 60219, Indonesia",1,5.0,East Java,HAWILLA PROPERTY,Vacation home rental agency,      
Surabaya,-7.2940774,112.7104878,+62 811-2272-229,"Jl. Dukuh Pakis II No.30, RT.02/RW.01, Dukuh Pakis, Kec. Dukuhpakis, Surabaya, Jawa Timur 60225, Indonesia",31,4.5,East Java,PURI ALIT,Vacation home rental agency,"Monday 6 AM to 9:30 PM, Tuesday 6 AM to 9:30 PM, Wednesday 6 AM to 9:30 PM, Thursday 6 AM to 9:30 PM, Friday 6 AM to 9:30 PM, Saturday 6 AM to 9:30 PM, Sunday 6 AM to 9:30 PM,"
Surabaya,-7.3127448,112.7241816,Unknown,"Jl. Ketintang Wiyata IV No.30-A, Ketintang, Kec. Gayungan, Surabaya, Jawa Timur 60231, Indonesia",1,5.0,East Java,HOTSPOT SR KOS,Vacation home rental agency,"Monday Open 24 hours, Tuesday Open 24 hours, Wednesday Open 24 hours, Thursday Open 24 hours, Friday Open 24 hours, Saturday Open 24 hours, Sunday Open 24 hours,"
Surabaya,-7.2839986,112.6660932,+62 815-5344-4664,"Jl. Lontar Gang shafta No. 3, Sambikerep, Lontar, Kec. Sambikerep, Surabaya, Jawa Timur 60185, Indonesia",3,5.0,East Java,Prima Kos 212,Vacation home rental agency,"Monday Open 24 hours, Tuesday Open 24 hours, Wednesday Open 24 hours, Thursday Open 24 hours, Friday Open 24 hours, Saturday Open 24 hours, Sunday Open 24 hours,"
Surabaya,-7.2936339,112.7193093,+62 31 5953777,"Ciputra World, Jl. Mayjen Sungkono No.89 Office Lantai 20 - Unit 2009, RT.08/RW.06, Gn. Sari, Kec. Dukuhpakis, Surabaya, Jawa Timur 60224, Indonesia",0,4.7,East Java,ATS Vacations Ciputra World Office Surabaya,Travel agency,"Monday 9 AM to 5 PM, Tuesday 9 AM to 5 PM, Wednesday 9 AM to 5 PM, Thursday 9 AM to 5 PM, Friday 9 AM to 5 PM, Saturday 9 AM to 1 PM, Sunday Closed,"
Surabaya,-7.3072022,112.6748091,+62 819-3858-2177,"Babatan gg 5c No.11, Babatan, Kec. Wiyung, Surabaya, Jawa Timur 60227, Indonesia",0,4.7,East Java,Rumah kos nabila,Vacation home rental agency,      
Surabaya,-7.3179556,112.6972657,Unknown,"MMJW+RW6, Wiyung Indah Timur I, Wiyung, Kec. Wiyung, Surabaya, Jawa Timur, Indonesia",1,4.0,East Java,Hx 4,Vacation home rental agency,      
Surabaya,-7.313135,112.692957,+62 856-3309-106,"Jl. Wiyung III Jl. Raya Wiyung No.55, Wiyung, Kec. Wiyung, Surabaya, Jawa Timur 60211, Indonesia",0,4.7,East Java,Kos No.99F,Vacation home rental agency,"Monday Open 24 hours, Tuesday Open 24 hours, Wednesday Open 24 hours, Thursday Open 24 hours, Friday Open 24 hours, Saturday Open 24 hours, Sunday Open 24 hours,"
Surabaya,-7.2419266,112.7978147,+62 812-2233-3632,"Kompleks pergudangan Vacation Bus/Lion Air, Jl. Sukolilo Lor No.34, Sukolilo Baru, Kec. Bulak, Surabaya, Jawa Timur 60123, Indonesia",1,5.0,East Java,PHICA Pet Care,Dog trainer Cat boarding service Dog day care center Kennel Veterinarian,"Monday Open 24 hours, Tuesday Open 24 hours, Wednesday Open 24 hours, Thursday Open 24 hours, Friday Open 24 hours, Saturday Open 24 hours, Sunday Open 24 hours,"
Surabaya,-7.2254769,112.7644308,+62 895-6227-47732,"Randu Agung Gg. I No.23, Sidotopo Wetan, Kec. Kenjeran, Surabaya, Jawa Timur 60128, Indonesia",0,4.7,East Java,Kontrakan bu Ria,Contractor Vacation home rental agency,      
Surabaya,-7.2374972,112.7540719,+62 852-1699-9889,"Jl. Simokerto No.67, Simokerto, Kec. Simokerto, Surabaya, Jawa Timur 60143, Indonesia",41,4.8,East Java,Autumn Living Hotel Kapsul Simokerto,Hotel,      
Surabaya,-7.2259794,112.7788386,Unknown,"Jl. Kedinding Tengah Jaya I C No.7, Tanah Kali Kedinding, Kec. Kenjeran, Surabaya, Jawa Timur 60129, Indonesia",0,4.7,East Java,Kosan Juwono,Vacation home rental agency,      
Surabaya,-7.2473689,112.7437309,Unknown,"No., Pengampon Kalimir No.11, RT.003/RW.06, Bongkaran, Kec. Pabean Cantikan, Surabaya, Jawa Timur 60161, Indonesia",11,4.5,East Java,Kost Q Jl.jagalan Gg.kalimir Semut,Vacation home rental agency,      
Surabaya,-7.251432,112.762468,Unknown,"Jl. Ploso Bogen No.46, RT.005/RW.05, Ploso, Kec. Tambaksari, Surabaya, Jawa Timur 60133, Indonesia",1,5.0,East Java,Novi,Vacation home rental agency,      
Surabaya,-7.241816,112.742448,+62 31 3535094,"Jalan Siaga 17 Ruko Semut Megah C-12, Bongkaran, Surabaya Utara, Bongkaran, Kec. Pabean Cantikan, Surabaya, Jawa Timur 60161, Indonesia",42,4.7,East Java,Eazy Holiday Tour,Sightseeing tour agency Tour agency,"Monday 9 AM to 5 PM, Tuesday 9 AM to 5 PM, Wednesday 9 AM to 5 PM, Thursday 9 AM to 5 PM, Friday 9 AM to 5 PM, Saturday 9 AM to 4 PM, Sunday Closed,"
Surabaya,-7.2764653,112.7749911,+62 818-0942-3888,"Jl. Mulyorejo Selatan III No.23A, Mulyorejo, Kec. Mulyorejo, Surabaya, Jawa Timur 60115, Indonesia",12,5.0,East Java,Wisma Zhafira,Vacation home rental agency,"Monday 9 AM to 5 PM, Tuesday 9 AM to 5 PM, Wednesday 9 AM to 5 PM, Thursday 9 AM to 5 PM, Friday 9 AM to 5 PM, Saturday 9 AM to 5 PM, Sunday 9 AM to 5 PM,"
Surabaya,-7.248796,112.720231,+62 813-3074-6226,"Jl. Demak Jaya III No.5, Tembok Dukuh, Kec. Bubutan, Surabaya, Jawa Timur 60173, Indonesia",0,4.7,East Java,Rumah kost Agung,Vacation home rental agency,      
Surabaya,-7.254395,112.755358,+62 851-0783-0389,"Jl. Tambak Sari Sel. II No.22, Tambaksari, Kec. Tambaksari, Surabaya, Jawa Timur 60136, Indonesia",2,5.0,East Java,Sirius Journey,Tourist information center,"Monday 7:30 AM to 5 PM, Tuesday 7:30 AM to 5 PM, Wednesday 7:30 AM to 5 PM, Thursday 7:30 AM to 5 PM, Friday 7:30 AM to 5 PM, Saturday 7:30 AM to 2 PM, Sunday Closed,"
Surabaya,-7.2096765,112.7724213,+62 819-1748-7053,"Jl. Tambak wedi sejahtera, Tambak Wedi, Kec. Kenjeran, Surabaya, Jawa Timur 60126, Indonesia",0,4.7,East Java,Kontrakan Sejahtera Sadria,Vacation home rental agency,"Monday Open 24 hours, Tuesday Open 24 hours, Wednesday Open 24 hours, Thursday Open 24 hours, Friday Open 24 hours, Saturday Closed, Sunday Closed,"
Surabaya,-7.2452872,112.7272679,+62 823-3310-9911,"Jl. Dupak Jl. Sumber Mulyo No.2/23, Gundih, Kec. Bubutan, Surabaya, Jawa Timur 60172, Indonesia",1,5.0,East Java,Kost Murah Surabaya,Vacation home rental agency,      
Surabaya,-7.2862717,112.8014042,+62 857-4801-0138,"Jl. Kejawan Gebang No.16, RT.002/RW.04, Gebang Putih, Kec. Sukolilo, Surabaya, Jawa Timur 60117, Indonesia",3,4.7,East Java,"Kos Bu Nur Dekat ITS, PENS, PPNS, HANG TUAH",Vacation home rental agency,"Monday 6 AM to 11 PM, Tuesday 6 AM to 11 PM, Wednesday 6 AM to 11 PM, Thursday 6 AM to 11 PM, Friday 6 AM to 11 PM, Saturday 6 AM to 11 PM, Sunday 6 AM to 11 PM,"
Surabaya,-7.3115022,112.7525863,+62 852-8082-5858,"Jl. Sidosermo VI No.67, Sidosermo, Kec. Wonocolo, Surabaya, Jawa Timur 60239, Indonesia",5,5.0,East Java,DNA VACATION - tour & travel,Travel agency,"Monday 8:30 AM to 4:30 PM, Tuesday 8:30 AM to 4:30 PM, Wednesday 8:30 AM to 4:30 PM, Thursday 8:30 AM to 4:30 PM, Friday 8:30 AM to 4:30 PM, Saturday 8:30 AM to 1:30 PM, Sunday Closed,"
Surabaya,-7.2321313,112.789221,+62 895-3420-33161,"Jl. Bulak Kali Tinjang Baru No.8, Bulak, Kec. Bulak, Surabaya, Jawa Timur 60124, Indonesia",65,5.0,East Java,KOS KOSAN MILENIAL,Vacation home rental agency,"Monday Open 24 hours, Tuesday Open 24 hours, Wednesday Open 24 hours, Thursday Open 24 hours, Friday Open 24 hours, Saturday Open 24 hours, Sunday Open 24 hours,"
Surabaya,-7.291147,112.6724983,+62 821-7021-7171,"Ruko Waterplace Tokan No.A-16, Babatan, Kec. Wiyung, Surabaya, Jawa Timur 60213, Indonesia",0,4.7,East Java,Getrip Vacations,Travel agency,"Monday 8:30 AM to 4:30 PM, Tuesday 8:30 AM to 4:30 PM, Wednesday 8:30 AM to 4:30 PM, Thursday 8:30 AM to 4:30 PM, Friday 8:30 AM to 4:30 PM, Saturday 8:30 AM to 1 PM, Sunday Closed,"
Surabaya,-7.2912403,112.7306697,+62 31 5687887,"JL. Indragiri, Blok A9, No. 12-18, Darmo, Kec. Wonokromo, Surabaya, Jawa Timur 60241, Indonesia",0,4.7,East Java,ABC Vacation (PT. Artha Bangun Cemerlang),Travel agency,      
Surabaya,-7.2874856,112.8134515,Unknown,"Zimbali Costa Y5 no 35,Grand Island, Keputih, Kec. Sukolilo, Surabaya, Jawa Timur 60111, Indonesia",1,5.0,East Java,Victory Vacation,Corporate office,      
Surabaya,-7.2510249,112.7006887,Unknown,"Jl. Tambak Pring Barat Raya No.21, Asem Rowo, Kec. Asem Rowo, Surabaya, Jawa Timur 60182, Indonesia",0,4.7,East Java,Sanvacation tour Travel,Travel agency,"Monday 9 AM to 3 PM, Tuesday 9 AM to 3 PM, Wednesday 9 AM to 3 PM, Thursday 9 AM to 3 PM, Friday 9 AM to 3 PM, Saturday 9 AM to 2 PM, Sunday Closed,"
Surabaya,-7.2654207,112.7469136,+62 813-3075-0727,"Sinarmas Land Plaza, Jl. Pemuda No.60-70, Embong Kaliasin, Kec. Genteng, Surabaya, Jawa Timur 60271, Indonesia",13,4.8,East Java,Paket Wisata Halal & Backpacker Thailand | SAN Vacation,Tour agency,"Monday 9 AM to 5:30 PM, Tuesday 9 AM to 5:30 PM, Wednesday 9 AM to 5:30 PM, Thursday 9 AM to 5:30 PM, Friday 9 AM to 5:30 PM, Saturday 9 AM to 1:30 PM, Sunday Closed,"
Surabaya,-7.2834536,112.7804591,+62 31 5953777,"11, Ruko Mega Galaxy, Jl. Sukarno Hatta No.14A/11, Klampis Ngasem, Kec. Sukolilo, Surabaya, Jawa Timur 60117, Indonesia",51,4.3,East Java,ATS Vacations Surabaya,Travel agency,"Monday 9 AM to 5 PM, Tuesday 9 AM to 5 PM, Wednesday 9 AM to 5 PM, Thursday 9 AM to 5 PM, Friday 9 AM to 5 PM, Saturday 9 AM to 1 PM, Sunday Closed,"
Surabaya,-7.231015,112.751475,Unknown,"Jl. Sidotopo Kidul No.86, RT.004RT.004/RW.07, Sidotopo, Kec. Semampir, Surabaya, Jawa Timur 60152, Indonesia",0,4.7,East Java,Kost,Vacation home rental agency,      
Surabaya,-7.242472,112.7640737,+62 855-3693-0624,"Kapas lor 1G 2C.Selisih 1 Rumah dari Pukesmas Gading, RW, Indonesia",2,5.0,East Java,KOS VITRI CABANG 2,Vacation home rental agency,"Monday 6 AM to 10 PM, Tuesday 6 AM to 10 PM, Wednesday 6 AM to 10 PM, Thursday 6 AM to 10 PM, Friday 6 AM to 10 PM, Saturday 6 AM to 10 PM, Sunday 6 AM to 10 PM,"
Surabaya,-7.2787163,112.7330476,+62 31 5682388,"Jl. R.A Kartini No.123 D, DR. Soetomo, Kec. Tegalsari, Surabaya, Jawa Timur 60264, Indonesia",7,5.0,East Java,Infinite Vacation,Travel agency,"Monday 8:30 AM to 4:30 PM, Tuesday 8:30 AM to 4:30 PM, Wednesday 8:30 AM to 4:30 PM, Thursday 8:30 AM to 4:30 PM, Friday 8:30 AM to 4:30 PM, Saturday Closed, Sunday Closed,"
Surabaya,-7.2578851,112.7322658,+62 31 99246060,"Jl. Tidar No.20A Lantai 2, RT.003/RW.07, Sawahan, Surabaya, East Java 60251, Indonesia",1,3.0,East Java,WIJAYA VACATION,Travel agency,"Monday 10 AM to 5:30 PM, Tuesday 10 AM to 5:30 PM, Wednesday 10 AM to 5:30 PM, Thursday 10 AM to 5:30 PM, Friday 10 AM to 5:30 PM, Saturday 10 AM to 2 PM, Sunday Closed,"
Surabaya,-7.2615111,112.768591,+62 31 9999992,"Jl. Kalikepiting Jaya IX No.41 016, RT.016/RW.05, Pacar Kembang, Kec. Tambaksari, Surabaya, Jawa Timur 60132, Indonesia",0,4.7,East Java,Vacation Journey,Indoor lodging,      
Surabaya,-7.2419266,112.7978147,+62 821-3941-5999,"Jl. Sukolilo Lor No.34, Sukolilo Baru, Kec. Bulak, Surabaya, Jawa Timur 60123, Indonesia",36,4.7,East Java,Po Vacationbus,Bus charter,      
